{
  "type": "FeatureCollection",
  "features": [
    {
      "type": "Feature",
      "id": null,
      "geometry": {
        "type": "LineString",
        "coordinates": [
          [
            115.98567963,
            29.72236443
          ],
          [
            115.998779296875,
            29.744012762494116
          ],
          [
            116.01279296875003,
            29.748163153119116
          ],
          [
            116.07763671875,
            29.776385809369117
          ],
          [
            116.11025390625002,
            29.78644440311912
          ],
          [
            116.14697265625,
            29.788690496869116
          ],
          [
            116.20654296875,
            29.78131744999412
          ],
          [
            116.23593750000003,
            29.781268621869117
          ],
          [
            116.26523437500003,
            29.78888580936912
          ],
          [
            116.29755859375001,
            29.808710028119116
          ],
          [
            116.35654296875003,
            29.858270574994116
          ],
          [
            116.38916015625,
            29.875995184369117
          ],
          [
            116.41425781250001,
            29.88056061405662
          ],
          [
            116.466552734375,
            29.88031647343162
          ],
          [
            116.4921875,
            29.884637762494116
          ],
          [
            116.512939453125,
            29.89411041874412
          ],
          [
            116.52695312500003,
            29.90668366093162
          ],
          [
            116.53662109375,
            29.923211981244116
          ],
          [
            116.548828125,
            29.954120184369117
          ],
          [
            116.567138671875,
            29.97675202030662
          ],
          [
            116.5751953125,
            29.99079010624412
          ],
          [
            116.5791015625,
            29.995233465619116
          ],
          [
            116.587890625,
            30.001971746869117
          ],
          [
            116.59169921875002,
            30.00568268436912
          ],
          [
            116.59375,
            30.01056549686912
          ],
          [
            116.60507812500003,
            30.017694403119116
          ],
          [
            116.636474609375,
            30.043329168744116
          ],
          [
            116.65009765625001,
            30.05060455936912
          ],
          [
            116.66259765625,
            30.052752996869117
          ],
          [
            116.69052734375003,
            30.05390045780662
          ],
          [
            116.716064453125,
            30.05975983280662
          ],
          [
            116.79052734375,
            30.09088776249412
          ],
          [
            116.80849609375002,
            30.102069403119117
          ],
          [
            116.822265625,
            30.11542389530662
          ],
          [
            116.89687500000002,
            30.24420807499412
          ],
          [
            116.90683593750003,
            30.27069733280662
          ],
          [
            116.92001953125003,
            30.32453034061912
          ],
          [
            116.92138671875,
            30.33746979374412
          ],
          [
            116.91396484375002,
            30.35858795780662
          ],
          [
            116.89912109375001,
            30.38068268436912
          ],
          [
            116.88828125000003,
            30.402606512494117
          ],
          [
            116.89267578125003,
            30.42328522343162
          ],
          [
            116.90185546875,
            30.42975494999412
          ],
          [
            116.91328125000001,
            30.43195221561912
          ],
          [
            116.92519531250002,
            30.43292877811912
          ],
          [
            116.93613281250003,
            30.43585846561912
          ],
          [
            116.94863281250002,
            30.44342682499412
          ],
          [
            116.984375,
            30.47174713749412
          ],
          [
            117.00751953125001,
            30.48371002811912
          ],
          [
            117.03330078125003,
            30.490594793744116
          ],
          [
            117.150634765625,
            30.494256903119116
          ],
          [
            117.18310546875,
            30.499383856244116
          ],
          [
            117.20957031250003,
            30.514032293744116
          ],
          [
            117.21787109375003,
            30.52252838749412
          ],
          [
            117.22568359375003,
            30.532489324994117
          ],
          [
            117.23124999999999,
            30.543475653119117
          ],
          [
            117.23281250000002,
            30.55512116093162
          ],
          [
            117.22402343750002,
            30.586200262494117
          ],
          [
            117.22412109375,
            30.59723541874412
          ],
          [
            117.22802734375,
            30.61176178593162
          ],
          [
            117.2275390625,
            30.61737702030662
          ],
          [
            117.22568359375003,
            30.623065496869117
          ],
          [
            117.220703125,
            30.634295965619117
          ],
          [
            117.21884765625003,
            30.640252996869116
          ],
          [
            117.2177734375,
            30.648944403119117
          ],
          [
            117.21767578125002,
            30.658465887494117
          ],
          [
            117.21992187500001,
            30.667108465619116
          ],
          [
            117.22597656250002,
            30.673358465619117
          ],
          [
            117.23427734375002,
            30.674920965619116
          ],
          [
            117.25234375000002,
            30.670672918744117
          ],
          [
            117.2607421875,
            30.66962311405662
          ],
          [
            117.27695312500003,
            30.673358465619117
          ],
          [
            117.32666015625,
            30.69476959843162
          ],
          [
            117.34589843750001,
            30.698749090619117
          ],
          [
            117.421630859375,
            30.70050690311912
          ],
          [
            117.42919921875,
            30.70246002811912
          ],
          [
            117.4365234375,
            30.70636627811912
          ],
          [
            117.45791015625002,
            30.72223541874412
          ],
          [
            117.466064453125,
            30.72626373905662
          ],
          [
            117.537109375,
            30.740838934369116
          ],
          [
            117.55234375000003,
            30.747821356244117
          ],
          [
            117.59335937500003,
            30.773700262494117
          ],
          [
            117.608642578125,
            30.780145574994116
          ],
          [
            117.642578125,
            30.78949616093162
          ],
          [
            117.68740234375002,
            30.796649481244117
          ],
          [
            117.697265625,
            30.803729559369117
          ],
          [
            117.73203125000003,
            30.87445709843162
          ],
          [
            117.74716796875003,
            30.943475653119116
          ],
          [
            117.76806640625,
            31.00665924686912
          ],
          [
            117.76884765624999,
            31.02374909061912
          ],
          [
            117.763671875,
            31.058710028119116
          ],
          [
            117.76328125000003,
            31.07648346561912
          ],
          [
            117.76650390625002,
            31.09210846561912
          ],
          [
            117.77236328125002,
            31.103876043744116
          ],
          [
            117.781494140625,
            31.11395905155662
          ],
          [
            117.79335937500002,
            31.12445709843162
          ],
          [
            117.80751953125002,
            31.134393621869116
          ],
          [
            117.82275390625,
            31.14118073124412
          ],
          [
            117.83935546875,
            31.143670965619116
          ],
          [
            117.85683593750002,
            31.14093659061912
          ],
          [
            117.870361328125,
            31.133319403119117
          ],
          [
            117.87919921874999,
            31.12225983280662
          ],
          [
            117.89453125,
            31.096795965619116
          ],
          [
            117.90712890625002,
            31.087665106244117
          ],
          [
            117.921875,
            31.08600494999412
          ],
          [
            117.937255859375,
            31.08893463749412
          ],
          [
            117.95273437500003,
            31.09357330936912
          ],
          [
            117.96826171875,
            31.10028717655662
          ],
          [
            117.98037109375002,
            31.109979559369116
          ],
          [
            117.98867187500002,
            31.122821356244117
          ],
          [
            117.992919921875,
            31.13898346561912
          ],
          [
            117.99355468750002,
            31.191278387494116
          ],
          [
            117.99589843749999,
            31.208612371869116
          ],
          [
            118.00234375000002,
            31.223260809369116
          ],
          [
            118.01416015625,
            31.23761627811912
          ],
          [
            118.02783203125,
            31.243670965619117
          ],
          [
            118.04042968750002,
            31.23334381718162
          ],
          [
            118.060546875,
            31.23322174686912
          ],
          [
            118.11269531250002,
            31.25250885624412
          ],
          [
            118.15595703125001,
            31.259149481244116
          ],
          [
            118.173828125,
            31.265887762494117
          ],
          [
            118.21005859375003,
            31.28778717655662
          ],
          [
            118.22011718750002,
            31.291131903119116
          ],
          [
            118.296630859375,
            31.297381903119117
          ],
          [
            118.30615234375,
            31.300409246869116
          ],
          [
            118.31513671875001,
            31.30805084843162
          ],
          [
            118.3212890625,
            31.320819403119117
          ],
          [
            118.324462890625,
            31.33832428593162
          ],
          [
            118.325439453125,
            31.35639069218162
          ],
          [
            118.324462890625,
            31.37103912968162
          ],
          [
            118.32236328125003,
            31.383172918744116
          ],
          [
            118.318603515625,
            31.39496491093162
          ],
          [
            118.3154296875,
            31.40082428593162
          ],
          [
            118.30488281250001,
            31.41644928593162
          ],
          [
            118.3017578125,
            31.42780182499412
          ],
          [
            118.30214843750002,
            31.438348699994116
          ],
          [
            118.30517578125,
            31.44879791874412
          ],
          [
            118.309814453125,
            31.460077215619116
          ],
          [
            118.31601562500003,
            31.471307684369116
          ],
          [
            118.34794921874999,
            31.507586981244117
          ],
          [
            118.379638671875,
            31.556170965619117
          ],
          [
            118.40380859375,
            31.62323639530662
          ],
          [
            118.4150390625,
            31.69977448124412
          ],
          [
            118.42617187500002,
            31.724481512494116
          ],
          [
            118.447998046875,
            31.75641510624412
          ],
          [
            118.49863281250003,
            31.85126373905662
          ],
          [
            118.50478515625002,
            31.85919830936912
          ],
          [
            118.53476562500003,
            31.88446686405662
          ],
          [
            118.54052734375,
            31.892450262494116
          ],
          [
            118.55332031250003,
            31.916278387494117
          ],
          [
            118.58632812500002,
            31.949579168744116
          ],
          [
            118.61484375000003,
            31.990008856244117
          ],
          [
            118.64589843750002,
            32.01618073124412
          ],
          [
            118.65839843750001,
            32.03058502811912
          ],
          [
            118.6689453125,
            32.03949616093162
          ],
          [
            118.689453125,
            32.06244537968162
          ],
          [
            118.70634765624999,
            32.093377996869116
          ],
          [
            118.73408203125001,
            32.124872137494116
          ],
          [
            118.74746093750002,
            32.14723541874412
          ],
          [
            118.75849609375001,
            32.161004949994116
          ],
          [
            118.759521484375,
            32.16290924686912
          ],
          [
            118.761474609375,
            32.16803619999412
          ],
          [
            118.7646484375,
            32.17450592655662
          ],
          [
            118.76904296875,
            32.18121979374412
          ],
          [
            118.77431640625002,
            32.18707916874412
          ],
          [
            118.7802734375,
            32.19110748905662
          ],
          [
            118.78652343750002,
            32.19269440311912
          ],
          [
            118.793212890625,
            32.19281647343162
          ],
          [
            118.82041015625003,
            32.18898346561912
          ],
          [
            118.88349609375001,
            32.173211981244116
          ],
          [
            118.90966796875,
            32.17389557499412
          ],
          [
            118.927734375,
            32.17682526249412
          ],
          [
            118.96337890625,
            32.18776276249412
          ],
          [
            119.02783203125,
            32.221307684369116
          ],
          [
            119.07871093750003,
            32.23273346561912
          ],
          [
            119.12919921874999,
            32.22853424686912
          ],
          [
            119.22939453125002,
            32.20265534061912
          ],
          [
            119.252197265625,
            32.20001862186912
          ],
          [
            119.2783203125,
            32.201288153119116
          ],
          [
            119.3037109375,
            32.206170965619116
          ],
          [
            119.324462890625,
            32.21461823124412
          ],
          [
            119.34619140625,
            32.22675202030662
          ],
          [
            119.36533203125003,
            32.23439362186912
          ],
          [
            119.3857421875,
            32.237420965619116
          ],
          [
            119.45253906250002,
            32.23346588749412
          ],
          [
            119.50478515625002,
            32.23952057499412
          ],
          [
            119.517333984375,
            32.23805573124412
          ],
          [
            119.53051098882067,
            32.334737023408145
          ],
          [
            119.52775753496816,
            32.34241413788806
          ],
          [
            119.52307666341889,
            32.348229700105215
          ],
          [
            119.5219752818779,
            32.353812288131444
          ],
          [
            119.52114924572216,
            32.370557984742284
          ],
          [
            119.52307666341889,
            32.39032321732427
          ],
          [
            119.51013543031215,
            32.41240865373016
          ],
          [
            119.50958473954164,
            32.42635456627038
          ],
          [
            119.50435317722192,
            32.43495347097054
          ],
          [
            119.49113659872988,
            32.4493896523855
          ],
          [
            119.48340111431305,
            32.47066210252326
          ],
          [
            119.48543178652923,
            32.486246609096355
          ],
          [
            119.48722153153335,
            32.491936785654694
          ],
          [
            119.49313285277296,
            32.49981824692598
          ],
          [
            119.50176320969187,
            32.49944088146502
          ],
          [
            119.50014555555353,
            32.50769901758055
          ],
          [
            119.50169437334554,
            32.52346574178972
          ],
          [
            119.49732326535472,
            32.53831571256149
          ],
          [
            119.48827989035793,
            32.55107442470708
          ],
          [
            119.47576027987235,
            32.58873794601787
          ],
          [
            119.46787851821954,
            32.60343939365857
          ],
          [
            119.46182091974403,
            32.63184955446934
          ],
          [
            119.45920513858421,
            32.63164665671905
          ],
          [
            119.4542489216497,
            32.66271363734069
          ],
          [
            119.44130768854293,
            32.709525547306136
          ],
          [
            119.42382325657964,
            32.7840957473983
          ],
          [
            119.42162049349764,
            32.817423705213585
          ],
          [
            119.41280944116963,
            32.90253835976168
          ],
          [
            119.39959286267764,
            32.969092825718974
          ],
          [
            119.4059258065384,
            32.98964987181688
          ],
          [
            119.41060667808765,
            32.99888743461792
          ],
          [
            119.41060667808765,
            33.01828316861086
          ],
          [
            119.40565046115316,
            33.045291545966755
          ],
          [
            119.3872023203414,
            33.103319983304885
          ],
          [
            119.3816954126364,
            33.109316763685776
          ],
          [
            119.36958021568539,
            33.141600083485834
          ],
          [
            119.3629719264394,
            33.14805532294581
          ],
          [
            119.35361018334089,
            33.1535880073259
          ],
          [
            119.34920465717691,
            33.155432157905764
          ],
          [
            119.3398429140784,
            33.15958135493677
          ],
          [
            119.33268393406189,
            33.16465232915446
          ],
          [
            119.3288290986684,
            33.168340126196576
          ],
          [
            119.31643855633216,
            33.19438077559669
          ],
          [
            119.31093164862716,
            33.20935640339873
          ],
          [
            119.3062507770779,
            33.22893605102705
          ],
          [
            119.29991783321715,
            33.23031797822977
          ],
          [
            119.29523696166791,
            33.24735995151528
          ],
          [
            119.28945470857765,
            33.25265610430175
          ],
          [
            119.28807798165143,
            33.26048461176549
          ],
          [
            119.27740834797297,
            33.272974233512684
          ],
          [
            119.25427933561195,
            33.31072001441459
          ],
          [
            119.24629431943971,
            33.31601232425388
          ],
          [
            119.2340414497961,
            33.34039881679296
          ],
          [
            119.17766448216615,
            33.42133138830321
          ],
          [
            119.1680273936824,
            33.43971464633359
          ],
          [
            119.1484778713297,
            33.46464071753319
          ],
          [
            119.1418695820837,
            33.47199081730523
          ],
          [
            119.13250783898519,
            33.47290953594715
          ],
          [
            119.12424747742769,
            33.46831584533668
          ],
          [
            119.1093788266242,
            33.47750298304894
          ],
          [
            119.0454986972462,
            33.5303101171636
          ],
          [
            119.0262245202787,
            33.54316262810852
          ],
          [
            119.0063996525407,
            33.55647214260306
          ],
          [
            118.9915310017372,
            33.565191057592536
          ],
          [
            118.9805171863272,
            33.57345027032977
          ],
          [
            118.97060475245823,
            33.57849717803454
          ],
          [
            118.96564853552371,
            33.58124991240059
          ],
          [
            119.14,
            33.5
          ]
        ]
      },
      "properties": {
        "figure_id": "Figure 3",
        "feature_type": "route_segment",
        "coordinate_status": "current draft; route endpoints retain current project coordinates",
        "route_name": "Xunyang-Huaiyin waterway detour",
        "geometry_basis": "Natural Earth Yangtze centreline + project Grand Canal geometry",
        "source_summary": "Natural Earth Yangtze centreline and the project Grand Canal reference geometry."
      }
    }
  ]
}
