{
  "type": "FeatureCollection",
  "features": [
    {
      "type": "Feature",
      "id": "FIG3-CENTRAL_CONTINUATION-001",
      "geometry": {
        "type": "LineString",
        "coordinates": [
          [
            119.14,
            33.5
          ],
          [
            119.016685,
            33.588356
          ]
        ]
      },
      "properties": {
        "figure_id": "Figure 3",
        "feature_type": "route_segment",
        "coordinate_status": "검토용 후보 좌표",
        "id": "FIG3-CENTRAL_CONTINUATION-001",
        "route_name": "Canal detour and Shandong central route",
        "sequence": 1,
        "source_name_zh": "淮陰驛",
        "target_name_zh": "清口驛",
        "transport_mode": "route_mode_pending",
        "geometry_basis": "straight_line_between_linked_appendix_nodes",
        "source_summary": "Article appendix and route reconstruction.",
        "source_historical_county": "山陽縣",
        "target_historical_county": "清河縣"
      }
    },
    {
      "type": "Feature",
      "id": "FIG3-CENTRAL_CONTINUATION-002",
      "geometry": {
        "type": "LineString",
        "coordinates": [
          [
            119.016685,
            33.588356
          ],
          [
            118.297058,
            33.958302
          ]
        ]
      },
      "properties": {
        "figure_id": "Figure 3",
        "feature_type": "route_segment",
        "coordinate_status": "검토용 후보 좌표",
        "id": "FIG3-CENTRAL_CONTINUATION-002",
        "route_name": "Canal detour and Shandong central route",
        "sequence": 2,
        "source_name_zh": "清口驛",
        "target_name_zh": "鍾吾驛",
        "transport_mode": "route_mode_pending",
        "geometry_basis": "straight_line_between_linked_appendix_nodes",
        "source_summary": "Article appendix and route reconstruction.",
        "source_historical_county": "清河縣",
        "target_historical_county": "宿遷縣"
      }
    },
    {
      "type": "Feature",
      "id": "FIG3-CENTRAL_CONTINUATION-003",
      "geometry": {
        "type": "LineString",
        "coordinates": [
          [
            118.297058,
            33.958302
          ],
          [
            117.963066,
            34.47102
          ]
        ]
      },
      "properties": {
        "figure_id": "Figure 3",
        "feature_type": "route_segment",
        "coordinate_status": "검토용 후보 좌표",
        "id": "FIG3-CENTRAL_CONTINUATION-003",
        "route_name": "Canal detour and Shandong central route",
        "sequence": 3,
        "source_name_zh": "鍾吾驛",
        "target_name_zh": "邳州",
        "transport_mode": "route_mode_pending",
        "geometry_basis": "straight_line_between_linked_appendix_nodes",
        "source_summary": "Article appendix and route reconstruction.",
        "source_historical_county": "宿遷縣"
      }
    },
    {
      "type": "Feature",
      "id": "FIG3-CENTRAL_CONTINUATION-004",
      "geometry": {
        "type": "LineString",
        "coordinates": [
          [
            117.963066,
            34.47102
          ],
          [
            117.58606,
            34.77
          ]
        ]
      },
      "properties": {
        "figure_id": "Figure 3",
        "feature_type": "route_segment",
        "coordinate_status": "검토용 후보 좌표",
        "id": "FIG3-CENTRAL_CONTINUATION-004",
        "route_name": "Canal detour and Shandong central route",
        "sequence": 4,
        "source_name_zh": "邳州",
        "target_name_zh": "嶧縣",
        "transport_mode": "route_mode_pending",
        "geometry_basis": "straight_line_between_linked_appendix_nodes",
        "source_summary": "Article appendix and route reconstruction."
      }
    },
    {
      "type": "Feature",
      "id": "FIG3-CENTRAL_CONTINUATION-005",
      "geometry": {
        "type": "LineString",
        "coordinates": [
          [
            117.58606,
            34.77
          ],
          [
            117.15816498,
            35.08609009
          ]
        ]
      },
      "properties": {
        "figure_id": "Figure 3",
        "feature_type": "route_segment",
        "coordinate_status": "검토용 후보 좌표",
        "id": "FIG3-CENTRAL_CONTINUATION-005",
        "route_name": "Canal detour and Shandong central route",
        "sequence": 5,
        "source_name_zh": "嶧縣",
        "target_name_zh": "滕陽驛",
        "transport_mode": "route_mode_pending",
        "geometry_basis": "straight_line_between_linked_appendix_nodes",
        "source_summary": "Article appendix and route reconstruction.",
        "target_historical_province": "山東",
        "target_historical_county": "滕縣"
      }
    },
    {
      "type": "Feature",
      "id": "FIG3-CENTRAL_CONTINUATION-006",
      "geometry": {
        "type": "LineString",
        "coordinates": [
          [
            117.15816498,
            35.08609009
          ],
          [
            116.96727,
            35.40276
          ]
        ]
      },
      "properties": {
        "figure_id": "Figure 3",
        "feature_type": "route_segment",
        "coordinate_status": "검토용 후보 좌표",
        "id": "FIG3-CENTRAL_CONTINUATION-006",
        "route_name": "Canal detour and Shandong central route",
        "sequence": 6,
        "source_name_zh": "滕陽驛",
        "target_name_zh": "界河驛",
        "transport_mode": "route_mode_pending",
        "geometry_basis": "straight_line_between_linked_appendix_nodes",
        "source_summary": "Article appendix and route reconstruction.",
        "source_historical_province": "山東",
        "source_historical_county": "滕縣",
        "target_historical_province": "山東",
        "target_historical_county": "鄒縣"
      }
    },
    {
      "type": "Feature",
      "id": "FIG3-CENTRAL_CONTINUATION-007",
      "geometry": {
        "type": "LineString",
        "coordinates": [
          [
            116.96727,
            35.40276
          ],
          [
            116.96843719,
            35.40382004
          ]
        ]
      },
      "properties": {
        "figure_id": "Figure 3",
        "feature_type": "route_segment",
        "coordinate_status": "검토용 후보 좌표",
        "id": "FIG3-CENTRAL_CONTINUATION-007",
        "route_name": "Canal detour and Shandong central route",
        "sequence": 7,
        "source_name_zh": "界河驛",
        "target_name_zh": "邾城驛",
        "transport_mode": "route_mode_pending",
        "geometry_basis": "straight_line_between_linked_appendix_nodes",
        "source_summary": "Article appendix and route reconstruction.",
        "source_historical_province": "山東",
        "source_historical_county": "鄒縣",
        "target_historical_province": "山東",
        "target_historical_county": "鄒縣"
      }
    },
    {
      "type": "Feature",
      "id": "FIG3-CENTRAL_CONTINUATION-008",
      "geometry": {
        "type": "LineString",
        "coordinates": [
          [
            116.96843719,
            35.40382004
          ],
          [
            116.82369995,
            35.55669785
          ]
        ]
      },
      "properties": {
        "figure_id": "Figure 3",
        "feature_type": "route_segment",
        "coordinate_status": "검토용 후보 좌표",
        "id": "FIG3-CENTRAL_CONTINUATION-008",
        "route_name": "Canal detour and Shandong central route",
        "sequence": 8,
        "source_name_zh": "邾城驛",
        "target_name_zh": "昌平驛",
        "transport_mode": "route_mode_pending",
        "geometry_basis": "straight_line_between_linked_appendix_nodes",
        "source_summary": "Article appendix and route reconstruction.",
        "source_historical_province": "山東",
        "source_historical_county": "鄒縣",
        "target_historical_province": "山東",
        "target_historical_county": "滋陽縣"
      }
    },
    {
      "type": "Feature",
      "id": "FIG3-CENTRAL_CONTINUATION-009",
      "geometry": {
        "type": "LineString",
        "coordinates": [
          [
            116.82369995,
            35.55669785
          ],
          [
            116.669609,
            35.650402
          ]
        ]
      },
      "properties": {
        "figure_id": "Figure 3",
        "feature_type": "route_segment",
        "coordinate_status": "검토용 후보 좌표",
        "id": "FIG3-CENTRAL_CONTINUATION-009",
        "route_name": "Canal detour and Shandong central route",
        "sequence": 9,
        "source_name_zh": "昌平驛",
        "target_name_zh": "新嘉驛",
        "transport_mode": "route_mode_pending",
        "geometry_basis": "straight_line_between_linked_appendix_nodes",
        "source_summary": "Article appendix and route reconstruction.",
        "source_historical_province": "山東",
        "source_historical_county": "滋陽縣",
        "target_historical_province": "山東",
        "target_historical_county": "滋陽縣"
      }
    },
    {
      "type": "Feature",
      "id": "FIG3-CENTRAL_CONTINUATION-010",
      "geometry": {
        "type": "LineString",
        "coordinates": [
          [
            116.669609,
            35.650402
          ],
          [
            116.48555756,
            35.72985458
          ]
        ]
      },
      "properties": {
        "figure_id": "Figure 3",
        "feature_type": "route_segment",
        "coordinate_status": "검토용 후보 좌표",
        "id": "FIG3-CENTRAL_CONTINUATION-010",
        "route_name": "Canal detour and Shandong central route",
        "sequence": 10,
        "source_name_zh": "新嘉驛",
        "target_name_zh": "新橋驛",
        "transport_mode": "route_mode_pending",
        "geometry_basis": "straight_line_between_linked_appendix_nodes",
        "source_summary": "Article appendix and route reconstruction.",
        "source_historical_province": "山東",
        "source_historical_county": "滋陽縣",
        "target_historical_province": "山東",
        "target_historical_county": "汶上縣"
      }
    },
    {
      "type": "Feature",
      "id": "FIG3-CENTRAL_CONTINUATION-011",
      "geometry": {
        "type": "LineString",
        "coordinates": [
          [
            116.48555756,
            35.72985458
          ],
          [
            116.29917145,
            35.91034317
          ]
        ]
      },
      "properties": {
        "figure_id": "Figure 3",
        "feature_type": "route_segment",
        "coordinate_status": "검토용 후보 좌표",
        "id": "FIG3-CENTRAL_CONTINUATION-011",
        "route_name": "Canal detour and Shandong central route",
        "sequence": 11,
        "source_name_zh": "新橋驛",
        "target_name_zh": "東原驛",
        "transport_mode": "route_mode_pending",
        "geometry_basis": "straight_line_between_linked_appendix_nodes",
        "source_summary": "Article appendix and route reconstruction.",
        "source_historical_province": "山東",
        "source_historical_county": "汶上縣",
        "target_historical_province": "山東",
        "target_historical_zhou": "東平州"
      }
    },
    {
      "type": "Feature",
      "id": "FIG3-CENTRAL_CONTINUATION-012",
      "geometry": {
        "type": "LineString",
        "coordinates": [
          [
            116.29917145,
            35.91034317
          ],
          [
            116.236664,
            36.121021
          ]
        ]
      },
      "properties": {
        "figure_id": "Figure 3",
        "feature_type": "route_segment",
        "coordinate_status": "검토용 후보 좌표",
        "id": "FIG3-CENTRAL_CONTINUATION-012",
        "route_name": "Canal detour and Shandong central route",
        "sequence": 12,
        "source_name_zh": "東原驛",
        "target_name_zh": "舊縣驛",
        "transport_mode": "route_mode_pending",
        "geometry_basis": "straight_line_between_linked_appendix_nodes",
        "source_summary": "Article appendix and route reconstruction.",
        "source_historical_province": "山東",
        "source_historical_zhou": "東平州",
        "target_historical_province": "山東",
        "target_historical_county": "東阿縣"
      }
    },
    {
      "type": "Feature",
      "id": "FIG3-CENTRAL_CONTINUATION-013",
      "geometry": {
        "type": "LineString",
        "coordinates": [
          [
            116.236664,
            36.121021
          ],
          [
            116.239425,
            36.329586
          ]
        ]
      },
      "properties": {
        "figure_id": "Figure 3",
        "feature_type": "route_segment",
        "coordinate_status": "검토용 후보 좌표",
        "id": "FIG3-CENTRAL_CONTINUATION-013",
        "route_name": "Canal detour and Shandong central route",
        "sequence": 13,
        "source_name_zh": "舊縣驛",
        "target_name_zh": "銅城驛",
        "transport_mode": "route_mode_pending",
        "geometry_basis": "straight_line_between_linked_appendix_nodes",
        "source_summary": "Article appendix and route reconstruction.",
        "source_historical_province": "山東",
        "source_historical_county": "東阿縣",
        "target_historical_province": "山東",
        "target_historical_county": "東阿縣"
      }
    },
    {
      "type": "Feature",
      "id": "FIG3-CENTRAL_CONTINUATION-014",
      "geometry": {
        "type": "LineString",
        "coordinates": [
          [
            116.239425,
            36.329586
          ],
          [
            116.25022888,
            36.58661652
          ]
        ]
      },
      "properties": {
        "figure_id": "Figure 3",
        "feature_type": "route_segment",
        "coordinate_status": "검토용 후보 좌표",
        "id": "FIG3-CENTRAL_CONTINUATION-014",
        "route_name": "Canal detour and Shandong central route",
        "sequence": 14,
        "source_name_zh": "銅城驛",
        "target_name_zh": "茌山驛",
        "transport_mode": "route_mode_pending",
        "geometry_basis": "straight_line_between_linked_appendix_nodes",
        "source_summary": "Article appendix and route reconstruction.",
        "source_historical_province": "山東",
        "source_historical_county": "東阿縣",
        "target_historical_province": "山東",
        "target_historical_county": "荏平縣"
      }
    },
    {
      "type": "Feature",
      "id": "FIG3-CENTRAL_CONTINUATION-015",
      "geometry": {
        "type": "LineString",
        "coordinates": [
          [
            116.25022888,
            36.58661652
          ],
          [
            116.223618,
            36.857315
          ]
        ]
      },
      "properties": {
        "figure_id": "Figure 3",
        "feature_type": "route_segment",
        "coordinate_status": "검토용 후보 좌표",
        "id": "FIG3-CENTRAL_CONTINUATION-015",
        "route_name": "Canal detour and Shandong central route",
        "sequence": 15,
        "source_name_zh": "茌山驛",
        "target_name_zh": "魚邱驛",
        "transport_mode": "route_mode_pending",
        "geometry_basis": "straight_line_between_linked_appendix_nodes",
        "source_summary": "Article appendix and route reconstruction.",
        "source_historical_province": "山東",
        "source_historical_county": "荏平縣",
        "target_historical_province": "山東",
        "target_historical_zhou": "高唐州"
      }
    },
    {
      "type": "Feature",
      "id": "FIG3-CENTRAL_CONTINUATION-016",
      "geometry": {
        "type": "LineString",
        "coordinates": [
          [
            116.223618,
            36.857315
          ],
          [
            116.27578735,
            37.15112305
          ]
        ]
      },
      "properties": {
        "figure_id": "Figure 3",
        "feature_type": "route_segment",
        "coordinate_status": "검토용 후보 좌표",
        "id": "FIG3-CENTRAL_CONTINUATION-016",
        "route_name": "Canal detour and Shandong central route",
        "sequence": 16,
        "source_name_zh": "魚邱驛",
        "target_name_zh": "太平驛",
        "transport_mode": "route_mode_pending",
        "geometry_basis": "straight_line_between_linked_appendix_nodes",
        "source_summary": "Article appendix and route reconstruction.",
        "source_historical_province": "山東",
        "source_historical_zhou": "高唐州",
        "target_historical_province": "山東",
        "target_historical_county": "恩縣"
      }
    },
    {
      "type": "Feature",
      "id": "FIG3-CENTRAL_CONTINUATION-017",
      "geometry": {
        "type": "LineString",
        "coordinates": [
          [
            116.27578735,
            37.15112305
          ],
          [
            116.28741455,
            37.4516449
          ]
        ]
      },
      "properties": {
        "figure_id": "Figure 3",
        "feature_type": "route_segment",
        "coordinate_status": "검토용 후보 좌표",
        "id": "FIG3-CENTRAL_CONTINUATION-017",
        "route_name": "Canal detour and Shandong central route",
        "sequence": 17,
        "source_name_zh": "太平驛",
        "target_name_zh": "安德驛",
        "transport_mode": "route_mode_pending",
        "geometry_basis": "straight_line_between_linked_appendix_nodes",
        "source_summary": "Article appendix and route reconstruction.",
        "source_historical_province": "山東",
        "source_historical_county": "恩縣",
        "target_historical_province": "山東",
        "target_historical_zhou": "德州"
      }
    },
    {
      "type": "Feature",
      "id": "FIG3-CENTRAL_CONTINUATION-018",
      "geometry": {
        "type": "LineString",
        "coordinates": [
          [
            116.28741455,
            37.4516449
          ],
          [
            116.25810242,
            37.68800735
          ]
        ]
      },
      "properties": {
        "figure_id": "Figure 3",
        "feature_type": "route_segment",
        "coordinate_status": "검토용 후보 좌표",
        "id": "FIG3-CENTRAL_CONTINUATION-018",
        "route_name": "Canal detour and Shandong central route",
        "sequence": 18,
        "source_name_zh": "安德驛",
        "target_name_zh": "東光驛",
        "transport_mode": "route_mode_pending",
        "geometry_basis": "straight_line_between_linked_appendix_nodes",
        "source_summary": "Article appendix and route reconstruction.",
        "source_historical_province": "山東",
        "source_historical_zhou": "德州",
        "target_historical_province": "直隸",
        "target_historical_zhou": "景州"
      }
    },
    {
      "type": "Feature",
      "id": "FIG3-CENTRAL_CONTINUATION-019",
      "geometry": {
        "type": "LineString",
        "coordinates": [
          [
            116.25810242,
            37.68800735
          ],
          [
            116.14470673,
            37.86817932
          ]
        ]
      },
      "properties": {
        "figure_id": "Figure 3",
        "feature_type": "route_segment",
        "coordinate_status": "검토용 후보 좌표",
        "id": "FIG3-CENTRAL_CONTINUATION-019",
        "route_name": "Canal detour and Shandong central route",
        "sequence": 19,
        "source_name_zh": "東光驛",
        "target_name_zh": "阜城驛",
        "transport_mode": "route_mode_pending",
        "geometry_basis": "straight_line_between_linked_appendix_nodes",
        "source_summary": "Article appendix and route reconstruction.",
        "source_historical_province": "直隸",
        "source_historical_zhou": "景州",
        "target_historical_province": "直隸",
        "target_historical_county": "阜城縣"
      }
    },
    {
      "type": "Feature",
      "id": "FIG3-CENTRAL_CONTINUATION-020",
      "geometry": {
        "type": "LineString",
        "coordinates": [
          [
            116.14470673,
            37.86817932
          ],
          [
            116.2851181,
            38.01704407
          ]
        ]
      },
      "properties": {
        "figure_id": "Figure 3",
        "feature_type": "route_segment",
        "coordinate_status": "검토용 후보 좌표",
        "id": "FIG3-CENTRAL_CONTINUATION-020",
        "route_name": "Canal detour and Shandong central route",
        "sequence": 20,
        "source_name_zh": "阜城驛",
        "target_name_zh": "富莊驛",
        "transport_mode": "route_mode_pending",
        "geometry_basis": "straight_line_between_linked_appendix_nodes",
        "source_summary": "Article appendix and route reconstruction.",
        "source_historical_province": "直隸",
        "source_historical_county": "阜城縣",
        "target_historical_province": "直隸",
        "target_historical_county": "交河縣"
      }
    },
    {
      "type": "Feature",
      "id": "FIG3-CENTRAL_CONTINUATION-021",
      "geometry": {
        "type": "LineString",
        "coordinates": [
          [
            116.2851181,
            38.01704407
          ],
          [
            116.11489868,
            38.19069672
          ]
        ]
      },
      "properties": {
        "figure_id": "Figure 3",
        "feature_type": "route_segment",
        "coordinate_status": "검토용 후보 좌표",
        "id": "FIG3-CENTRAL_CONTINUATION-021",
        "route_name": "Canal detour and Shandong central route",
        "sequence": 21,
        "source_name_zh": "富莊驛",
        "target_name_zh": "樂城驛",
        "transport_mode": "route_mode_pending",
        "geometry_basis": "straight_line_between_linked_appendix_nodes",
        "source_summary": "Article appendix and route reconstruction.",
        "source_historical_province": "直隸",
        "source_historical_county": "交河縣",
        "target_historical_province": "直隸",
        "target_historical_county": "獻縣"
      }
    },
    {
      "type": "Feature",
      "id": "FIG3-CENTRAL_CONTINUATION-022",
      "geometry": {
        "type": "LineString",
        "coordinates": [
          [
            116.11489868,
            38.19069672
          ],
          [
            116.08553314,
            38.43569946
          ]
        ]
      },
      "properties": {
        "figure_id": "Figure 3",
        "feature_type": "route_segment",
        "coordinate_status": "검토용 후보 좌표",
        "id": "FIG3-CENTRAL_CONTINUATION-022",
        "route_name": "Canal detour and Shandong central route",
        "sequence": 22,
        "source_name_zh": "樂城驛",
        "target_name_zh": "瀛海驛",
        "transport_mode": "route_mode_pending",
        "geometry_basis": "straight_line_between_linked_appendix_nodes",
        "source_summary": "Article appendix and route reconstruction.",
        "source_historical_province": "直隸",
        "source_historical_county": "獻縣",
        "target_historical_province": "直隸",
        "target_historical_county": "河閒縣"
      }
    },
    {
      "type": "Feature",
      "id": "FIG3-CENTRAL_CONTINUATION-023",
      "geometry": {
        "type": "LineString",
        "coordinates": [
          [
            116.08553314,
            38.43569946
          ],
          [
            116.10706,
            38.86037
          ]
        ]
      },
      "properties": {
        "figure_id": "Figure 3",
        "feature_type": "route_segment",
        "coordinate_status": "검토용 후보 좌표",
        "id": "FIG3-CENTRAL_CONTINUATION-023",
        "route_name": "Canal detour and Shandong central route",
        "sequence": 23,
        "source_name_zh": "瀛海驛",
        "target_name_zh": "鄚城驛",
        "transport_mode": "route_mode_pending",
        "geometry_basis": "straight_line_between_linked_appendix_nodes",
        "source_summary": "Article appendix and route reconstruction.",
        "source_historical_province": "直隸",
        "source_historical_county": "河閒縣",
        "target_historical_province": "直隸",
        "target_historical_county": "任邱縣"
      }
    },
    {
      "type": "Feature",
      "id": "FIG3-CENTRAL_CONTINUATION-024",
      "geometry": {
        "type": "LineString",
        "coordinates": [
          [
            116.10706,
            38.86037
          ],
          [
            116.09270477,
            38.97587967
          ]
        ]
      },
      "properties": {
        "figure_id": "Figure 3",
        "feature_type": "route_segment",
        "coordinate_status": "검토용 후보 좌표",
        "id": "FIG3-CENTRAL_CONTINUATION-024",
        "route_name": "Canal detour and Shandong central route",
        "sequence": 24,
        "source_name_zh": "鄚城驛",
        "target_name_zh": "歸義驛",
        "transport_mode": "route_mode_pending",
        "geometry_basis": "straight_line_between_linked_appendix_nodes",
        "source_summary": "Article appendix and route reconstruction.",
        "source_historical_province": "直隸",
        "source_historical_county": "任邱縣",
        "target_historical_province": "直隸",
        "target_historical_county": "雄縣"
      }
    },
    {
      "type": "Feature",
      "id": "FIG3-CENTRAL_CONTINUATION-025",
      "geometry": {
        "type": "LineString",
        "coordinates": [
          [
            116.09270477,
            38.97587967
          ],
          [
            115.98756409,
            39.24594879
          ]
        ]
      },
      "properties": {
        "figure_id": "Figure 3",
        "feature_type": "route_segment",
        "coordinate_status": "검토용 후보 좌표",
        "id": "FIG3-CENTRAL_CONTINUATION-025",
        "route_name": "Canal detour and Shandong central route",
        "sequence": 25,
        "source_name_zh": "歸義驛",
        "target_name_zh": "汾水驛",
        "transport_mode": "route_mode_pending",
        "geometry_basis": "straight_line_between_linked_appendix_nodes",
        "source_summary": "Article appendix and route reconstruction.",
        "source_historical_province": "直隸",
        "source_historical_county": "雄縣",
        "target_historical_province": "直隸",
        "target_historical_county": "新城縣"
      }
    },
    {
      "type": "Feature",
      "id": "FIG3-CENTRAL_CONTINUATION-026",
      "geometry": {
        "type": "LineString",
        "coordinates": [
          [
            115.98756409,
            39.24594879
          ],
          [
            115.97,
            39.49
          ]
        ]
      },
      "properties": {
        "figure_id": "Figure 3",
        "feature_type": "route_segment",
        "coordinate_status": "검토용 후보 좌표",
        "id": "FIG3-CENTRAL_CONTINUATION-026",
        "route_name": "Canal detour and Shandong central route",
        "sequence": 26,
        "source_name_zh": "汾水驛",
        "target_name_zh": "涿鹿驛",
        "transport_mode": "route_mode_pending",
        "geometry_basis": "straight_line_between_linked_appendix_nodes",
        "source_summary": "Article appendix and route reconstruction.",
        "source_historical_province": "直隸",
        "source_historical_county": "新城縣",
        "target_historical_province": "直隸",
        "target_historical_zhou": "涿州"
      }
    },
    {
      "type": "Feature",
      "id": "FIG3-CENTRAL_CONTINUATION-027",
      "geometry": {
        "type": "LineString",
        "coordinates": [
          [
            115.97,
            39.49
          ],
          [
            116.13558197,
            39.7412529
          ]
        ]
      },
      "properties": {
        "figure_id": "Figure 3",
        "feature_type": "route_segment",
        "coordinate_status": "검토용 후보 좌표",
        "id": "FIG3-CENTRAL_CONTINUATION-027",
        "route_name": "Canal detour and Shandong central route",
        "sequence": 27,
        "source_name_zh": "涿鹿驛",
        "target_name_zh": "固節驛",
        "transport_mode": "route_mode_pending",
        "geometry_basis": "straight_line_between_linked_appendix_nodes",
        "source_summary": "Article appendix and route reconstruction.",
        "source_historical_province": "直隸",
        "source_historical_zhou": "涿州",
        "target_historical_province": "直隸",
        "target_historical_county": "良鄉縣"
      }
    },
    {
      "type": "Feature",
      "id": "FIG3-CENTRAL_CONTINUATION-028",
      "geometry": {
        "type": "LineString",
        "coordinates": [
          [
            116.13558197,
            39.7412529
          ],
          [
            116.368004,
            39.931427
          ]
        ]
      },
      "properties": {
        "figure_id": "Figure 3",
        "feature_type": "route_segment",
        "coordinate_status": "검토용 후보 좌표",
        "id": "FIG3-CENTRAL_CONTINUATION-028",
        "route_name": "Canal detour and Shandong central route",
        "sequence": 28,
        "source_name_zh": "固節驛",
        "target_name_zh": "北京",
        "transport_mode": "route_mode_pending",
        "geometry_basis": "straight_line_between_linked_appendix_nodes",
        "source_summary": "Article appendix and route reconstruction.",
        "source_historical_province": "直隸",
        "source_historical_county": "良鄉縣",
        "target_historical_province": "直隸"
      }
    }
  ]
}
