{
  "type": "FeatureCollection",
  "features": [
    {
      "type": "Feature",
      "id": "FIG2-MH-FJ-001",
      "geometry": {
        "type": "LineString",
        "coordinates": [
          [
            119.32157898,
            26.07395363
          ],
          [
            119.2344433,
            26.1010719
          ]
        ]
      },
      "properties": {
        "figure_id": "Figure 2",
        "feature_type": "route_segment",
        "coordinate_status": "검토용 후보 좌표",
        "id": "FIG2-MH-FJ-001",
        "route_name": "Mun Ho-gyeom group",
        "sequence": 1,
        "source_name_zh": "三山驛",
        "target_name_zh": "芋原驛",
        "transport_mode": "land_or_inland_waterway_unspecified",
        "geometry_basis": "straight_line_between_candidate_station_points",
        "source_summary": "Castaway itinerary and the Relay Itineraries of the Huidian zeli.",
        "source_historical_prefecture": "福州府",
        "source_historical_county": "閩縣",
        "target_historical_county": "侯官縣"
      }
    },
    {
      "type": "Feature",
      "id": "FIG2-MH-FJ-002",
      "geometry": {
        "type": "LineString",
        "coordinates": [
          [
            119.2344433,
            26.1010719
          ],
          [
            119.081154,
            26.20901699
          ]
        ]
      },
      "properties": {
        "figure_id": "Figure 2",
        "feature_type": "route_segment",
        "coordinate_status": "검토용 후보 좌표",
        "id": "FIG2-MH-FJ-002",
        "route_name": "Mun Ho-gyeom group",
        "sequence": 2,
        "source_name_zh": "芋原驛",
        "target_name_zh": "白沙驛",
        "transport_mode": "land_or_inland_waterway_unspecified",
        "geometry_basis": "straight_line_between_candidate_station_points",
        "source_summary": "Castaway itinerary and the Relay Itineraries of the Huidian zeli.",
        "source_historical_county": "侯官縣",
        "target_historical_county": "侯官縣"
      }
    },
    {
      "type": "Feature",
      "id": "FIG2-MH-FJ-003",
      "geometry": {
        "type": "LineString",
        "coordinates": [
          [
            119.081154,
            26.20901699
          ],
          [
            118.76128938,
            26.35917595
          ]
        ]
      },
      "properties": {
        "figure_id": "Figure 2",
        "feature_type": "route_segment",
        "coordinate_status": "검토용 후보 좌표",
        "id": "FIG2-MH-FJ-003",
        "route_name": "Mun Ho-gyeom group",
        "sequence": 3,
        "source_name_zh": "白沙驛",
        "target_name_zh": "水口驛",
        "transport_mode": "land_or_inland_waterway_unspecified",
        "geometry_basis": "straight_line_between_candidate_station_points",
        "source_summary": "Castaway itinerary and the Relay Itineraries of the Huidian zeli.",
        "source_historical_county": "侯官縣",
        "target_historical_county": "古田縣"
      }
    },
    {
      "type": "Feature",
      "id": "FIG2-MH-FJ-004",
      "geometry": {
        "type": "LineString",
        "coordinates": [
          [
            118.76128938,
            26.35917595
          ],
          [
            118.67510223,
            26.4289093
          ]
        ]
      },
      "properties": {
        "figure_id": "Figure 2",
        "feature_type": "route_segment",
        "coordinate_status": "검토용 후보 좌표",
        "id": "FIG2-MH-FJ-004",
        "route_name": "Mun Ho-gyeom group",
        "sequence": 4,
        "source_name_zh": "水口驛",
        "target_name_zh": "黃田驛",
        "transport_mode": "land_or_inland_waterway_unspecified",
        "geometry_basis": "straight_line_between_candidate_station_points",
        "source_summary": "Castaway itinerary and the Relay Itineraries of the Huidian zeli.",
        "source_historical_county": "古田縣",
        "target_historical_county": "古田縣"
      }
    },
    {
      "type": "Feature",
      "id": "FIG2-MH-FJ-005",
      "geometry": {
        "type": "LineString",
        "coordinates": [
          [
            118.67510223,
            26.4289093
          ],
          [
            118.550263,
            26.428842
          ]
        ]
      },
      "properties": {
        "figure_id": "Figure 2",
        "feature_type": "route_segment",
        "coordinate_status": "검토용 후보 좌표",
        "id": "FIG2-MH-FJ-005",
        "route_name": "Mun Ho-gyeom group",
        "sequence": 5,
        "source_name_zh": "黃田驛",
        "target_name_zh": "嵢峽驛",
        "transport_mode": "land_or_inland_waterway_unspecified",
        "geometry_basis": "straight_line_between_candidate_station_points",
        "source_summary": "Castaway itinerary and the Relay Itineraries of the Huidian zeli.",
        "source_historical_county": "古田縣",
        "target_historical_county": "南平縣"
      }
    },
    {
      "type": "Feature",
      "id": "FIG2-MH-FJ-006",
      "geometry": {
        "type": "LineString",
        "coordinates": [
          [
            118.550263,
            26.428842
          ],
          [
            118.409354,
            26.514273
          ]
        ]
      },
      "properties": {
        "figure_id": "Figure 2",
        "feature_type": "route_segment",
        "coordinate_status": "검토용 후보 좌표",
        "id": "FIG2-MH-FJ-006",
        "route_name": "Mun Ho-gyeom group",
        "sequence": 6,
        "source_name_zh": "嵢峽驛",
        "target_name_zh": "茶洋驛",
        "transport_mode": "land_or_inland_waterway_unspecified",
        "geometry_basis": "straight_line_between_candidate_station_points",
        "source_summary": "Castaway itinerary and the Relay Itineraries of the Huidian zeli.",
        "source_historical_county": "南平縣",
        "target_historical_county": "南平縣"
      }
    },
    {
      "type": "Feature",
      "id": "FIG2-MH-FJ-007",
      "geometry": {
        "type": "LineString",
        "coordinates": [
          [
            118.409354,
            26.514273
          ],
          [
            118.16918182,
            26.64217377
          ]
        ]
      },
      "properties": {
        "figure_id": "Figure 2",
        "feature_type": "route_segment",
        "coordinate_status": "검토용 후보 좌표",
        "id": "FIG2-MH-FJ-007",
        "route_name": "Mun Ho-gyeom group",
        "sequence": 7,
        "source_name_zh": "茶洋驛",
        "target_name_zh": "劍浦驛",
        "transport_mode": "land_or_inland_waterway_unspecified",
        "geometry_basis": "straight_line_between_candidate_station_points",
        "source_summary": "Castaway itinerary and the Relay Itineraries of the Huidian zeli.",
        "source_historical_county": "南平縣",
        "target_historical_prefecture": "延平府",
        "target_historical_county": "南平縣"
      }
    },
    {
      "type": "Feature",
      "id": "FIG2-MH-FJ-008",
      "geometry": {
        "type": "LineString",
        "coordinates": [
          [
            118.16918182,
            26.64217377
          ],
          [
            118.255791,
            26.768646
          ]
        ]
      },
      "properties": {
        "figure_id": "Figure 2",
        "feature_type": "route_segment",
        "coordinate_status": "검토용 후보 좌표",
        "id": "FIG2-MH-FJ-008",
        "route_name": "Mun Ho-gyeom group",
        "sequence": 8,
        "source_name_zh": "劍浦驛",
        "target_name_zh": "大橫驛",
        "transport_mode": "land_or_inland_waterway_unspecified",
        "geometry_basis": "straight_line_between_candidate_station_points",
        "source_summary": "Castaway itinerary and the Relay Itineraries of the Huidian zeli.",
        "source_historical_prefecture": "延平府",
        "source_historical_county": "南平縣",
        "target_historical_county": "南平縣"
      }
    },
    {
      "type": "Feature",
      "id": "FIG2-MH-FJ-009",
      "geometry": {
        "type": "LineString",
        "coordinates": [
          [
            118.255791,
            26.768646
          ],
          [
            118.290583,
            26.910593
          ]
        ]
      },
      "properties": {
        "figure_id": "Figure 2",
        "feature_type": "route_segment",
        "coordinate_status": "검토용 후보 좌표",
        "id": "FIG2-MH-FJ-009",
        "route_name": "Mun Ho-gyeom group",
        "sequence": 9,
        "source_name_zh": "大橫驛",
        "target_name_zh": "太平驛",
        "transport_mode": "land_or_inland_waterway_unspecified",
        "geometry_basis": "straight_line_between_candidate_station_points",
        "source_summary": "Castaway itinerary and the Relay Itineraries of the Huidian zeli.",
        "source_historical_county": "南平縣",
        "target_historical_province": "山東",
        "target_historical_county": "恩縣"
      }
    },
    {
      "type": "Feature",
      "id": "FIG2-MH-FJ-010",
      "geometry": {
        "type": "LineString",
        "coordinates": [
          [
            118.290583,
            26.910593
          ],
          [
            118.32378387,
            27.03886414
          ]
        ]
      },
      "properties": {
        "figure_id": "Figure 2",
        "feature_type": "route_segment",
        "coordinate_status": "검토용 후보 좌표",
        "id": "FIG2-MH-FJ-010",
        "route_name": "Mun Ho-gyeom group",
        "sequence": 10,
        "source_name_zh": "太平驛",
        "target_name_zh": "城西驛",
        "transport_mode": "land_or_inland_waterway_unspecified",
        "geometry_basis": "straight_line_between_candidate_station_points",
        "source_summary": "Castaway itinerary and the Relay Itineraries of the Huidian zeli.",
        "source_historical_province": "山東",
        "source_historical_county": "恩縣",
        "target_historical_county": "甌寧縣"
      }
    },
    {
      "type": "Feature",
      "id": "FIG2-MH-FJ-011",
      "geometry": {
        "type": "LineString",
        "coordinates": [
          [
            118.32378387,
            27.03886414
          ],
          [
            118.221629,
            27.167746
          ]
        ]
      },
      "properties": {
        "figure_id": "Figure 2",
        "feature_type": "route_segment",
        "coordinate_status": "검토용 후보 좌표",
        "id": "FIG2-MH-FJ-011",
        "route_name": "Mun Ho-gyeom group",
        "sequence": 11,
        "source_name_zh": "城西驛",
        "target_name_zh": "葉坊驛",
        "transport_mode": "land_or_inland_waterway_unspecified",
        "geometry_basis": "straight_line_between_candidate_station_points",
        "source_summary": "Castaway itinerary and the Relay Itineraries of the Huidian zeli.",
        "source_historical_county": "甌寧縣",
        "target_historical_county": "甌寧縣"
      }
    },
    {
      "type": "Feature",
      "id": "FIG2-MH-FJ-012",
      "geometry": {
        "type": "LineString",
        "coordinates": [
          [
            118.221629,
            27.167746
          ],
          [
            118.10536957,
            27.33987999
          ]
        ]
      },
      "properties": {
        "figure_id": "Figure 2",
        "feature_type": "route_segment",
        "coordinate_status": "검토용 후보 좌표",
        "id": "FIG2-MH-FJ-012",
        "route_name": "Mun Ho-gyeom group",
        "sequence": 12,
        "source_name_zh": "葉坊驛",
        "target_name_zh": "建溪驛",
        "transport_mode": "land_or_inland_waterway_unspecified",
        "geometry_basis": "straight_line_between_candidate_station_points",
        "source_summary": "Castaway itinerary and the Relay Itineraries of the Huidian zeli.",
        "source_historical_county": "甌寧縣",
        "target_historical_county": "建陽縣"
      }
    },
    {
      "type": "Feature",
      "id": "FIG2-MH-FJ-013",
      "geometry": {
        "type": "LineString",
        "coordinates": [
          [
            118.10536957,
            27.33987999
          ],
          [
            118.11,
            27.34
          ]
        ]
      },
      "properties": {
        "figure_id": "Figure 2",
        "feature_type": "route_segment",
        "coordinate_status": "검토용 후보 좌표",
        "id": "FIG2-MH-FJ-013",
        "route_name": "Mun Ho-gyeom group",
        "sequence": 13,
        "source_name_zh": "建溪驛",
        "target_name_zh": "營頭司驛",
        "transport_mode": "land_or_inland_waterway_unspecified",
        "geometry_basis": "straight_line_between_candidate_station_points",
        "source_summary": "Castaway itinerary and the Relay Itineraries of the Huidian zeli.",
        "source_historical_county": "建陽縣",
        "target_historical_county": "建陽縣"
      }
    },
    {
      "type": "Feature",
      "id": "FIG2-MH-FJ-014",
      "geometry": {
        "type": "LineString",
        "coordinates": [
          [
            118.11,
            27.34
          ],
          [
            118.361343,
            27.695719
          ]
        ]
      },
      "properties": {
        "figure_id": "Figure 2",
        "feature_type": "route_segment",
        "coordinate_status": "검토용 후보 좌표",
        "id": "FIG2-MH-FJ-014",
        "route_name": "Mun Ho-gyeom group",
        "sequence": 14,
        "source_name_zh": "營頭司驛",
        "target_name_zh": "人和公館驛",
        "transport_mode": "land_or_inland_waterway_unspecified",
        "geometry_basis": "straight_line_between_candidate_station_points",
        "source_summary": "Castaway itinerary and the Relay Itineraries of the Huidian zeli.",
        "source_historical_county": "建陽縣",
        "target_historical_county": "浦城縣"
      }
    },
    {
      "type": "Feature",
      "id": "FIG2-MH-FJ-015",
      "geometry": {
        "type": "LineString",
        "coordinates": [
          [
            118.361343,
            27.695719
          ],
          [
            118.54,
            27.92
          ]
        ]
      },
      "properties": {
        "figure_id": "Figure 2",
        "feature_type": "route_segment",
        "coordinate_status": "검토용 후보 좌표",
        "id": "FIG2-MH-FJ-015",
        "route_name": "Mun Ho-gyeom group",
        "sequence": 15,
        "source_name_zh": "人和公館驛",
        "target_name_zh": "柘浦驛",
        "transport_mode": "land_or_inland_waterway_unspecified",
        "geometry_basis": "straight_line_between_candidate_station_points",
        "source_summary": "Castaway itinerary and the Relay Itineraries of the Huidian zeli.",
        "source_historical_county": "浦城縣",
        "target_historical_county": "浦城縣"
      }
    },
    {
      "type": "Feature",
      "id": "FIG2-MH-FJ-016",
      "geometry": {
        "type": "LineString",
        "coordinates": [
          [
            118.54,
            27.92
          ],
          [
            118.54,
            27.92
          ]
        ]
      },
      "properties": {
        "figure_id": "Figure 2",
        "feature_type": "route_segment",
        "coordinate_status": "검토용 후보 좌표",
        "id": "FIG2-MH-FJ-016",
        "route_name": "Mun Ho-gyeom group",
        "sequence": 16,
        "source_name_zh": "柘浦驛",
        "target_name_zh": "小關驛",
        "transport_mode": "land_or_inland_waterway_unspecified",
        "geometry_basis": "straight_line_between_candidate_station_points",
        "source_summary": "Castaway itinerary and the Relay Itineraries of the Huidian zeli.",
        "source_historical_county": "浦城縣",
        "target_historical_county": "浦城縣"
      }
    },
    {
      "type": "Feature",
      "id": "FIG2-MH-FJ-017",
      "geometry": {
        "type": "LineString",
        "coordinates": [
          [
            118.54,
            27.92
          ],
          [
            118.62,
            28.74
          ]
        ]
      },
      "properties": {
        "figure_id": "Figure 2",
        "feature_type": "route_segment",
        "coordinate_status": "검토용 후보 좌표",
        "id": "FIG2-MH-FJ-017",
        "route_name": "Mun Ho-gyeom group",
        "sequence": 17,
        "source_name_zh": "小關驛",
        "target_name_zh": "廣濟驛",
        "transport_mode": "land_or_inland_waterway_unspecified",
        "geometry_basis": "straight_line_between_candidate_station_points",
        "source_summary": "Castaway itinerary and the Relay Itineraries of the Huidian zeli.",
        "source_historical_county": "浦城縣",
        "target_historical_county": "江山縣"
      }
    },
    {
      "type": "Feature",
      "id": "FIG2-MH-FJ-018",
      "geometry": {
        "type": "LineString",
        "coordinates": [
          [
            118.62,
            28.74
          ],
          [
            118.86764526,
            28.95682144
          ]
        ]
      },
      "properties": {
        "figure_id": "Figure 2",
        "feature_type": "route_segment",
        "coordinate_status": "검토용 후보 좌표",
        "id": "FIG2-MH-FJ-018",
        "route_name": "Mun Ho-gyeom group",
        "sequence": 18,
        "source_name_zh": "廣濟驛",
        "target_name_zh": "上航驛",
        "transport_mode": "land_or_inland_waterway_unspecified",
        "geometry_basis": "straight_line_between_candidate_station_points",
        "source_summary": "Castaway itinerary and the Relay Itineraries of the Huidian zeli.",
        "source_historical_county": "江山縣",
        "target_historical_county": "西安縣"
      }
    },
    {
      "type": "Feature",
      "id": "FIG2-MH-FJ-019",
      "geometry": {
        "type": "LineString",
        "coordinates": [
          [
            118.86764526,
            28.95682144
          ],
          [
            119.17237854,
            29.03478813
          ]
        ]
      },
      "properties": {
        "figure_id": "Figure 2",
        "feature_type": "route_segment",
        "coordinate_status": "검토용 후보 좌표",
        "id": "FIG2-MH-FJ-019",
        "route_name": "Mun Ho-gyeom group",
        "sequence": 19,
        "source_name_zh": "上航驛",
        "target_name_zh": "亭步驛",
        "transport_mode": "land_or_inland_waterway_unspecified",
        "geometry_basis": "straight_line_between_candidate_station_points",
        "source_summary": "Castaway itinerary and the Relay Itineraries of the Huidian zeli.",
        "source_historical_county": "西安縣",
        "target_historical_county": "龍游縣"
      }
    },
    {
      "type": "Feature",
      "id": "FIG2-MH-FJ-020",
      "geometry": {
        "type": "LineString",
        "coordinates": [
          [
            119.17237854,
            29.03478813
          ],
          [
            119.478851,
            29.204453
          ]
        ]
      },
      "properties": {
        "figure_id": "Figure 2",
        "feature_type": "route_segment",
        "coordinate_status": "검토용 후보 좌표",
        "id": "FIG2-MH-FJ-020",
        "route_name": "Mun Ho-gyeom group",
        "sequence": 20,
        "source_name_zh": "亭步驛",
        "target_name_zh": "瀔水驛",
        "transport_mode": "land_or_inland_waterway_unspecified",
        "geometry_basis": "straight_line_between_candidate_station_points",
        "source_summary": "Castaway itinerary and the Relay Itineraries of the Huidian zeli.",
        "source_historical_county": "龍游縣",
        "target_historical_county": "蘭溪縣"
      }
    },
    {
      "type": "Feature",
      "id": "FIG2-MH-FJ-021",
      "geometry": {
        "type": "LineString",
        "coordinates": [
          [
            119.478851,
            29.204453
          ],
          [
            119.49885559,
            29.54448128
          ]
        ]
      },
      "properties": {
        "figure_id": "Figure 2",
        "feature_type": "route_segment",
        "coordinate_status": "검토용 후보 좌표",
        "id": "FIG2-MH-FJ-021",
        "route_name": "Mun Ho-gyeom group",
        "sequence": 21,
        "source_name_zh": "瀔水驛",
        "target_name_zh": "富春驛",
        "transport_mode": "land_or_inland_waterway_unspecified",
        "geometry_basis": "straight_line_between_candidate_station_points",
        "source_summary": "Castaway itinerary and the Relay Itineraries of the Huidian zeli.",
        "source_historical_county": "蘭溪縣",
        "target_historical_county": "建德縣"
      }
    },
    {
      "type": "Feature",
      "id": "FIG2-MH-FJ-022",
      "geometry": {
        "type": "LineString",
        "coordinates": [
          [
            119.49885559,
            29.54448128
          ],
          [
            119.66493988,
            29.80245781
          ]
        ]
      },
      "properties": {
        "figure_id": "Figure 2",
        "feature_type": "route_segment",
        "coordinate_status": "검토용 후보 좌표",
        "id": "FIG2-MH-FJ-022",
        "route_name": "Mun Ho-gyeom group",
        "sequence": 22,
        "source_name_zh": "富春驛",
        "target_name_zh": "桐江驛",
        "transport_mode": "land_or_inland_waterway_unspecified",
        "geometry_basis": "straight_line_between_candidate_station_points",
        "source_summary": "Castaway itinerary and the Relay Itineraries of the Huidian zeli.",
        "source_historical_county": "建德縣",
        "target_historical_county": "桐廬縣"
      }
    },
    {
      "type": "Feature",
      "id": "FIG2-MH-FJ-023",
      "geometry": {
        "type": "LineString",
        "coordinates": [
          [
            119.66493988,
            29.80245781
          ],
          [
            119.94775391,
            30.05343437
          ]
        ]
      },
      "properties": {
        "figure_id": "Figure 2",
        "feature_type": "route_segment",
        "coordinate_status": "검토용 후보 좌표",
        "id": "FIG2-MH-FJ-023",
        "route_name": "Mun Ho-gyeom group",
        "sequence": 23,
        "source_name_zh": "桐江驛",
        "target_name_zh": "會江驛",
        "transport_mode": "land_or_inland_waterway_unspecified",
        "geometry_basis": "straight_line_between_candidate_station_points",
        "source_summary": "Castaway itinerary and the Relay Itineraries of the Huidian zeli.",
        "source_historical_county": "桐廬縣",
        "target_historical_county": "富陽縣"
      }
    },
    {
      "type": "Feature",
      "id": "FIG2-MH-FJ-024",
      "geometry": {
        "type": "LineString",
        "coordinates": [
          [
            119.94775391,
            30.05343437
          ],
          [
            120.153247,
            30.21836
          ]
        ]
      },
      "properties": {
        "figure_id": "Figure 2",
        "feature_type": "route_segment",
        "coordinate_status": "검토용 후보 좌표",
        "id": "FIG2-MH-FJ-024",
        "route_name": "Mun Ho-gyeom group",
        "sequence": 24,
        "source_name_zh": "會江驛",
        "target_name_zh": "浙江驛",
        "transport_mode": "land_or_inland_waterway_unspecified",
        "geometry_basis": "straight_line_between_candidate_station_points",
        "source_summary": "Castaway itinerary and the Relay Itineraries of the Huidian zeli.",
        "source_historical_county": "富陽縣",
        "target_historical_county": "錢塘縣"
      }
    },
    {
      "type": "Feature",
      "id": "FIG2-MH-FJ-025",
      "geometry": {
        "type": "LineString",
        "coordinates": [
          [
            120.153247,
            30.21836
          ],
          [
            120.16862488,
            30.2941246
          ]
        ]
      },
      "properties": {
        "figure_id": "Figure 2",
        "feature_type": "route_segment",
        "coordinate_status": "검토용 후보 좌표",
        "id": "FIG2-MH-FJ-025",
        "route_name": "Mun Ho-gyeom group",
        "sequence": 25,
        "source_name_zh": "浙江驛",
        "target_name_zh": "武林驛",
        "transport_mode": "land_or_inland_waterway_unspecified",
        "geometry_basis": "straight_line_between_candidate_station_points",
        "source_summary": "Castaway itinerary and the Relay Itineraries of the Huidian zeli.",
        "source_historical_county": "錢塘縣",
        "target_historical_county": "錢塘縣"
      }
    },
    {
      "type": "Feature",
      "id": "FIG2-MH-FJ-026",
      "geometry": {
        "type": "LineString",
        "coordinates": [
          [
            120.16862488,
            30.2941246
          ],
          [
            120.29733298,
            30.43153798
          ]
        ]
      },
      "properties": {
        "figure_id": "Figure 2",
        "feature_type": "route_segment",
        "coordinate_status": "검토용 후보 좌표",
        "id": "FIG2-MH-FJ-026",
        "route_name": "Mun Ho-gyeom group",
        "sequence": 26,
        "source_name_zh": "武林驛",
        "target_name_zh": "吳山驛",
        "transport_mode": "land_or_inland_waterway_unspecified",
        "geometry_basis": "straight_line_between_candidate_station_points",
        "source_summary": "Castaway itinerary and the Relay Itineraries of the Huidian zeli.",
        "source_historical_county": "錢塘縣",
        "target_historical_county": "錢塘縣"
      }
    },
    {
      "type": "Feature",
      "id": "FIG2-MH-FJ-027",
      "geometry": {
        "type": "LineString",
        "coordinates": [
          [
            120.29733298,
            30.43153798
          ],
          [
            120.41873932,
            30.53044701
          ]
        ]
      },
      "properties": {
        "figure_id": "Figure 2",
        "feature_type": "route_segment",
        "coordinate_status": "검토용 후보 좌표",
        "id": "FIG2-MH-FJ-027",
        "route_name": "Mun Ho-gyeom group",
        "sequence": 27,
        "source_name_zh": "吳山驛",
        "target_name_zh": "皂林驛",
        "transport_mode": "land_or_inland_waterway_unspecified",
        "geometry_basis": "straight_line_between_candidate_station_points",
        "source_summary": "Castaway itinerary and the Relay Itineraries of the Huidian zeli.",
        "source_historical_county": "錢塘縣",
        "target_historical_county": "石門縣"
      }
    },
    {
      "type": "Feature",
      "id": "FIG2-MH-FJ-028",
      "geometry": {
        "type": "LineString",
        "coordinates": [
          [
            120.41873932,
            30.53044701
          ],
          [
            120.75320435,
            30.76746941
          ]
        ]
      },
      "properties": {
        "figure_id": "Figure 2",
        "feature_type": "route_segment",
        "coordinate_status": "검토용 후보 좌표",
        "id": "FIG2-MH-FJ-028",
        "route_name": "Mun Ho-gyeom group",
        "sequence": 28,
        "source_name_zh": "皂林驛",
        "target_name_zh": "西水驛",
        "transport_mode": "land_or_inland_waterway_unspecified",
        "geometry_basis": "straight_line_between_candidate_station_points",
        "source_summary": "Castaway itinerary and the Relay Itineraries of the Huidian zeli.",
        "source_historical_county": "石門縣",
        "target_historical_county": "嘉興縣"
      }
    },
    {
      "type": "Feature",
      "id": "FIG2-MH-FJ-029",
      "geometry": {
        "type": "LineString",
        "coordinates": [
          [
            120.75320435,
            30.76746941
          ],
          [
            120.63081296,
            30.98402598
          ]
        ]
      },
      "properties": {
        "figure_id": "Figure 2",
        "feature_type": "route_segment",
        "coordinate_status": "검토용 후보 좌표",
        "id": "FIG2-MH-FJ-029",
        "route_name": "Mun Ho-gyeom group",
        "sequence": 29,
        "source_name_zh": "西水驛",
        "target_name_zh": "平望驛",
        "transport_mode": "land_or_inland_waterway_unspecified",
        "geometry_basis": "straight_line_between_candidate_station_points",
        "source_summary": "Castaway itinerary and the Relay Itineraries of the Huidian zeli.",
        "source_historical_county": "嘉興縣",
        "target_historical_county": "吳江縣"
      }
    },
    {
      "type": "Feature",
      "id": "FIG2-MH-FJ-030",
      "geometry": {
        "type": "LineString",
        "coordinates": [
          [
            120.63081296,
            30.98402598
          ],
          [
            120.61862183,
            31.31270981
          ]
        ]
      },
      "properties": {
        "figure_id": "Figure 2",
        "feature_type": "route_segment",
        "coordinate_status": "검토용 후보 좌표",
        "id": "FIG2-MH-FJ-030",
        "route_name": "Mun Ho-gyeom group",
        "sequence": 30,
        "source_name_zh": "平望驛",
        "target_name_zh": "姑蘇驛",
        "transport_mode": "land_or_inland_waterway_unspecified",
        "geometry_basis": "straight_line_between_candidate_station_points",
        "source_summary": "Castaway itinerary and the Relay Itineraries of the Huidian zeli.",
        "source_historical_county": "吳江縣",
        "target_historical_prefecture": "蘇州府",
        "target_historical_county": "元和縣"
      }
    },
    {
      "type": "Feature",
      "id": "FIG2-MH-FJ-031",
      "geometry": {
        "type": "LineString",
        "coordinates": [
          [
            120.61862183,
            31.31270981
          ],
          [
            120.29766846,
            31.57461357
          ]
        ]
      },
      "properties": {
        "figure_id": "Figure 2",
        "feature_type": "route_segment",
        "coordinate_status": "검토용 후보 좌표",
        "id": "FIG2-MH-FJ-031",
        "route_name": "Mun Ho-gyeom group",
        "sequence": 31,
        "source_name_zh": "姑蘇驛",
        "target_name_zh": "錫山驛",
        "transport_mode": "land_or_inland_waterway_unspecified",
        "geometry_basis": "straight_line_between_candidate_station_points",
        "source_summary": "Castaway itinerary and the Relay Itineraries of the Huidian zeli.",
        "source_historical_prefecture": "蘇州府",
        "source_historical_county": "元和縣",
        "target_historical_county": "無錫縣"
      }
    },
    {
      "type": "Feature",
      "id": "FIG2-MH-FJ-032",
      "geometry": {
        "type": "LineString",
        "coordinates": [
          [
            120.29766846,
            31.57461357
          ],
          [
            119.95230103,
            31.78278351
          ]
        ]
      },
      "properties": {
        "figure_id": "Figure 2",
        "feature_type": "route_segment",
        "coordinate_status": "검토용 후보 좌표",
        "id": "FIG2-MH-FJ-032",
        "route_name": "Mun Ho-gyeom group",
        "sequence": 32,
        "source_name_zh": "錫山驛",
        "target_name_zh": "毗陵驛",
        "transport_mode": "land_or_inland_waterway_unspecified",
        "geometry_basis": "straight_line_between_candidate_station_points",
        "source_summary": "Castaway itinerary and the Relay Itineraries of the Huidian zeli.",
        "source_historical_county": "無錫縣",
        "target_historical_county": "武進縣"
      }
    },
    {
      "type": "Feature",
      "id": "FIG2-MH-FJ-033",
      "geometry": {
        "type": "LineString",
        "coordinates": [
          [
            119.95230103,
            31.78278351
          ],
          [
            119.56985474,
            31.99580193
          ]
        ]
      },
      "properties": {
        "figure_id": "Figure 2",
        "feature_type": "route_segment",
        "coordinate_status": "검토용 후보 좌표",
        "id": "FIG2-MH-FJ-033",
        "route_name": "Mun Ho-gyeom group",
        "sequence": 33,
        "source_name_zh": "毗陵驛",
        "target_name_zh": "雲陽驛",
        "transport_mode": "land_or_inland_waterway_unspecified",
        "geometry_basis": "straight_line_between_candidate_station_points",
        "source_summary": "Castaway itinerary and the Relay Itineraries of the Huidian zeli.",
        "source_historical_county": "武進縣",
        "target_historical_county": "丹陽縣"
      }
    },
    {
      "type": "Feature",
      "id": "FIG2-MH-FJ-034",
      "geometry": {
        "type": "LineString",
        "coordinates": [
          [
            119.56985474,
            31.99580193
          ],
          [
            119.44429016,
            32.20648956
          ]
        ]
      },
      "properties": {
        "figure_id": "Figure 2",
        "feature_type": "route_segment",
        "coordinate_status": "검토용 후보 좌표",
        "id": "FIG2-MH-FJ-034",
        "route_name": "Mun Ho-gyeom group",
        "sequence": 34,
        "source_name_zh": "雲陽驛",
        "target_name_zh": "京口驛",
        "transport_mode": "land_or_inland_waterway_unspecified",
        "geometry_basis": "straight_line_between_candidate_station_points",
        "source_summary": "Castaway itinerary and the Relay Itineraries of the Huidian zeli.",
        "source_historical_county": "丹陽縣",
        "target_historical_county": "丹徒縣"
      }
    },
    {
      "type": "Feature",
      "id": "FIG2-MH-FJ-035",
      "geometry": {
        "type": "LineString",
        "coordinates": [
          [
            119.44429016,
            32.20648956
          ],
          [
            119.44,
            32.39
          ]
        ]
      },
      "properties": {
        "figure_id": "Figure 2",
        "feature_type": "route_segment",
        "coordinate_status": "검토용 후보 좌표",
        "id": "FIG2-MH-FJ-035",
        "route_name": "Mun Ho-gyeom group",
        "sequence": 35,
        "source_name_zh": "京口驛",
        "target_name_zh": "廣陵驛",
        "transport_mode": "land_or_inland_waterway_unspecified",
        "geometry_basis": "straight_line_between_candidate_station_points",
        "source_summary": "Castaway itinerary and the Relay Itineraries of the Huidian zeli.",
        "source_historical_county": "丹徒縣",
        "target_historical_county": "江都縣"
      }
    },
    {
      "type": "Feature",
      "id": "FIG2-MH-FJ-036",
      "geometry": {
        "type": "LineString",
        "coordinates": [
          [
            119.44,
            32.39
          ],
          [
            119.50705,
            32.53056
          ]
        ]
      },
      "properties": {
        "figure_id": "Figure 2",
        "feature_type": "route_segment",
        "coordinate_status": "검토용 후보 좌표",
        "id": "FIG2-MH-FJ-036",
        "route_name": "Mun Ho-gyeom group",
        "sequence": 36,
        "source_name_zh": "廣陵驛",
        "target_name_zh": "邵伯驛",
        "transport_mode": "land_or_inland_waterway_unspecified",
        "geometry_basis": "straight_line_between_candidate_station_points",
        "source_summary": "Castaway itinerary and the Relay Itineraries of the Huidian zeli.",
        "source_historical_county": "江都縣",
        "target_historical_county": "甘泉縣"
      }
    },
    {
      "type": "Feature",
      "id": "FIG2-MH-FJ-037",
      "geometry": {
        "type": "LineString",
        "coordinates": [
          [
            119.50705,
            32.53056
          ],
          [
            119.44,
            32.79
          ]
        ]
      },
      "properties": {
        "figure_id": "Figure 2",
        "feature_type": "route_segment",
        "coordinate_status": "검토용 후보 좌표",
        "id": "FIG2-MH-FJ-037",
        "route_name": "Mun Ho-gyeom group",
        "sequence": 37,
        "source_name_zh": "邵伯驛",
        "target_name_zh": "盂城驛",
        "transport_mode": "land_or_inland_waterway_unspecified",
        "geometry_basis": "straight_line_between_candidate_station_points",
        "source_summary": "Castaway itinerary and the Relay Itineraries of the Huidian zeli.",
        "source_historical_county": "甘泉縣",
        "target_historical_zhou": "高郵州"
      }
    },
    {
      "type": "Feature",
      "id": "FIG2-MH-FJ-038",
      "geometry": {
        "type": "LineString",
        "coordinates": [
          [
            119.44,
            32.79
          ],
          [
            119.421158,
            33.009068
          ]
        ]
      },
      "properties": {
        "figure_id": "Figure 2",
        "feature_type": "route_segment",
        "coordinate_status": "검토용 후보 좌표",
        "id": "FIG2-MH-FJ-038",
        "route_name": "Mun Ho-gyeom group",
        "sequence": 38,
        "source_name_zh": "盂城驛",
        "target_name_zh": "界首驛",
        "transport_mode": "land_or_inland_waterway_unspecified",
        "geometry_basis": "straight_line_between_candidate_station_points",
        "source_summary": "Castaway itinerary and the Relay Itineraries of the Huidian zeli.",
        "source_historical_zhou": "高郵州",
        "target_historical_zhou": "高郵州"
      }
    },
    {
      "type": "Feature",
      "id": "FIG2-MH-FJ-039",
      "geometry": {
        "type": "LineString",
        "coordinates": [
          [
            119.421158,
            33.009068
          ],
          [
            119.31,
            33.24
          ]
        ]
      },
      "properties": {
        "figure_id": "Figure 2",
        "feature_type": "route_segment",
        "coordinate_status": "검토용 후보 좌표",
        "id": "FIG2-MH-FJ-039",
        "route_name": "Mun Ho-gyeom group",
        "sequence": 39,
        "source_name_zh": "界首驛",
        "target_name_zh": "安平驛",
        "transport_mode": "land_or_inland_waterway_unspecified",
        "geometry_basis": "straight_line_between_candidate_station_points",
        "source_summary": "Castaway itinerary and the Relay Itineraries of the Huidian zeli.",
        "source_historical_zhou": "高郵州",
        "target_historical_county": "寶應縣"
      }
    },
    {
      "type": "Feature",
      "id": "FIG2-MH-FJ-040",
      "geometry": {
        "type": "LineString",
        "coordinates": [
          [
            119.31,
            33.24
          ],
          [
            119.14,
            33.5
          ]
        ]
      },
      "properties": {
        "figure_id": "Figure 2",
        "feature_type": "route_segment",
        "coordinate_status": "검토용 후보 좌표",
        "id": "FIG2-MH-FJ-040",
        "route_name": "Mun Ho-gyeom group",
        "sequence": 40,
        "source_name_zh": "安平驛",
        "target_name_zh": "淮陰驛",
        "transport_mode": "land_or_inland_waterway_unspecified",
        "geometry_basis": "straight_line_between_candidate_station_points",
        "source_summary": "Castaway itinerary and the Relay Itineraries of the Huidian zeli.",
        "source_historical_county": "寶應縣",
        "target_historical_county": "山陽縣"
      }
    },
    {
      "type": "Feature",
      "id": "FIG2-MH-FJ-041",
      "geometry": {
        "type": "LineString",
        "coordinates": [
          [
            119.14,
            33.5
          ],
          [
            119.016685,
            33.588356
          ]
        ]
      },
      "properties": {
        "figure_id": "Figure 2",
        "feature_type": "route_segment",
        "coordinate_status": "검토용 후보 좌표",
        "id": "FIG2-MH-FJ-041",
        "route_name": "Mun Ho-gyeom group",
        "sequence": 41,
        "source_name_zh": "淮陰驛",
        "target_name_zh": "清口驛",
        "transport_mode": "land_or_inland_waterway_unspecified",
        "geometry_basis": "straight_line_between_candidate_station_points",
        "source_summary": "Castaway itinerary and the Relay Itineraries of the Huidian zeli.",
        "source_historical_county": "山陽縣",
        "target_historical_county": "清河縣"
      }
    },
    {
      "type": "Feature",
      "id": "FIG2-MH-FJ-042",
      "geometry": {
        "type": "LineString",
        "coordinates": [
          [
            119.016685,
            33.588356
          ],
          [
            118.654595,
            33.68589
          ]
        ]
      },
      "properties": {
        "figure_id": "Figure 2",
        "feature_type": "route_segment",
        "coordinate_status": "검토용 후보 좌표",
        "id": "FIG2-MH-FJ-042",
        "route_name": "Mun Ho-gyeom group",
        "sequence": 42,
        "source_name_zh": "清口驛",
        "target_name_zh": "桃源驛",
        "transport_mode": "land_or_inland_waterway_unspecified",
        "geometry_basis": "straight_line_between_candidate_station_points",
        "source_summary": "Castaway itinerary and the Relay Itineraries of the Huidian zeli.",
        "source_historical_county": "清河縣",
        "target_historical_county": "桃源縣"
      }
    },
    {
      "type": "Feature",
      "id": "FIG2-MH-FJ-043",
      "geometry": {
        "type": "LineString",
        "coordinates": [
          [
            118.654595,
            33.68589
          ],
          [
            118.491845,
            33.771551
          ]
        ]
      },
      "properties": {
        "figure_id": "Figure 2",
        "feature_type": "route_segment",
        "coordinate_status": "검토용 후보 좌표",
        "id": "FIG2-MH-FJ-043",
        "route_name": "Mun Ho-gyeom group",
        "sequence": 43,
        "source_name_zh": "桃源驛",
        "target_name_zh": "古城驛",
        "transport_mode": "land_or_inland_waterway_unspecified",
        "geometry_basis": "straight_line_between_candidate_station_points",
        "source_summary": "Castaway itinerary and the Relay Itineraries of the Huidian zeli.",
        "source_historical_county": "桃源縣",
        "target_historical_county": "桃源縣"
      }
    },
    {
      "type": "Feature",
      "id": "FIG2-MH-FJ-044",
      "geometry": {
        "type": "LineString",
        "coordinates": [
          [
            118.491845,
            33.771551
          ],
          [
            118.297058,
            33.958302
          ]
        ]
      },
      "properties": {
        "figure_id": "Figure 2",
        "feature_type": "route_segment",
        "coordinate_status": "검토용 후보 좌표",
        "id": "FIG2-MH-FJ-044",
        "route_name": "Mun Ho-gyeom group",
        "sequence": 44,
        "source_name_zh": "古城驛",
        "target_name_zh": "鍾吾驛",
        "transport_mode": "land_or_inland_waterway_unspecified",
        "geometry_basis": "straight_line_between_candidate_station_points",
        "source_summary": "Castaway itinerary and the Relay Itineraries of the Huidian zeli.",
        "source_historical_county": "桃源縣",
        "target_historical_county": "宿遷縣"
      }
    },
    {
      "type": "Feature",
      "id": "FIG2-MH-FJ-045",
      "geometry": {
        "type": "LineString",
        "coordinates": [
          [
            118.297058,
            33.958302
          ],
          [
            118.297058,
            33.958302
          ]
        ]
      },
      "properties": {
        "figure_id": "Figure 2",
        "feature_type": "route_segment",
        "coordinate_status": "검토용 후보 좌표",
        "id": "FIG2-MH-FJ-045",
        "route_name": "Mun Ho-gyeom group",
        "sequence": 45,
        "source_name_zh": "鍾吾驛",
        "target_name_zh": "㟃峿驛",
        "transport_mode": "land_or_inland_waterway_unspecified",
        "geometry_basis": "straight_line_between_candidate_station_points",
        "source_summary": "Castaway itinerary and the Relay Itineraries of the Huidian zeli.",
        "source_historical_county": "宿遷縣",
        "target_historical_county": "宿遷縣"
      }
    },
    {
      "type": "Feature",
      "id": "FIG2-MH-FJ-046",
      "geometry": {
        "type": "LineString",
        "coordinates": [
          [
            118.297058,
            33.958302
          ],
          [
            118.343124,
            34.434876
          ]
        ]
      },
      "properties": {
        "figure_id": "Figure 2",
        "feature_type": "route_segment",
        "coordinate_status": "검토용 후보 좌표",
        "id": "FIG2-MH-FJ-046",
        "route_name": "Mun Ho-gyeom group",
        "sequence": 46,
        "source_name_zh": "㟃峿驛",
        "target_name_zh": "紅花埠驛",
        "transport_mode": "land_or_inland_waterway_unspecified",
        "geometry_basis": "straight_line_between_candidate_station_points",
        "source_summary": "Castaway itinerary and the Relay Itineraries of the Huidian zeli.",
        "source_historical_county": "宿遷縣",
        "target_historical_county": "郯城縣"
      }
    },
    {
      "type": "Feature",
      "id": "FIG2-MH-FJ-047",
      "geometry": {
        "type": "LineString",
        "coordinates": [
          [
            118.343124,
            34.434876
          ],
          [
            118.33,
            34.62
          ]
        ]
      },
      "properties": {
        "figure_id": "Figure 2",
        "feature_type": "route_segment",
        "coordinate_status": "검토용 후보 좌표",
        "id": "FIG2-MH-FJ-047",
        "route_name": "Mun Ho-gyeom group",
        "sequence": 47,
        "source_name_zh": "紅花埠驛",
        "target_name_zh": "在城驛",
        "transport_mode": "land_or_inland_waterway_unspecified",
        "geometry_basis": "straight_line_between_candidate_station_points",
        "source_summary": "Castaway itinerary and the Relay Itineraries of the Huidian zeli.",
        "source_historical_county": "郯城縣",
        "target_historical_county": "郯城縣"
      }
    },
    {
      "type": "Feature",
      "id": "FIG2-MH-FJ-048",
      "geometry": {
        "type": "LineString",
        "coordinates": [
          [
            118.33,
            34.62
          ],
          [
            118.405029,
            34.891758
          ]
        ]
      },
      "properties": {
        "figure_id": "Figure 2",
        "feature_type": "route_segment",
        "coordinate_status": "검토용 후보 좌표",
        "id": "FIG2-MH-FJ-048",
        "route_name": "Mun Ho-gyeom group",
        "sequence": 48,
        "source_name_zh": "在城驛",
        "target_name_zh": "李家莊驛",
        "transport_mode": "land_or_inland_waterway_unspecified",
        "geometry_basis": "straight_line_between_candidate_station_points",
        "source_summary": "Castaway itinerary and the Relay Itineraries of the Huidian zeli.",
        "source_historical_county": "郯城縣",
        "target_historical_county": "蘭山縣"
      }
    },
    {
      "type": "Feature",
      "id": "FIG2-MH-FJ-049",
      "geometry": {
        "type": "LineString",
        "coordinates": [
          [
            118.405029,
            34.891758
          ],
          [
            118.34,
            35.07
          ]
        ]
      },
      "properties": {
        "figure_id": "Figure 2",
        "feature_type": "route_segment",
        "coordinate_status": "검토용 후보 좌표",
        "id": "FIG2-MH-FJ-049",
        "route_name": "Mun Ho-gyeom group",
        "sequence": 49,
        "source_name_zh": "李家莊驛",
        "target_name_zh": "在城驛",
        "transport_mode": "land_or_inland_waterway_unspecified",
        "geometry_basis": "straight_line_between_candidate_station_points",
        "source_summary": "Castaway itinerary and the Relay Itineraries of the Huidian zeli.",
        "source_historical_county": "蘭山縣",
        "target_historical_county": "蘭山縣"
      }
    },
    {
      "type": "Feature",
      "id": "FIG2-MH-FJ-050",
      "geometry": {
        "type": "LineString",
        "coordinates": [
          [
            118.34,
            35.07
          ],
          [
            118.304915,
            35.348912
          ]
        ]
      },
      "properties": {
        "figure_id": "Figure 2",
        "feature_type": "route_segment",
        "coordinate_status": "검토용 후보 좌표",
        "id": "FIG2-MH-FJ-050",
        "route_name": "Mun Ho-gyeom group",
        "sequence": 50,
        "source_name_zh": "在城驛",
        "target_name_zh": "徐公店驛",
        "transport_mode": "land_or_inland_waterway_unspecified",
        "geometry_basis": "straight_line_between_candidate_station_points",
        "source_summary": "Castaway itinerary and the Relay Itineraries of the Huidian zeli.",
        "source_historical_county": "蘭山縣",
        "target_historical_county": "蘭山縣"
      }
    },
    {
      "type": "Feature",
      "id": "FIG2-MH-FJ-051",
      "geometry": {
        "type": "LineString",
        "coordinates": [
          [
            118.304915,
            35.348912
          ],
          [
            118.163063,
            35.549255
          ]
        ]
      },
      "properties": {
        "figure_id": "Figure 2",
        "feature_type": "route_segment",
        "coordinate_status": "검토용 후보 좌표",
        "id": "FIG2-MH-FJ-051",
        "route_name": "Mun Ho-gyeom group",
        "sequence": 51,
        "source_name_zh": "徐公店驛",
        "target_name_zh": "垛莊驛",
        "transport_mode": "land_or_inland_waterway_unspecified",
        "geometry_basis": "straight_line_between_candidate_station_points",
        "source_summary": "Castaway itinerary and the Relay Itineraries of the Huidian zeli.",
        "source_historical_county": "蘭山縣",
        "target_historical_county": "沂水縣"
      }
    },
    {
      "type": "Feature",
      "id": "FIG2-MH-FJ-052",
      "geometry": {
        "type": "LineString",
        "coordinates": [
          [
            118.163063,
            35.549255
          ],
          [
            117.92838,
            35.71375
          ]
        ]
      },
      "properties": {
        "figure_id": "Figure 2",
        "feature_type": "route_segment",
        "coordinate_status": "검토용 후보 좌표",
        "id": "FIG2-MH-FJ-052",
        "route_name": "Mun Ho-gyeom group",
        "sequence": 52,
        "source_name_zh": "垛莊驛",
        "target_name_zh": "在城驛",
        "transport_mode": "land_or_inland_waterway_unspecified",
        "geometry_basis": "straight_line_between_candidate_station_points",
        "source_summary": "Castaway itinerary and the Relay Itineraries of the Huidian zeli.",
        "source_historical_county": "沂水縣",
        "target_historical_county": "䝉陰縣"
      }
    },
    {
      "type": "Feature",
      "id": "FIG2-MH-FJ-053",
      "geometry": {
        "type": "LineString",
        "coordinates": [
          [
            117.92838,
            35.71375
          ],
          [
            117.75588,
            35.90966
          ]
        ]
      },
      "properties": {
        "figure_id": "Figure 2",
        "feature_type": "route_segment",
        "coordinate_status": "검토용 후보 좌표",
        "id": "FIG2-MH-FJ-053",
        "route_name": "Mun Ho-gyeom group",
        "sequence": 53,
        "source_name_zh": "在城驛",
        "target_name_zh": "在城驛",
        "transport_mode": "land_or_inland_waterway_unspecified",
        "geometry_basis": "straight_line_between_candidate_station_points",
        "source_summary": "Castaway itinerary and the Relay Itineraries of the Huidian zeli.",
        "source_historical_county": "䝉陰縣",
        "target_historical_county": "新泰縣"
      }
    },
    {
      "type": "Feature",
      "id": "FIG2-MH-FJ-054",
      "geometry": {
        "type": "LineString",
        "coordinates": [
          [
            117.75588,
            35.90966
          ],
          [
            117.75588,
            35.90966
          ]
        ]
      },
      "properties": {
        "figure_id": "Figure 2",
        "feature_type": "route_segment",
        "coordinate_status": "검토용 후보 좌표",
        "id": "FIG2-MH-FJ-054",
        "route_name": "Mun Ho-gyeom group",
        "sequence": 54,
        "source_name_zh": "在城驛",
        "target_name_zh": "楊柳店驛",
        "transport_mode": "land_or_inland_waterway_unspecified",
        "geometry_basis": "straight_line_between_candidate_station_points",
        "source_summary": "Castaway itinerary and the Relay Itineraries of the Huidian zeli.",
        "source_historical_county": "新泰縣",
        "target_historical_county": "新泰縣"
      }
    },
    {
      "type": "Feature",
      "id": "FIG2-MH-FJ-055",
      "geometry": {
        "type": "LineString",
        "coordinates": [
          [
            117.75588,
            35.90966
          ],
          [
            117.12719,
            36.189
          ]
        ]
      },
      "properties": {
        "figure_id": "Figure 2",
        "feature_type": "route_segment",
        "coordinate_status": "검토용 후보 좌표",
        "id": "FIG2-MH-FJ-055",
        "route_name": "Mun Ho-gyeom group",
        "sequence": 55,
        "source_name_zh": "楊柳店驛",
        "target_name_zh": "崔家莊驛",
        "transport_mode": "land_or_inland_waterway_unspecified",
        "geometry_basis": "straight_line_between_candidate_station_points",
        "source_summary": "Castaway itinerary and the Relay Itineraries of the Huidian zeli.",
        "source_historical_county": "新泰縣",
        "target_historical_county": "泰安縣"
      }
    },
    {
      "type": "Feature",
      "id": "FIG2-MH-FJ-056",
      "geometry": {
        "type": "LineString",
        "coordinates": [
          [
            117.12719,
            36.189
          ],
          [
            116.94,
            36.3
          ]
        ]
      },
      "properties": {
        "figure_id": "Figure 2",
        "feature_type": "route_segment",
        "coordinate_status": "검토용 후보 좌표",
        "id": "FIG2-MH-FJ-056",
        "route_name": "Mun Ho-gyeom group",
        "sequence": 56,
        "source_name_zh": "崔家莊驛",
        "target_name_zh": "長城驛",
        "transport_mode": "land_or_inland_waterway_unspecified",
        "geometry_basis": "straight_line_between_candidate_station_points",
        "source_summary": "Castaway itinerary and the Relay Itineraries of the Huidian zeli.",
        "source_historical_county": "泰安縣",
        "target_historical_county": "長清縣"
      }
    },
    {
      "type": "Feature",
      "id": "FIG2-MH-FJ-057",
      "geometry": {
        "type": "LineString",
        "coordinates": [
          [
            116.94,
            36.3
          ],
          [
            116.829399,
            36.523594
          ]
        ]
      },
      "properties": {
        "figure_id": "Figure 2",
        "feature_type": "route_segment",
        "coordinate_status": "검토용 후보 좌표",
        "id": "FIG2-MH-FJ-057",
        "route_name": "Mun Ho-gyeom group",
        "sequence": 57,
        "source_name_zh": "長城驛",
        "target_name_zh": "崮山驛",
        "transport_mode": "land_or_inland_waterway_unspecified",
        "geometry_basis": "straight_line_between_candidate_station_points",
        "source_summary": "Castaway itinerary and the Relay Itineraries of the Huidian zeli.",
        "source_historical_county": "長清縣",
        "target_historical_county": "長清縣"
      }
    },
    {
      "type": "Feature",
      "id": "FIG2-MH-FJ-058",
      "geometry": {
        "type": "LineString",
        "coordinates": [
          [
            116.829399,
            36.523594
          ],
          [
            116.77944,
            36.70007
          ]
        ]
      },
      "properties": {
        "figure_id": "Figure 2",
        "feature_type": "route_segment",
        "coordinate_status": "검토용 후보 좌표",
        "id": "FIG2-MH-FJ-058",
        "route_name": "Mun Ho-gyeom group",
        "sequence": 58,
        "source_name_zh": "崮山驛",
        "target_name_zh": "晏城驛",
        "transport_mode": "land_or_inland_waterway_unspecified",
        "geometry_basis": "straight_line_between_candidate_station_points",
        "source_summary": "Castaway itinerary and the Relay Itineraries of the Huidian zeli.",
        "source_historical_county": "長清縣",
        "target_historical_county": "齊河縣"
      }
    },
    {
      "type": "Feature",
      "id": "FIG2-MH-FJ-059",
      "geometry": {
        "type": "LineString",
        "coordinates": [
          [
            116.77944,
            36.70007
          ],
          [
            116.65238953,
            36.94535828
          ]
        ]
      },
      "properties": {
        "figure_id": "Figure 2",
        "feature_type": "route_segment",
        "coordinate_status": "검토용 후보 좌표",
        "id": "FIG2-MH-FJ-059",
        "route_name": "Mun Ho-gyeom group",
        "sequence": 59,
        "source_name_zh": "晏城驛",
        "target_name_zh": "劉普驛",
        "transport_mode": "land_or_inland_waterway_unspecified",
        "geometry_basis": "straight_line_between_candidate_station_points",
        "source_summary": "Castaway itinerary and the Relay Itineraries of the Huidian zeli.",
        "source_historical_county": "齊河縣",
        "target_historical_county": "禹城縣"
      }
    },
    {
      "type": "Feature",
      "id": "FIG2-MH-FJ-060",
      "geometry": {
        "type": "LineString",
        "coordinates": [
          [
            116.65238953,
            36.94535828
          ],
          [
            116.42786,
            37.15674
          ]
        ]
      },
      "properties": {
        "figure_id": "Figure 2",
        "feature_type": "route_segment",
        "coordinate_status": "검토용 후보 좌표",
        "id": "FIG2-MH-FJ-060",
        "route_name": "Mun Ho-gyeom group",
        "sequence": 60,
        "source_name_zh": "劉普驛",
        "target_name_zh": "桃園驛",
        "transport_mode": "land_or_inland_waterway_unspecified",
        "geometry_basis": "straight_line_between_candidate_station_points",
        "source_summary": "Castaway itinerary and the Relay Itineraries of the Huidian zeli.",
        "source_historical_county": "禹城縣",
        "target_historical_county": "平原縣"
      }
    },
    {
      "type": "Feature",
      "id": "FIG2-MH-FJ-061",
      "geometry": {
        "type": "LineString",
        "coordinates": [
          [
            116.42786,
            37.15674
          ],
          [
            116.28741455,
            37.4516449
          ]
        ]
      },
      "properties": {
        "figure_id": "Figure 2",
        "feature_type": "route_segment",
        "coordinate_status": "검토용 후보 좌표",
        "id": "FIG2-MH-FJ-061",
        "route_name": "Mun Ho-gyeom group",
        "sequence": 61,
        "source_name_zh": "桃園驛",
        "target_name_zh": "安德驛",
        "transport_mode": "land_or_inland_waterway_unspecified",
        "geometry_basis": "straight_line_between_candidate_station_points",
        "source_summary": "Castaway itinerary and the Relay Itineraries of the Huidian zeli.",
        "source_historical_county": "平原縣",
        "target_historical_province": "山東",
        "target_historical_zhou": "德州"
      }
    }
  ]
}
