{
  "type": "FeatureCollection",
  "features": [
    {
      "type": "Feature",
      "id": "FIG4-CORRIDOR-AXIS-01",
      "geometry": {
        "type": "LineString",
        "coordinates": [
          [
            121.54320395811008,
            29.8559587392279
          ],
          [
            121.54902879583722,
            29.85867888240145
          ],
          [
            121.55216524692108,
            29.871501415911858
          ],
          [
            121.55216524692108,
            29.879271846314623
          ],
          [
            121.55082105359944,
            29.88237984896334
          ],
          [
            121.54723653807503,
            29.88820709282078
          ],
          [
            121.54454815143171,
            29.896364661985764
          ],
          [
            121.54320395811008,
            29.90607518324511
          ],
          [
            121.54185976478843,
            29.908793959595645
          ],
          [
            121.52707363825024,
            29.910735897269593
          ],
          [
            121.5181123494392,
            29.90995912674349
          ],
          [
            121.5154239627959,
            29.90995912674349
          ],
          [
            121.50332622290102,
            29.91423128966699
          ],
          [
            121.50063783625772,
            29.91811491510748
          ],
          [
            121.49033235412503,
            29.925105059176307
          ],
          [
            121.48674783860062,
            29.927046678754817
          ],
          [
            121.48047493643293,
            29.923551736244153
          ],
          [
            121.47689042090855,
            29.913842918792298
          ],
          [
            121.47061751874081,
            29.911901041699828
          ],
          [
            121.45583139220263,
            29.914619659027053
          ],
          [
            121.45179881223767,
            29.916561483107568
          ],
          [
            121.45224687667822,
            29.929376572253208
          ],
          [
            121.45224687667822,
            29.931706411208268
          ],
          [
            121.44911042559436,
            29.936365925478132
          ],
          [
            121.43611655681839,
            29.936754208484732
          ],
          [
            121.42849946132903,
            29.934812778298742
          ],
          [
            121.42133043028022,
            29.933647902003923
          ],
          [
            121.41460946367194,
            29.935201067366492
          ],
          [
            121.41102494814753,
            29.938695600787774
          ],
          [
            121.40251172377708,
            29.94840199400632
          ],
          [
            121.39668688604992,
            29.94840199400632
          ],
          [
            121.39623882160939,
            29.94956669753781
          ],
          [
            121.38996591944165,
            29.951507839775925
          ],
          [
            121.38548527503615,
            29.95189606367627
          ],
          [
            121.38055656619007,
            29.952284286060834
          ],
          [
            121.37517979290347,
            29.954225375246534
          ],
          [
            121.37069914849795,
            29.954225375246534
          ],
          [
            121.35501689307867,
            29.95461358853614
          ],
          [
            121.3375423798972,
            29.96004841541943
          ],
          [
            121.33216560661059,
            29.97518672338573
          ],
          [
            121.32275625335902,
            29.977515489132635
          ],
          [
            121.3155872223102,
            29.977903611449214
          ],
          [
            121.30931432014248,
            29.978679851532586
          ],
          [
            121.30304141797477,
            29.98294906355145
          ],
          [
            121.29408012916376,
            29.986053829748737
          ],
          [
            121.2891514203177,
            29.988382340690237
          ],
          [
            121.2855669047933,
            29.994979491795085
          ],
          [
            121.28243045370944,
            29.99885996411046
          ],
          [
            121.28019013150667,
            30.00390435129403
          ],
          [
            121.27884593818501,
            30.007008462102963
          ],
          [
            121.27436529377951,
            30.01438033603182
          ],
          [
            121.26988464937398,
            30.015932239679234
          ],
          [
            121.25487449061555,
            30.020684793533327
          ],
          [
            121.23471159079074,
            30.022624545975248
          ],
          [
            121.21902933537146,
            30.021072747057516
          ],
          [
            121.2096199821199,
            30.021848649552236
          ],
          [
            121.20513933771441,
            30.023400436326483
          ],
          [
            121.19931449998724,
            30.026116004739006
          ],
          [
            121.19124934005733,
            30.02921942041272
          ],
          [
            121.18094385792463,
            30.032322738924897
          ],
          [
            121.17556708463805,
            30.035038062915454
          ],
          [
            121.16884611802978,
            30.037753312508006
          ],
          [
            121.1621251514215,
            30.038916968128913
          ],
          [
            121.1585406358971,
            30.038916968128913
          ],
          [
            121.1065651607932,
            30.035038062915454
          ],
          [
            121.08326580988455,
            30.040856363794685
          ],
          [
            121.06982387666804,
            30.04551075850234
          ],
          [
            121.05055710572432,
            30.038141199233397
          ],
          [
            121.04831678352157,
            30.03309855337074
          ],
          [
            121.0460764613188,
            30.02572807094845
          ],
          [
            121.04921291240268,
            30.01835704051282
          ],
          [
            121.04742065464046,
            30.012925404308326
          ],
          [
            121.04025162359167,
            30.006717455840164
          ],
          [
            121.0344267858645,
            30.0005091189018
          ],
          [
            121.02949807701845,
            29.994688450255456
          ],
          [
            121.02546549705349,
            29.990031669567255
          ],
          [
            121.02143291708853,
            29.984598482680628
          ],
          [
            121.01740033712355,
            29.9799412287295
          ],
          [
            121.01291969271806,
            29.97567188741852
          ],
          [
            121.00754291943144,
            29.97217865349547
          ],
          [
            121.00171808170428,
            29.968297138411785
          ],
          [
            120.99544517953657,
            29.964027296689153
          ],
          [
            120.99096453513108,
            29.96092184202582
          ],
          [
            120.9824513107606,
            29.956651683436686
          ],
          [
            120.97976292411728,
            29.955875271258382
          ],
          [
            120.96094421761417,
            29.948499053154972
          ],
          [
            120.94660615551653,
            29.950828444302992
          ],
          [
            120.93719680226494,
            29.954322428711045
          ],
          [
            120.93002777121613,
            29.958592687353438
          ],
          [
            120.92151454684569,
            29.963250942120013
          ],
          [
            120.91748196688071,
            29.968297138411785
          ],
          [
            120.91120906471299,
            29.9741193541729
          ],
          [
            120.90717648474802,
            29.97800064179138
          ],
          [
            120.90269584034253,
            29.980717452888346
          ],
          [
            120.89866326037757,
            29.98188177775157
          ],
          [
            120.88835777824491,
            29.986927027751054
          ],
          [
            120.87401971614727,
            29.99934501248215
          ],
          [
            120.87401971614727,
            30.002449265922287
          ],
          [
            120.85609713852526,
            29.994688450255456
          ],
          [
            120.84892810747644,
            29.993136214298552
          ],
          [
            120.83817456090321,
            29.993136214298552
          ],
          [
            120.82025198328117,
            29.99624066193886
          ],
          [
            120.79695263237251,
            30.00089715134049
          ],
          [
            120.7772377969883,
            30.002449265922287
          ],
          [
            120.75035393055524,
            30.002449265922287
          ],
          [
            120.73063909517099,
            30.002449265922287
          ],
          [
            120.69658619768911,
            30.002449265922287
          ],
          [
            120.66791007349387,
            30.002449265922287
          ],
          [
            120.63385717601199,
            29.99779284934801
          ],
          [
            120.60697330957893,
            29.994688450255456
          ],
          [
            120.58367395867027,
            30.005553422253254
          ],
          [
            120.57112815433486,
            30.01641720458897
          ],
          [
            120.55858234999944,
            30.027279797002365
          ],
          [
            120.53528299909077,
            30.039692730950616
          ],
          [
            120.50839913265771,
            30.053655423017574
          ],
          [
            120.4886842972735,
            30.069167216570893
          ],
          [
            120.46717720412705,
            30.08157490113918
          ],
          [
            120.4385010799318,
            30.098632926328865
          ],
          [
            120.4385010799318,
            30.10018350996138
          ],
          [
            120.41699398678534,
            30.12498953937344
          ],
          [
            120.3990714091633,
            30.14049014413919
          ],
          [
            120.37218754273025,
            30.15133911901965
          ],
          [
            120.35426496510821,
            30.157537997557913
          ],
          [
            120.32200432538855,
            30.173033489101847
          ],
          [
            120.30408174776653,
            30.174582904286893
          ],
          [
            120.27899013909568,
            30.171484049556472
          ],
          [
            120.25748304594921,
            30.174582904286893
          ],
          [
            120.22880692175394,
            30.186202741614057
          ],
          [
            120.21178047301302,
            30.1993702336332
          ],
          [
            120.19296176650988,
            30.204017163346098
          ],
          [
            120.18937725098547,
            30.209438304074048
          ],
          [
            120.19385789539099,
            30.220279689609402
          ],
          [
            120.19385789539099,
            30.228022804940725
          ],
          [
            120.19296176650988,
            30.243507206493238
          ],
          [
            120.19116950874768,
            30.247377925748694
          ],
          [
            120.19027337986657,
            30.25589297137737
          ],
          [
            120.18400047769889,
            30.26285927789003
          ],
          [
            120.17862370441226,
            30.264407278896222
          ],
          [
            120.17324693112563,
            30.26982509022816
          ],
          [
            120.16518177119572,
            30.280659815901647
          ],
          [
            120.16070112679022,
            30.28452907090288
          ],
          [
            120.13023274483278,
            30.330174753300987
          ],
          [
            120.12664822930839,
            30.367294536676884
          ],
          [
            120.12664822930839,
            30.39512513123358
          ],
          [
            120.13381726035719,
            30.435310882622083
          ],
          [
            120.14815532245483,
            30.45385257040943
          ],
          [
            120.1911695087477,
            30.478569333673118
          ],
          [
            120.24493724161381,
            30.497102789136253
          ],
          [
            120.25927530371145,
            30.50327982318605
          ],
          [
            120.35964173839486,
            30.506368193102464
          ],
          [
            120.39548689363892,
            30.52489635271314
          ],
          [
            120.4277475333586,
            30.543420980174634
          ],
          [
            120.43133204888301,
            30.5619420742242
          ],
          [
            120.43133204888301,
            30.589717087393304
          ],
          [
            120.43474523398154,
            30.614217030530156
          ],
          [
            120.45897562788353,
            30.63127711940913
          ],
          [
            120.48509978174908,
            30.642159287174458
          ],
          [
            120.51019139041996,
            30.660661515105712
          ],
          [
            120.55679009223724,
            30.694573067688324
          ],
          [
            120.59263524748131,
            30.709983472834015
          ],
          [
            120.63923394929863,
            30.725391416383143
          ],
          [
            120.66713673913253,
            30.74114773240338
          ],
          [
            120.69632334996902,
            30.755819245903137
          ],
          [
            120.71835098078904,
            30.75629248331952
          ],
          [
            120.73601586845763,
            30.762360433275045
          ],
          [
            120.74423344700253,
            30.785628659593208
          ],
          [
            120.7277127238875,
            30.82914327173279
          ],
          [
            120.71669890847753,
            30.86743873065881
          ],
          [
            120.70568509306752,
            30.894850775171303
          ],
          [
            120.70403302075603,
            30.935009424580866
          ],
          [
            120.68200538993605,
            30.953429515358078
          ],
          [
            120.64235565446003,
            30.97515121194066
          ],
          [
            120.64345703600104,
            30.987898601813047
          ],
          [
            120.64841325293553,
            31.016691989570326
          ],
          [
            120.66162983142753,
            31.04783569490867
          ],
          [
            120.66465863066524,
            31.07472433308517
          ],
          [
            120.67181761068171,
            31.09358901366554
          ],
          [
            120.67457106453422,
            31.116221686648924
          ],
          [
            120.65715652692067,
            31.14047279424201
          ],
          [
            120.65144205217324,
            31.16429819998971
          ],
          [
            120.65715652692067,
            31.18648153460837
          ],
          [
            120.65715652692067,
            31.22020707264595
          ],
          [
            120.65667361449302,
            31.232835726136845
          ],
          [
            120.65185507025112,
            31.258200852745105
          ],
          [
            120.65736197795611,
            31.262967088112575
          ],
          [
            120.64565979908298,
            31.27296951539756
          ],
          [
            120.63381994751722,
            31.273910865721085
          ],
          [
            120.62576609499867,
            31.27432270353374
          ],
          [
            120.60924537188367,
            31.273381357319977
          ],
          [
            120.58501497798167,
            31.270557262317215
          ],
          [
            120.57840668873567,
            31.27808799444867
          ],
          [
            120.57695299206196,
            31.30331976947753
          ],
          [
            120.56351105884545,
            31.320545955180368
          ],
          [
            120.55275751227221,
            31.329731965908213
          ],
          [
            120.53125041912578,
            31.343509301184376
          ],
          [
            120.50436655269272,
            31.36531928925951
          ],
          [
            120.48689203951123,
            31.374500928585217
          ],
          [
            120.45597559311324,
            31.416954338397378
          ],
          [
            120.45059881982661,
            31.435306622484973
          ],
          [
            120.43581269328843,
            31.44792173396556
          ],
          [
            120.41699398678529,
            31.461681736758223
          ],
          [
            120.39145431367389,
            31.48231795009573
          ],
          [
            120.37801238045736,
            31.491488139909986
          ],
          [
            120.35784948063258,
            31.50982582235312
          ],
          [
            120.33096561419951,
            31.530451415235966
          ],
          [
            120.31752368098299,
            31.543053702265897
          ],
          [
            120.30945852105306,
            31.5499269599765
          ],
          [
            120.29870497447985,
            31.561381264531096
          ],
          [
            120.27047691472514,
            31.613194407382746
          ],
          [
            120.26375594811688,
            31.62693007485656
          ],
          [
            120.2314953083972,
            31.63837491555274
          ],
          [
            120.17907176885275,
            31.65782791239465
          ],
          [
            120.13605758255987,
            31.677276837680985
          ],
          [
            120.09438758958864,
            31.702439988912296
          ],
          [
            120.04599663000914,
            31.732169460266377
          ],
          [
            119.99491728378634,
            31.7573177186283
          ],
          [
            119.94652632420683,
            31.774460342263165
          ],
          [
            119.93711697095527,
            31.780173844331195
          ],
          [
            119.88334923808915,
            31.81273406523455
          ],
          [
            119.84436763176123,
            31.833292503743877
          ],
          [
            119.79597667218174,
            31.864121576093932
          ],
          [
            119.7543066792105,
            31.891516543031788
          ],
          [
            119.68172023984124,
            31.923467039440347
          ],
          [
            119.62660831365349,
            31.95768740047742
          ],
          [
            119.59165928729051,
            31.97935370396805
          ],
          [
            119.57956154739564,
            32.001014893168005
          ],
          [
            119.57418477410901,
            32.02608987833206
          ],
          [
            119.57284058078737,
            32.04774002500253
          ],
          [
            119.56880800082243,
            32.09899626052218
          ],
          [
            119.56611961417912,
            32.11607528548243
          ],
          [
            119.55671026092753,
            32.15477591211808
          ],
          [
            119.55671026092753,
            32.17070669060224
          ],
          [
            119.54192413438938,
            32.17639557927094
          ],
          [
            119.52041704124291,
            32.180946434350375
          ],
          [
            119.50025414141814,
            32.183221776598934
          ],
          [
            119.47471446830671,
            32.18435942639948
          ],
          [
            119.44648640855202,
            32.19004746215403
          ],
          [
            119.43842124862209,
            32.19573514247011
          ],
          [
            119.43573286197878,
            32.20483469157939
          ],
          [
            119.43842124862209,
            32.2173450854761
          ]
        ]
      },
      "properties": {
        "figure_id": "Figure 4",
        "feature_type": "route_segment",
        "id": "FIG4-CORRIDOR-AXIS-01",
        "route_name": "Fujian corridor axis",
        "geometry_basis": "Canal_LineLayer.shp project Grand Canal centreline",
        "source_summary": "Grand Canal reference geometry and the Relay Itineraries of the Huidian zeli."
      }
    },
    {
      "type": "Feature",
      "id": "FIG4-CORRIDOR-CONNECTOR-01",
      "geometry": {
        "type": "LineString",
        "coordinates": [
          [
            119.43842124862209,
            32.2173450854761
          ],
          [
            119.53051098882067,
            32.334737023408145
          ]
        ]
      },
      "properties": {
        "figure_id": "Figure 4",
        "feature_type": "route_segment",
        "id": "FIG4-CORRIDOR-CONNECTOR-01",
        "route_name": "Fujian corridor axis",
        "geometry_basis": "connector between adjacent project Grand Canal components",
        "source_summary": "Grand Canal reference geometry and the Relay Itineraries of the Huidian zeli."
      }
    },
    {
      "type": "Feature",
      "id": "FIG4-CORRIDOR-AXIS-02",
      "geometry": {
        "type": "LineString",
        "coordinates": [
          [
            119.53051098882067,
            32.334737023408145
          ],
          [
            119.52775753496816,
            32.34241413788806
          ],
          [
            119.52307666341889,
            32.348229700105215
          ],
          [
            119.5219752818779,
            32.353812288131444
          ],
          [
            119.52114924572216,
            32.370557984742284
          ],
          [
            119.52307666341889,
            32.39032321732427
          ],
          [
            119.51013543031215,
            32.41240865373016
          ],
          [
            119.50958473954164,
            32.42635456627038
          ],
          [
            119.50435317722192,
            32.43495347097054
          ],
          [
            119.49113659872988,
            32.4493896523855
          ],
          [
            119.48340111431305,
            32.47066210252326
          ],
          [
            119.48543178652923,
            32.486246609096355
          ],
          [
            119.48722153153335,
            32.491936785654694
          ],
          [
            119.49313285277296,
            32.49981824692598
          ],
          [
            119.50176320969187,
            32.49944088146502
          ],
          [
            119.50014555555353,
            32.50769901758055
          ],
          [
            119.50169437334554,
            32.52346574178972
          ],
          [
            119.49732326535472,
            32.53831571256149
          ],
          [
            119.48827989035793,
            32.55107442470708
          ],
          [
            119.47576027987235,
            32.58873794601787
          ],
          [
            119.46787851821954,
            32.60343939365857
          ],
          [
            119.46182091974403,
            32.63184955446934
          ],
          [
            119.45920513858421,
            32.63164665671905
          ],
          [
            119.4542489216497,
            32.66271363734069
          ],
          [
            119.44130768854293,
            32.709525547306136
          ],
          [
            119.42382325657964,
            32.7840957473983
          ],
          [
            119.42162049349764,
            32.817423705213585
          ],
          [
            119.41280944116963,
            32.90253835976168
          ],
          [
            119.39959286267764,
            32.969092825718974
          ],
          [
            119.4059258065384,
            32.98964987181688
          ],
          [
            119.41060667808765,
            32.99888743461792
          ],
          [
            119.41060667808765,
            33.01828316861086
          ],
          [
            119.40565046115316,
            33.045291545966755
          ],
          [
            119.3872023203414,
            33.103319983304885
          ],
          [
            119.3816954126364,
            33.109316763685776
          ],
          [
            119.36958021568539,
            33.141600083485834
          ],
          [
            119.3629719264394,
            33.14805532294581
          ],
          [
            119.35361018334089,
            33.1535880073259
          ],
          [
            119.34920465717691,
            33.155432157905764
          ],
          [
            119.3398429140784,
            33.15958135493677
          ],
          [
            119.33268393406189,
            33.16465232915446
          ],
          [
            119.3288290986684,
            33.168340126196576
          ],
          [
            119.31643855633216,
            33.19438077559669
          ],
          [
            119.31093164862716,
            33.20935640339873
          ],
          [
            119.3062507770779,
            33.22893605102705
          ],
          [
            119.29991783321715,
            33.23031797822977
          ],
          [
            119.29523696166791,
            33.24735995151528
          ],
          [
            119.28945470857765,
            33.25265610430175
          ],
          [
            119.28807798165143,
            33.26048461176549
          ],
          [
            119.27740834797297,
            33.272974233512684
          ],
          [
            119.25427933561195,
            33.31072001441459
          ],
          [
            119.24629431943971,
            33.31601232425388
          ],
          [
            119.2340414497961,
            33.34039881679296
          ],
          [
            119.17766448216615,
            33.42133138830321
          ],
          [
            119.1680273936824,
            33.43971464633359
          ],
          [
            119.1484778713297,
            33.46464071753319
          ],
          [
            119.1418695820837,
            33.47199081730523
          ],
          [
            119.13250783898519,
            33.47290953594715
          ],
          [
            119.12424747742769,
            33.46831584533668
          ],
          [
            119.1093788266242,
            33.47750298304894
          ],
          [
            119.0454986972462,
            33.5303101171636
          ],
          [
            119.0262245202787,
            33.54316262810852
          ],
          [
            119.0063996525407,
            33.55647214260306
          ],
          [
            118.9915310017372,
            33.565191057592536
          ],
          [
            118.9805171863272,
            33.57345027032977
          ],
          [
            118.97060475245823,
            33.57849717803454
          ],
          [
            118.96564853552371,
            33.58124991240059
          ]
        ]
      },
      "properties": {
        "figure_id": "Figure 4",
        "feature_type": "route_segment",
        "id": "FIG4-CORRIDOR-AXIS-02",
        "route_name": "Fujian corridor axis",
        "geometry_basis": "Canal_LineLayer.shp project Grand Canal centreline",
        "source_summary": "Grand Canal reference geometry and the Relay Itineraries of the Huidian zeli."
      }
    },
    {
      "type": "Feature",
      "id": "FIG4-CORRIDOR-CONNECTOR-02",
      "geometry": {
        "type": "LineString",
        "coordinates": [
          [
            118.96564853552371,
            33.58124991240059
          ],
          [
            118.96014162781876,
            33.58033234403435
          ]
        ]
      },
      "properties": {
        "figure_id": "Figure 4",
        "feature_type": "route_segment",
        "id": "FIG4-CORRIDOR-CONNECTOR-02",
        "route_name": "Fujian corridor axis",
        "geometry_basis": "connector between adjacent project Grand Canal components",
        "source_summary": "Grand Canal reference geometry and the Relay Itineraries of the Huidian zeli."
      }
    },
    {
      "type": "Feature",
      "id": "FIG4-CORRIDOR-AXIS-03",
      "geometry": {
        "type": "LineString",
        "coordinates": [
          [
            118.96014162781876,
            33.58033234403435
          ],
          [
            118.93811399699875,
            33.57299144590584
          ],
          [
            118.91388360309676,
            33.561978928161636
          ],
          [
            118.87423386762077,
            33.561978928161636
          ],
          [
            118.83017860598075,
            33.561978928161636
          ],
          [
            118.75748742427479,
            33.593177413321825
          ],
          [
            118.74647360886478,
            33.631701144728495
          ],
          [
            118.73986531961877,
            33.666541109574716
          ],
          [
            118.72004045188076,
            33.686705169023114
          ],
          [
            118.66276861174877,
            33.708696931137915
          ],
          [
            118.61430782394478,
            33.72518705819872
          ],
          [
            118.57906361463279,
            33.752663563864516
          ],
          [
            118.5702525623048,
            33.77463843088939
          ],
          [
            118.55703598381278,
            33.78928521163992
          ],
          [
            118.5394138791568,
            33.805759845584745
          ],
          [
            118.5129807221728,
            33.81125068554466
          ],
          [
            118.4601144082048,
            33.81308088722364
          ],
          [
            118.42487019889279,
            33.81857125732329
          ],
          [
            118.40284256807278,
            33.824061274995344
          ],
          [
            118.38081493725281,
            33.827721090969874
          ],
          [
            118.3521790171868,
            33.856993978493016
          ],
          [
            118.34777349102279,
            33.867968725647046
          ],
          [
            118.3279486232848,
            33.89539942119921
          ],
          [
            118.3081237555468,
            33.92464910768599
          ],
          [
            118.2971099401368,
            33.95388875436343
          ],
          [
            118.2949071770548,
            33.972158433344426
          ],
          [
            118.2596629677428,
            33.99042418788241
          ],
          [
            118.21560770610282,
            33.99772939062659
          ],
          [
            118.17375520754481,
            34.014163800073845
          ],
          [
            118.15833586597083,
            34.021466961133896
          ],
          [
            118.13410547206882,
            34.036071398145886
          ],
          [
            118.10546955200283,
            34.05249838485353
          ],
          [
            118.0966584996748,
            34.06892218916301
          ],
          [
            118.08784744734682,
            34.11087967015479
          ],
          [
            118.08123915810081,
            34.150993449133956
          ],
          [
            118.05700876419881,
            34.19655417433523
          ],
          [
            117.99092587173887,
            34.2639388882689
          ],
          [
            117.94246508393486,
            34.30034060068063
          ],
          [
            117.92043745311486,
            34.333088659068636
          ],
          [
            117.88078771763885,
            34.39854643288496
          ],
          [
            117.87197666531087,
            34.40218147617814
          ],
          [
            117.80148824668689,
            34.43488975872406
          ],
          [
            117.77064956353888,
            34.49663715107147
          ],
          [
            117.77064956353888,
            34.52930844988541
          ],
          [
            117.75743298504686,
            34.547453635336325
          ],
          [
            117.66932246176688,
            34.55471060200795
          ],
          [
            117.6076450954709,
            34.57285024937954
          ],
          [
            117.54156220301087,
            34.58373213854316
          ],
          [
            117.4842903628789,
            34.58373213854316
          ],
          [
            117.43142404891088,
            34.58373213854316
          ],
          [
            117.39617983959889,
            34.58373213854316
          ],
          [
            117.36974668261492,
            34.590985939833644
          ],
          [
            117.1858159652679,
            34.78117155192165
          ],
          [
            117.14176070362794,
            34.79202609880825
          ],
          [
            117.11092202047993,
            34.80649660568841
          ],
          [
            117.09329991582392,
            34.820964572357525
          ],
          [
            117.08889438965993,
            34.84627740021302
          ],
          [
            117.08889438965993,
            34.86435322633787
          ],
          [
            117.08448886349592,
            34.87519681548768
          ],
          [
            117.03162254952791,
            34.88965270966041
          ],
          [
            117.00518939254391,
            34.91494440522778
          ],
          [
            116.98316176172393,
            34.925781318694305
          ],
          [
            116.96994518323191,
            34.9366168010934
          ],
          [
            116.95672860473992,
            34.94383966089067
          ],
          [
            116.92148439542792,
            34.96550442298596
          ],
          [
            116.89064571227995,
            34.9943818632324
          ],
          [
            116.85540150296795,
            35.04489287282203
          ],
          [
            116.82896834598394,
            35.052106183821266
          ],
          [
            116.80253518899994,
            35.052106183821266
          ],
          [
            116.74085782270394,
            35.05931885776769
          ],
          [
            116.69239703489995,
            35.0917680054432
          ],
          [
            116.68799150873595,
            35.102581520090716
          ],
          [
            116.69239703489995,
            35.185437468047525
          ],
          [
            116.68358598257193,
            35.23942849533193
          ],
          [
            116.65715282558796,
            35.27899908865563
          ],
          [
            116.64393624709594,
            35.296979333963186
          ],
          [
            116.61750309011195,
            35.340115626516486
          ],
          [
            116.60428651161996,
            35.383228902889634
          ],
          [
            116.57344782847194,
            35.40477690621966
          ],
          [
            116.52058151450397,
            35.394003624283485
          ],
          [
            116.48974283135595,
            35.394003624283485
          ],
          [
            116.47212072669997,
            35.41554874850969
          ],
          [
            116.46771520053596,
            35.451444489615774
          ],
          [
            116.45009309587995,
            35.48732422560724
          ],
          [
            116.40713921578094,
            35.54828302545979
          ],
          [
            116.36748948030493,
            35.59486733375795
          ],
          [
            116.34105632332096,
            35.61993997016949
          ],
          [
            116.33224527099293,
            35.64858478918803
          ],
          [
            116.33224527099293,
            35.66290334862579
          ],
          [
            116.33224527099293,
            35.705843621447244
          ],
          [
            116.33224527099293,
            35.74160952356626
          ],
          [
            116.32783974482895,
            35.75591138787226
          ],
          [
            116.28819000935295,
            35.78450740576542
          ],
          [
            116.24854027387696,
            35.834525689600426
          ],
          [
            116.23532369538495,
            35.86309341880015
          ],
          [
            116.23091816922097,
            35.87737342367113
          ],
          [
            116.21770159072896,
            35.9023572389343
          ],
          [
            116.18245738141695,
            35.923765662580415
          ],
          [
            116.16042975059698,
            35.948734833829114
          ],
          [
            116.12959106744896,
            35.97013070213145
          ],
          [
            116.08553580580899,
            35.998649508713314
          ],
          [
            116.05469712266097,
            36.03072084330496
          ],
          [
            116.03266949184098,
            36.05209448207617
          ],
          [
            116.02606120259499,
            36.109062481061414
          ],
          [
            116.02826396567697,
            36.135752019312925
          ],
          [
            116.03707501800496,
            36.16065406762028
          ],
          [
            116.04368330725096,
            36.19621470502972
          ],
          [
            116.03046672875897,
            36.226428554053165
          ],
          [
            116.01725015026696,
            36.26195932053365
          ],
          [
            116.00403357177497,
            36.29214777005422
          ],
          [
            115.99742528252897,
            36.3170000790565
          ],
          [
            115.99081699328299,
            36.350715542810214
          ],
          [
            115.98861423020097,
            36.38264304607761
          ],
          [
            115.97760041479096,
            36.40923928962799
          ],
          [
            115.97980317787295,
            36.44468678851633
          ],
          [
            115.96438383629895,
            36.46683325545678
          ],
          [
            115.95997831013494,
            36.4854313999608
          ],
          [
            115.95447140242995,
            36.5049103828341
          ],
          [
            115.95226863934795,
            36.52172919760128
          ],
          [
            115.95006587626592,
            36.55181690045151
          ],
          [
            115.94235620547897,
            36.55977933261002
          ],
          [
            115.91482166695394,
            36.57304822949947
          ],
          [
            115.90380785154396,
            36.578355150014296
          ],
          [
            115.90050370692097,
            36.58985222650902
          ],
          [
            115.90931475924894,
            36.594273723038235
          ],
          [
            115.91482166695394,
            36.60400012364985
          ],
          [
            115.90711199616693,
            36.61018901285234
          ],
          [
            115.90270647000295,
            36.61637740543669
          ],
          [
            115.90270647000295,
            36.62344924595928
          ],
          [
            115.90270647000295,
            36.63582340582739
          ],
          [
            115.90270647000295,
            36.649079229280574
          ],
          [
            115.90270647000295,
            36.66851697693411
          ],
          [
            115.90949647872823,
            36.68747776452164
          ],
          [
            115.90247761975593,
            36.69157108597526
          ],
          [
            115.8775925743087,
            36.70487287580943
          ],
          [
            115.86036446592216,
            36.70640754959796
          ],
          [
            115.84653601141196,
            36.71973841768646
          ],
          [
            115.84728386511014,
            36.73313153597717
          ],
          [
            115.84763739295296,
            36.74357123928
          ],
          [
            115.84505059180078,
            36.75192226253489
          ],
          [
            115.83978644757157,
            36.75396723404971
          ],
          [
            115.83292710812137,
            36.753455996281204
          ],
          [
            115.82542969058278,
            36.74770433663941
          ],
          [
            115.81250860929286,
            36.75588434533945
          ],
          [
            115.79962740788349,
            36.75808896409455
          ],
          [
            115.79036555282094,
            36.767396662120326
          ],
          [
            115.78485864511597,
            36.77180796538089
          ],
          [
            115.77522092100256,
            36.77316813517101
          ],
          [
            115.76836158155238,
            36.77393479346291
          ],
          [
            115.76010644628381,
            36.78635997734296
          ],
          [
            115.75534188348578,
            36.79438385893561
          ],
          [
            115.74542944961678,
            36.80232122641256
          ],
          [
            115.73864638573502,
            36.80899282270979
          ],
          [
            115.73093671494799,
            36.81251997021741
          ],
          [
            115.72070512432569,
            36.82007988195891
          ],
          [
            115.70921971873464,
            36.829912057058266
          ],
          [
            115.69757479362153,
            36.833742432622294
          ],
          [
            115.68793706950797,
            36.84059142650227
          ],
          [
            115.69011725596347,
            36.85435932556863
          ],
          [
            115.69729881260649,
            36.874078929389036
          ],
          [
            115.7132077067871,
            36.88591218784571
          ],
          [
            115.72070512432569,
            36.88718806579145
          ],
          [
            115.7319911305141,
            36.89394986293063
          ],
          [
            115.74251941897252,
            36.907854317772156
          ],
          [
            115.7583118516602,
            36.918185345016774
          ],
          [
            115.76596878872088,
            36.92940759109732
          ],
          [
            115.77659828355846,
            36.948051854533205
          ],
          [
            115.78702536563777,
            36.9616304809934
          ],
          [
            115.78941815846923,
            36.969277829857354
          ],
          [
            115.78495161185052,
            36.97478981737072
          ],
          [
            115.77659828355846,
            36.98853043128717
          ],
          [
            115.77585899909093,
            36.99224711963854
          ],
          [
            115.7788898700108,
            36.996706371941436
          ],
          [
            115.78636645301908,
            36.9994199836584
          ],
          [
            115.79297474226507,
            37.002938338726835
          ],
          [
            115.80437311366589,
            37.0078215124927
          ],
          [
            115.80772302362993,
            37.02565329908107
          ],
          [
            115.82065354519848,
            37.02898747872259
          ],
          [
            115.82909863959101,
            37.04258962009697
          ],
          [
            115.84488393910048,
            37.05360296306667
          ],
          [
            115.8491183396143,
            37.05576677511752
          ],
          [
            115.86427269421355,
            37.07142360740909
          ],
          [
            115.86554885039031,
            37.083895843534286
          ],
          [
            115.87145107270794,
            37.10387259826473
          ],
          [
            115.87792538533049,
            37.11335018991486
          ],
          [
            115.8814609227196,
            37.11983749016195
          ],
          [
            115.8787490908439,
            37.13166587614327
          ],
          [
            115.87651581753452,
            37.13955043979416
          ],
          [
            115.87667533705662,
            37.14628981859377
          ],
          [
            115.88233091149448,
            37.153740722545216
          ],
          [
            115.89775025306847,
            37.162518419870885
          ],
          [
            115.90215577923247,
            37.16602921342736
          ],
          [
            115.90833996219301,
            37.171525363257054
          ],
          [
            115.90770188410463,
            37.175846979231
          ],
          [
            115.90036398608814,
            37.18842910029689
          ],
          [
            115.90275677891961,
            37.19795961478529
          ],
          [
            115.91096683156047,
            37.20814601433117
          ],
          [
            115.92418341005249,
            37.21691739114805
          ],
          [
            115.93781119390056,
            37.221875906348885
          ],
          [
            115.95184891184515,
            37.22365423873159
          ],
          [
            115.95950584890585,
            37.22816339359198
          ],
          [
            115.9622176807815,
            37.24378457702844
          ],
          [
            115.96413191504665,
            37.24924487751126
          ],
          [
            115.96887674978085,
            37.262795851354525
          ],
          [
            115.96604614931186,
            37.27945984976497
          ],
          [
            115.96748182501072,
            37.28847121214654
          ],
          [
            115.97194837162945,
            37.29621250673427
          ],
          [
            115.97637503836765,
            37.30756919384936
          ],
          [
            115.97701311645604,
            37.324569295760234
          ],
          [
            115.97812975311074,
            37.33306790484421
          ],
          [
            115.98383257602572,
            37.33652415368108
          ],
          [
            115.99026630251248,
            37.33785821652867
          ],
          [
            115.99643461827145,
            37.33868026506378
          ],
          [
            116.0076009848183,
            37.34261183824268
          ],
          [
            116.01984410813927,
            37.34641639050865
          ],
          [
            116.03388182608386,
            37.353898114283375
          ],
          [
            116.04648386832956,
            37.35567332911472
          ],
          [
            116.06516024730047,
            37.365874704552894
          ],
          [
            116.08278235195648,
            37.367625387870596
          ],
          [
            116.10260721969446,
            37.367625387870596
          ],
          [
            116.11021191740758,
            37.36670408015004
          ],
          [
            116.12022932435046,
            37.36937603033905
          ],
          [
            116.1285566624488,
            37.370634185834724
          ],
          [
            116.13748975568627,
            37.370253862024235
          ],
          [
            116.15106800749848,
            37.374627712642145
          ],
          [
            116.15830705332002,
            37.37862054045151
          ],
          [
            116.1662830294249,
            37.37862054045151
          ],
          [
            116.17106861508783,
            37.37557821991079
          ],
          [
            116.17309563831844,
            37.372877192725525
          ],
          [
            116.18072903353705,
            37.36186606069505
          ],
          [
            116.18757888562493,
            37.35782889068152
          ],
          [
            116.19587390077402,
            37.35681451647915
          ],
          [
            116.20592363066616,
            37.35782889068152
          ],
          [
            116.21836615338977,
            37.35808248209005
          ],
          [
            116.228575402804,
            37.35871645686269
          ],
          [
            116.23383954703324,
            37.35808248209005
          ],
          [
            116.2394027903664,
            37.359984390342255
          ],
          [
            116.24241372134598,
            37.364960822204054
          ],
          [
            116.24983137912352,
            37.369081184804294
          ],
          [
            116.25445744526434,
            37.37599020804149
          ],
          [
            116.26107750543142,
            37.38226482447026
          ],
          [
            116.26674044846588,
            37.38628917582251
          ],
          [
            116.28014008832206,
            37.39934306489462
          ],
          [
            116.27806633453478,
            37.40474455537581
          ],
          [
            116.26634164966063,
            37.40974969456283
          ],
          [
            116.26076922500899,
            37.41982227796147
          ],
          [
            116.25653119905162,
            37.4211525602279
          ],
          [
            116.25629191976849,
            37.4260299225844
          ],
          [
            116.25932279068833,
            37.430653622081024
          ],
          [
            116.26432771569414,
            37.43119197948814
          ],
          [
            116.27007041848967,
            37.429545226992516
          ],
          [
            116.27254297108216,
            37.43005192392649
          ],
          [
            116.27381912725893,
            37.436322014646656
          ],
          [
            116.26950051757593,
            37.442081977431954
          ],
          [
            116.27007041848967,
            37.44683432132743
          ],
          [
            116.27256538291579,
            37.452167891198656
          ],
          [
            116.27342032845372,
            37.45326129931229
          ],
          [
            116.27717619394294,
            37.4586046142225
          ],
          [
            116.27908327148819,
            37.460352496240446
          ],
          [
            116.27948207029343,
            37.46680996555268
          ],
          [
            116.27653095913462,
            37.47592544331709
          ],
          [
            116.27828567387769,
            37.480989117274454
          ],
          [
            116.28689972807096,
            37.48352082557959
          ],
          [
            116.29535426274215,
            37.48959657550487
          ],
          [
            116.29758753605152,
            37.49769680672221
          ],
          [
            116.29551378226425,
            37.50250590332785
          ],
          [
            116.28993059899084,
            37.50642888430863
          ],
          [
            116.28062460297436,
            37.50735013565716
          ],
          [
            116.27493576391365,
            37.508706649635094
          ],
          [
            116.27397864678106,
            37.510857808625765
          ],
          [
            116.2717453734717,
            37.51389463342257
          ],
          [
            116.27387204931993,
            37.51912322344613
          ],
          [
            116.28048033856594,
            37.52523789914528
          ],
          [
            116.2845069352395,
            37.524775574222744
          ],
          [
            116.29040915755712,
            37.52806484860551
          ],
          [
            116.28819000935295,
            37.53397228080027
          ],
          [
            116.28598724627093,
            37.54183234977061
          ],
          [
            116.28598724627093,
            37.54881838216933
          ],
          [
            116.29259553551694,
            37.55842310770168
          ],
          [
            116.29920382476294,
            37.5645345612439
          ],
          [
            116.30911625863192,
            37.565407585111416
          ],
          [
            116.31242040325493,
            37.56628059874761
          ],
          [
            116.31682592941894,
            37.570645513456085
          ],
          [
            116.32013007404193,
            37.57501017236939
          ],
          [
            116.32343421866494,
            37.585484310055286
          ],
          [
            116.32563698174695,
            37.590720826313806
          ],
          [
            116.32563698174695,
            37.598574909920885
          ],
          [
            116.32563698174695,
            37.60381050511252
          ],
          [
            116.33334665253395,
            37.60817321964542
          ],
          [
            116.33885356023895,
            37.60991823381167
          ],
          [
            116.35317152027194,
            37.60991823381167
          ],
          [
            116.35647566489496,
            37.612535678294485
          ],
          [
            116.36418533568195,
            37.61689788104944
          ],
          [
            116.36969224338695,
            37.621259827900026
          ],
          [
            116.37409776955093,
            37.628238410554225
          ],
          [
            116.37409776955093,
            37.63521633802491
          ],
          [
            116.36554285246505,
            37.649760728186685
          ],
          [
            116.3629905401115,
            37.661884642789126
          ],
          [
            116.37319978952576,
            37.670976279538735
          ],
          [
            116.38723750747032,
            37.698244507190026
          ],
          [
            116.3961706007078,
            37.71036050145874
          ],
          [
            116.40127522541493,
            37.71843673063493
          ],
          [
            116.41020831865238,
            37.72954010830186
          ],
          [
            116.42296988042021,
            37.739632643543274
          ],
          [
            116.43573144218801,
            37.7487147489534
          ],
          [
            116.44338837924869,
            37.75779573987246
          ],
          [
            116.45487378483972,
            37.76990199395396
          ],
          [
            116.45870225337008,
            37.77998902523554
          ],
          [
            116.46635919043075,
            37.79310010831052
          ],
          [
            116.4689115027843,
            37.80217564929425
          ],
          [
            116.4701876589611,
            37.816290941169385
          ],
          [
            116.47401612749142,
            37.83645096281189
          ],
          [
            116.47401612749142,
            37.8545902729839
          ],
          [
            116.48550153308247,
            37.866680667478875
          ],
          [
            116.49443462631994,
            37.87272512096056
          ],
          [
            116.50974850044133,
            37.884812540259276
          ],
          [
            116.51357696897165,
            37.891862618766396
          ],
          [
            116.54803318574474,
            37.96735680213216
          ],
          [
            116.55696627898222,
            38.01161063482455
          ],
          [
            116.55569012280542,
            38.02870155635741
          ],
          [
            116.5518616542751,
            38.040763336268
          ],
          [
            116.5518616542751,
            38.05282312973957
          ],
          [
            116.56589937221966,
            38.06588566411904
          ],
          [
            116.57228015310356,
            38.07392298782337
          ],
          [
            116.57610862163392,
            38.08396840056691
          ],
          [
            116.58376555869461,
            38.10305088282109
          ],
          [
            116.58887018340172,
            38.11008001507072
          ],
          [
            116.59269865193208,
            38.113092293278726
          ],
          [
            116.61311715076057,
            38.11108412160984
          ],
          [
            116.63608796194262,
            38.11108412160984
          ],
          [
            116.65012567988721,
            38.12413625049615
          ],
          [
            116.68841036519062,
            38.14621915370156
          ],
          [
            116.72414273814051,
            38.168295374219504
          ],
          [
            116.75477048638325,
            38.19237090082451
          ],
          [
            116.80071210874736,
            38.2284692726048
          ],
          [
            116.81602598286874,
            38.24851618652421
          ],
          [
            116.84665373111149,
            38.254529182849105
          ],
          [
            116.85399162912805,
            38.26630319281197
          ],
          [
            116.8460156530231,
            38.29510389368132
          ],
          [
            116.8460156530231,
            38.31913746707894
          ],
          [
            116.86260568332125,
            38.3541721511817
          ],
          [
            116.87536724508905,
            38.38318805421575
          ],
          [
            116.87760051839848,
            38.407442420169225
          ],
          [
            116.88430033832651,
            38.42419068452845
          ],
          [
            116.88557649450338,
            38.43918583477157
          ],
          [
            116.88589553354754,
            38.465170051094276
          ],
          [
            116.87090069847032,
            38.49289288052634
          ],
          [
            116.84920604346505,
            38.5248483108679
          ],
          [
            116.84601565302313,
            38.53108795040176
          ],
          [
            116.82687331037135,
            38.56901331238391
          ],
          [
            116.81730213904551,
            38.59295586454692
          ],
          [
            116.81985445139907,
            38.604924147386235
          ],
          [
            116.82368291992942,
            38.616890434478
          ],
          [
            116.82240676375267,
            38.621875798365224
          ],
          [
            116.82240676375267,
            38.631347035048336
          ],
          [
            116.82368291992942,
            38.64081702066301
          ],
          [
            116.83516832552047,
            38.65178070407227
          ],
          [
            116.84346334066954,
            38.65975323831362
          ],
          [
            116.84346334066954,
            38.66623026898245
          ],
          [
            116.84665373111149,
            38.67071402395463
          ],
          [
            116.85175835581862,
            38.67320487760751
          ],
          [
            116.85431066817218,
            38.67420119480183
          ],
          [
            116.8575010586141,
            38.677688195779204
          ],
          [
            116.8575010586141,
            38.69586766282905
          ],
          [
            116.86196760523288,
            38.69885562630581
          ],
          [
            116.86834838611675,
            38.704831178777226
          ],
          [
            116.87600532317744,
            38.708316687127535
          ],
          [
            116.88366226023814,
            38.71329569001893
          ],
          [
            116.89068111921046,
            38.716282925300725
          ],
          [
            116.8989761343595,
            38.71976787534112
          ],
          [
            116.9066330714202,
            38.72375046730916
          ],
          [
            116.91173769612733,
            38.726737265626525
          ],
          [
            116.91429000848089,
            38.731217229001345
          ],
          [
            116.91429000848089,
            38.74067400688674
          ],
          [
            116.91429000848089,
            38.74963190460199
          ],
          [
            116.91173769612733,
            38.76107647170334
          ],
          [
            116.90918538377376,
            38.77351413710209
          ],
          [
            116.90727114950859,
            38.78346270819733
          ],
          [
            116.90727114950859,
            38.7909232257351
          ],
          [
            116.9053569152434,
            38.80236116960959
          ],
          [
            116.9066330714202,
            38.879395086170895
          ],
          [
            116.90471883715503,
            38.94964676038864
          ],
          [
            116.91173769612733,
            38.99627726683141
          ],
          [
            116.91173769612733,
            39.03246913680383
          ],
          [
            116.91301385230409,
            39.050310362289245
          ],
          [
            116.919394633188,
            39.05972474811724
          ],
          [
            116.9270515702487,
            39.06170656414701
          ],
          [
            116.93726081966295,
            39.055760949167784
          ],
          [
            116.95066045951913,
            39.04981483353103
          ],
          [
            116.96150778702177,
            39.048328226396684
          ],
          [
            116.97044088025926,
            39.0522924425554
          ],
          [
            116.97618358305478,
            39.05724739985009
          ],
          [
            116.98384052011546,
            39.067156271378906
          ],
          [
            116.98511667629224,
            39.07755908959979
          ],
          [
            116.98320244202706,
            39.08597929545902
          ],
          [
            116.98639283246904,
            39.090931888262716
          ],
          [
            116.98703091055741,
            39.092417598289565
          ],
          [
            116.9889451448226,
            39.0939032770169
          ],
          [
            117.00298286276714,
            39.11865998084693
          ],
          [
            117.00425901894393,
            39.132519936693605
          ],
          [
            117.01829673688852,
            39.14142846812947
          ],
          [
            117.03871523571702,
            39.135489572410364
          ],
          [
            117.05913373454551,
            39.132519936693605
          ],
          [
            117.07061914013654,
            39.132519936693605
          ],
          [
            117.07955223337402,
            39.13449970775322
          ],
          [
            117.09741841984892,
            39.14043868696532
          ],
          [
            117.11528460632388,
            39.14637716521054
          ],
          [
            117.12804616809171,
            39.151325514383
          ],
          [
            117.14846466692018,
            39.159242149377995
          ],
          [
            117.15867391633444,
            39.16418959392984
          ],
          [
            117.16505469721838,
            39.16344749942876
          ],
          [
            117.17143547810225,
            39.16245802791573
          ],
          [
            117.17749721994198,
            39.15602612383515
          ],
          [
            117.18100664942811,
            39.14934621646383
          ],
          [
            117.18387800082589,
            39.145882311158104
          ],
          [
            117.19185397693076,
            39.13994379116482
          ]
        ]
      },
      "properties": {
        "figure_id": "Figure 4",
        "feature_type": "route_segment",
        "id": "FIG4-CORRIDOR-AXIS-03",
        "route_name": "Fujian corridor axis",
        "geometry_basis": "Canal_LineLayer.shp project Grand Canal centreline",
        "source_summary": "Grand Canal reference geometry and the Relay Itineraries of the Huidian zeli."
      }
    }
  ]
}
