{
  "type": "FeatureCollection",
  "features": [
    {
      "type": "Feature",
      "id": "FIG4-CONTEXT-001",
      "geometry": {
        "type": "LineString",
        "coordinates": [
          [
            119.32157898,
            26.07395363
          ],
          [
            119.2344433,
            26.1010719
          ]
        ]
      },
      "properties": {
        "figure_id": "Figure 4",
        "feature_type": "route_segment",
        "id": "FIG4-CONTEXT-001",
        "route_name": "Fujian-Beijing corridor context",
        "source_name_zh": "三山驛",
        "target_name_zh": "芋原驛",
        "geometry_basis": "Mun Ho-gyeom corridor sequence and Shandong eastern continuation",
        "source_summary": "Simplified locator geometry derived from the article reconstruction."
      }
    },
    {
      "type": "Feature",
      "id": "FIG4-CONTEXT-002",
      "geometry": {
        "type": "LineString",
        "coordinates": [
          [
            119.2344433,
            26.1010719
          ],
          [
            119.081154,
            26.20901699
          ]
        ]
      },
      "properties": {
        "figure_id": "Figure 4",
        "feature_type": "route_segment",
        "id": "FIG4-CONTEXT-002",
        "route_name": "Fujian-Beijing corridor context",
        "source_name_zh": "芋原驛",
        "target_name_zh": "白沙驛",
        "geometry_basis": "Mun Ho-gyeom corridor sequence and Shandong eastern continuation",
        "source_summary": "Simplified locator geometry derived from the article reconstruction."
      }
    },
    {
      "type": "Feature",
      "id": "FIG4-CONTEXT-003",
      "geometry": {
        "type": "LineString",
        "coordinates": [
          [
            119.081154,
            26.20901699
          ],
          [
            118.76128938,
            26.35917595
          ]
        ]
      },
      "properties": {
        "figure_id": "Figure 4",
        "feature_type": "route_segment",
        "id": "FIG4-CONTEXT-003",
        "route_name": "Fujian-Beijing corridor context",
        "source_name_zh": "白沙驛",
        "target_name_zh": "水口驛",
        "geometry_basis": "Mun Ho-gyeom corridor sequence and Shandong eastern continuation",
        "source_summary": "Simplified locator geometry derived from the article reconstruction."
      }
    },
    {
      "type": "Feature",
      "id": "FIG4-CONTEXT-004",
      "geometry": {
        "type": "LineString",
        "coordinates": [
          [
            118.76128938,
            26.35917595
          ],
          [
            118.67510223,
            26.4289093
          ]
        ]
      },
      "properties": {
        "figure_id": "Figure 4",
        "feature_type": "route_segment",
        "id": "FIG4-CONTEXT-004",
        "route_name": "Fujian-Beijing corridor context",
        "source_name_zh": "水口驛",
        "target_name_zh": "黃田驛",
        "geometry_basis": "Mun Ho-gyeom corridor sequence and Shandong eastern continuation",
        "source_summary": "Simplified locator geometry derived from the article reconstruction."
      }
    },
    {
      "type": "Feature",
      "id": "FIG4-CONTEXT-005",
      "geometry": {
        "type": "LineString",
        "coordinates": [
          [
            118.67510223,
            26.4289093
          ],
          [
            118.550263,
            26.428842
          ]
        ]
      },
      "properties": {
        "figure_id": "Figure 4",
        "feature_type": "route_segment",
        "id": "FIG4-CONTEXT-005",
        "route_name": "Fujian-Beijing corridor context",
        "source_name_zh": "黃田驛",
        "target_name_zh": "嵢峽驛",
        "geometry_basis": "Mun Ho-gyeom corridor sequence and Shandong eastern continuation",
        "source_summary": "Simplified locator geometry derived from the article reconstruction."
      }
    },
    {
      "type": "Feature",
      "id": "FIG4-CONTEXT-006",
      "geometry": {
        "type": "LineString",
        "coordinates": [
          [
            118.550263,
            26.428842
          ],
          [
            118.409354,
            26.514273
          ]
        ]
      },
      "properties": {
        "figure_id": "Figure 4",
        "feature_type": "route_segment",
        "id": "FIG4-CONTEXT-006",
        "route_name": "Fujian-Beijing corridor context",
        "source_name_zh": "嵢峽驛",
        "target_name_zh": "茶洋驛",
        "geometry_basis": "Mun Ho-gyeom corridor sequence and Shandong eastern continuation",
        "source_summary": "Simplified locator geometry derived from the article reconstruction."
      }
    },
    {
      "type": "Feature",
      "id": "FIG4-CONTEXT-007",
      "geometry": {
        "type": "LineString",
        "coordinates": [
          [
            118.409354,
            26.514273
          ],
          [
            118.16918182,
            26.64217377
          ]
        ]
      },
      "properties": {
        "figure_id": "Figure 4",
        "feature_type": "route_segment",
        "id": "FIG4-CONTEXT-007",
        "route_name": "Fujian-Beijing corridor context",
        "source_name_zh": "茶洋驛",
        "target_name_zh": "劍浦驛",
        "geometry_basis": "Mun Ho-gyeom corridor sequence and Shandong eastern continuation",
        "source_summary": "Simplified locator geometry derived from the article reconstruction."
      }
    },
    {
      "type": "Feature",
      "id": "FIG4-CONTEXT-008",
      "geometry": {
        "type": "LineString",
        "coordinates": [
          [
            118.16918182,
            26.64217377
          ],
          [
            118.255791,
            26.768646
          ]
        ]
      },
      "properties": {
        "figure_id": "Figure 4",
        "feature_type": "route_segment",
        "id": "FIG4-CONTEXT-008",
        "route_name": "Fujian-Beijing corridor context",
        "source_name_zh": "劍浦驛",
        "target_name_zh": "大橫驛",
        "geometry_basis": "Mun Ho-gyeom corridor sequence and Shandong eastern continuation",
        "source_summary": "Simplified locator geometry derived from the article reconstruction."
      }
    },
    {
      "type": "Feature",
      "id": "FIG4-CONTEXT-009",
      "geometry": {
        "type": "LineString",
        "coordinates": [
          [
            118.255791,
            26.768646
          ],
          [
            118.290583,
            26.910593
          ]
        ]
      },
      "properties": {
        "figure_id": "Figure 4",
        "feature_type": "route_segment",
        "id": "FIG4-CONTEXT-009",
        "route_name": "Fujian-Beijing corridor context",
        "source_name_zh": "大橫驛",
        "target_name_zh": "太平驛",
        "geometry_basis": "Mun Ho-gyeom corridor sequence and Shandong eastern continuation",
        "source_summary": "Simplified locator geometry derived from the article reconstruction."
      }
    },
    {
      "type": "Feature",
      "id": "FIG4-CONTEXT-010",
      "geometry": {
        "type": "LineString",
        "coordinates": [
          [
            118.290583,
            26.910593
          ],
          [
            118.32378387,
            27.03886414
          ]
        ]
      },
      "properties": {
        "figure_id": "Figure 4",
        "feature_type": "route_segment",
        "id": "FIG4-CONTEXT-010",
        "route_name": "Fujian-Beijing corridor context",
        "source_name_zh": "太平驛",
        "target_name_zh": "城西驛",
        "geometry_basis": "Mun Ho-gyeom corridor sequence and Shandong eastern continuation",
        "source_summary": "Simplified locator geometry derived from the article reconstruction."
      }
    },
    {
      "type": "Feature",
      "id": "FIG4-CONTEXT-011",
      "geometry": {
        "type": "LineString",
        "coordinates": [
          [
            118.32378387,
            27.03886414
          ],
          [
            118.221629,
            27.167746
          ]
        ]
      },
      "properties": {
        "figure_id": "Figure 4",
        "feature_type": "route_segment",
        "id": "FIG4-CONTEXT-011",
        "route_name": "Fujian-Beijing corridor context",
        "source_name_zh": "城西驛",
        "target_name_zh": "葉坊驛",
        "geometry_basis": "Mun Ho-gyeom corridor sequence and Shandong eastern continuation",
        "source_summary": "Simplified locator geometry derived from the article reconstruction."
      }
    },
    {
      "type": "Feature",
      "id": "FIG4-CONTEXT-012",
      "geometry": {
        "type": "LineString",
        "coordinates": [
          [
            118.221629,
            27.167746
          ],
          [
            118.10536957,
            27.33987999
          ]
        ]
      },
      "properties": {
        "figure_id": "Figure 4",
        "feature_type": "route_segment",
        "id": "FIG4-CONTEXT-012",
        "route_name": "Fujian-Beijing corridor context",
        "source_name_zh": "葉坊驛",
        "target_name_zh": "建溪驛",
        "geometry_basis": "Mun Ho-gyeom corridor sequence and Shandong eastern continuation",
        "source_summary": "Simplified locator geometry derived from the article reconstruction."
      }
    },
    {
      "type": "Feature",
      "id": "FIG4-CONTEXT-013",
      "geometry": {
        "type": "LineString",
        "coordinates": [
          [
            118.10536957,
            27.33987999
          ],
          [
            118.11,
            27.34
          ]
        ]
      },
      "properties": {
        "figure_id": "Figure 4",
        "feature_type": "route_segment",
        "id": "FIG4-CONTEXT-013",
        "route_name": "Fujian-Beijing corridor context",
        "source_name_zh": "建溪驛",
        "target_name_zh": "營頭司驛",
        "geometry_basis": "Mun Ho-gyeom corridor sequence and Shandong eastern continuation",
        "source_summary": "Simplified locator geometry derived from the article reconstruction."
      }
    },
    {
      "type": "Feature",
      "id": "FIG4-CONTEXT-014",
      "geometry": {
        "type": "LineString",
        "coordinates": [
          [
            118.11,
            27.34
          ],
          [
            118.361343,
            27.695719
          ]
        ]
      },
      "properties": {
        "figure_id": "Figure 4",
        "feature_type": "route_segment",
        "id": "FIG4-CONTEXT-014",
        "route_name": "Fujian-Beijing corridor context",
        "source_name_zh": "營頭司驛",
        "target_name_zh": "人和公館驛",
        "geometry_basis": "Mun Ho-gyeom corridor sequence and Shandong eastern continuation",
        "source_summary": "Simplified locator geometry derived from the article reconstruction."
      }
    },
    {
      "type": "Feature",
      "id": "FIG4-CONTEXT-015",
      "geometry": {
        "type": "LineString",
        "coordinates": [
          [
            118.361343,
            27.695719
          ],
          [
            118.54,
            27.92
          ]
        ]
      },
      "properties": {
        "figure_id": "Figure 4",
        "feature_type": "route_segment",
        "id": "FIG4-CONTEXT-015",
        "route_name": "Fujian-Beijing corridor context",
        "source_name_zh": "人和公館驛",
        "target_name_zh": "柘浦驛",
        "geometry_basis": "Mun Ho-gyeom corridor sequence and Shandong eastern continuation",
        "source_summary": "Simplified locator geometry derived from the article reconstruction."
      }
    },
    {
      "type": "Feature",
      "id": "FIG4-CONTEXT-016",
      "geometry": {
        "type": "LineString",
        "coordinates": [
          [
            118.54,
            27.92
          ],
          [
            118.54,
            27.92
          ]
        ]
      },
      "properties": {
        "figure_id": "Figure 4",
        "feature_type": "route_segment",
        "id": "FIG4-CONTEXT-016",
        "route_name": "Fujian-Beijing corridor context",
        "source_name_zh": "柘浦驛",
        "target_name_zh": "小關驛",
        "geometry_basis": "Mun Ho-gyeom corridor sequence and Shandong eastern continuation",
        "source_summary": "Simplified locator geometry derived from the article reconstruction."
      }
    },
    {
      "type": "Feature",
      "id": "FIG4-CONTEXT-017",
      "geometry": {
        "type": "LineString",
        "coordinates": [
          [
            118.54,
            27.92
          ],
          [
            118.62,
            28.74
          ]
        ]
      },
      "properties": {
        "figure_id": "Figure 4",
        "feature_type": "route_segment",
        "id": "FIG4-CONTEXT-017",
        "route_name": "Fujian-Beijing corridor context",
        "source_name_zh": "小關驛",
        "target_name_zh": "廣濟驛",
        "geometry_basis": "Mun Ho-gyeom corridor sequence and Shandong eastern continuation",
        "source_summary": "Simplified locator geometry derived from the article reconstruction."
      }
    },
    {
      "type": "Feature",
      "id": "FIG4-CONTEXT-018",
      "geometry": {
        "type": "LineString",
        "coordinates": [
          [
            118.62,
            28.74
          ],
          [
            118.86764526,
            28.95682144
          ]
        ]
      },
      "properties": {
        "figure_id": "Figure 4",
        "feature_type": "route_segment",
        "id": "FIG4-CONTEXT-018",
        "route_name": "Fujian-Beijing corridor context",
        "source_name_zh": "廣濟驛",
        "target_name_zh": "上航驛",
        "geometry_basis": "Mun Ho-gyeom corridor sequence and Shandong eastern continuation",
        "source_summary": "Simplified locator geometry derived from the article reconstruction."
      }
    },
    {
      "type": "Feature",
      "id": "FIG4-CONTEXT-019",
      "geometry": {
        "type": "LineString",
        "coordinates": [
          [
            118.86764526,
            28.95682144
          ],
          [
            119.17237854,
            29.03478813
          ]
        ]
      },
      "properties": {
        "figure_id": "Figure 4",
        "feature_type": "route_segment",
        "id": "FIG4-CONTEXT-019",
        "route_name": "Fujian-Beijing corridor context",
        "source_name_zh": "上航驛",
        "target_name_zh": "亭步驛",
        "geometry_basis": "Mun Ho-gyeom corridor sequence and Shandong eastern continuation",
        "source_summary": "Simplified locator geometry derived from the article reconstruction."
      }
    },
    {
      "type": "Feature",
      "id": "FIG4-CONTEXT-020",
      "geometry": {
        "type": "LineString",
        "coordinates": [
          [
            119.17237854,
            29.03478813
          ],
          [
            119.478851,
            29.204453
          ]
        ]
      },
      "properties": {
        "figure_id": "Figure 4",
        "feature_type": "route_segment",
        "id": "FIG4-CONTEXT-020",
        "route_name": "Fujian-Beijing corridor context",
        "source_name_zh": "亭步驛",
        "target_name_zh": "瀔水驛",
        "geometry_basis": "Mun Ho-gyeom corridor sequence and Shandong eastern continuation",
        "source_summary": "Simplified locator geometry derived from the article reconstruction."
      }
    },
    {
      "type": "Feature",
      "id": "FIG4-CONTEXT-021",
      "geometry": {
        "type": "LineString",
        "coordinates": [
          [
            119.478851,
            29.204453
          ],
          [
            119.49885559,
            29.54448128
          ]
        ]
      },
      "properties": {
        "figure_id": "Figure 4",
        "feature_type": "route_segment",
        "id": "FIG4-CONTEXT-021",
        "route_name": "Fujian-Beijing corridor context",
        "source_name_zh": "瀔水驛",
        "target_name_zh": "富春驛",
        "geometry_basis": "Mun Ho-gyeom corridor sequence and Shandong eastern continuation",
        "source_summary": "Simplified locator geometry derived from the article reconstruction."
      }
    },
    {
      "type": "Feature",
      "id": "FIG4-CONTEXT-022",
      "geometry": {
        "type": "LineString",
        "coordinates": [
          [
            119.49885559,
            29.54448128
          ],
          [
            119.66493988,
            29.80245781
          ]
        ]
      },
      "properties": {
        "figure_id": "Figure 4",
        "feature_type": "route_segment",
        "id": "FIG4-CONTEXT-022",
        "route_name": "Fujian-Beijing corridor context",
        "source_name_zh": "富春驛",
        "target_name_zh": "桐江驛",
        "geometry_basis": "Mun Ho-gyeom corridor sequence and Shandong eastern continuation",
        "source_summary": "Simplified locator geometry derived from the article reconstruction."
      }
    },
    {
      "type": "Feature",
      "id": "FIG4-CONTEXT-023",
      "geometry": {
        "type": "LineString",
        "coordinates": [
          [
            119.66493988,
            29.80245781
          ],
          [
            119.94775391,
            30.05343437
          ]
        ]
      },
      "properties": {
        "figure_id": "Figure 4",
        "feature_type": "route_segment",
        "id": "FIG4-CONTEXT-023",
        "route_name": "Fujian-Beijing corridor context",
        "source_name_zh": "桐江驛",
        "target_name_zh": "會江驛",
        "geometry_basis": "Mun Ho-gyeom corridor sequence and Shandong eastern continuation",
        "source_summary": "Simplified locator geometry derived from the article reconstruction."
      }
    },
    {
      "type": "Feature",
      "id": "FIG4-CONTEXT-024",
      "geometry": {
        "type": "LineString",
        "coordinates": [
          [
            119.94775391,
            30.05343437
          ],
          [
            120.153247,
            30.21836
          ]
        ]
      },
      "properties": {
        "figure_id": "Figure 4",
        "feature_type": "route_segment",
        "id": "FIG4-CONTEXT-024",
        "route_name": "Fujian-Beijing corridor context",
        "source_name_zh": "會江驛",
        "target_name_zh": "浙江驛",
        "geometry_basis": "Mun Ho-gyeom corridor sequence and Shandong eastern continuation",
        "source_summary": "Simplified locator geometry derived from the article reconstruction."
      }
    },
    {
      "type": "Feature",
      "id": "FIG4-CONTEXT-025",
      "geometry": {
        "type": "LineString",
        "coordinates": [
          [
            120.153247,
            30.21836
          ],
          [
            120.16862488,
            30.2941246
          ]
        ]
      },
      "properties": {
        "figure_id": "Figure 4",
        "feature_type": "route_segment",
        "id": "FIG4-CONTEXT-025",
        "route_name": "Fujian-Beijing corridor context",
        "source_name_zh": "浙江驛",
        "target_name_zh": "武林驛",
        "geometry_basis": "Mun Ho-gyeom corridor sequence and Shandong eastern continuation",
        "source_summary": "Simplified locator geometry derived from the article reconstruction."
      }
    },
    {
      "type": "Feature",
      "id": "FIG4-CONTEXT-026",
      "geometry": {
        "type": "LineString",
        "coordinates": [
          [
            120.16862488,
            30.2941246
          ],
          [
            120.29733298,
            30.43153798
          ]
        ]
      },
      "properties": {
        "figure_id": "Figure 4",
        "feature_type": "route_segment",
        "id": "FIG4-CONTEXT-026",
        "route_name": "Fujian-Beijing corridor context",
        "source_name_zh": "武林驛",
        "target_name_zh": "吳山驛",
        "geometry_basis": "Mun Ho-gyeom corridor sequence and Shandong eastern continuation",
        "source_summary": "Simplified locator geometry derived from the article reconstruction."
      }
    },
    {
      "type": "Feature",
      "id": "FIG4-CONTEXT-027",
      "geometry": {
        "type": "LineString",
        "coordinates": [
          [
            120.29733298,
            30.43153798
          ],
          [
            120.41873932,
            30.53044701
          ]
        ]
      },
      "properties": {
        "figure_id": "Figure 4",
        "feature_type": "route_segment",
        "id": "FIG4-CONTEXT-027",
        "route_name": "Fujian-Beijing corridor context",
        "source_name_zh": "吳山驛",
        "target_name_zh": "皂林驛",
        "geometry_basis": "Mun Ho-gyeom corridor sequence and Shandong eastern continuation",
        "source_summary": "Simplified locator geometry derived from the article reconstruction."
      }
    },
    {
      "type": "Feature",
      "id": "FIG4-CONTEXT-028",
      "geometry": {
        "type": "LineString",
        "coordinates": [
          [
            120.41873932,
            30.53044701
          ],
          [
            120.75320435,
            30.76746941
          ]
        ]
      },
      "properties": {
        "figure_id": "Figure 4",
        "feature_type": "route_segment",
        "id": "FIG4-CONTEXT-028",
        "route_name": "Fujian-Beijing corridor context",
        "source_name_zh": "皂林驛",
        "target_name_zh": "西水驛",
        "geometry_basis": "Mun Ho-gyeom corridor sequence and Shandong eastern continuation",
        "source_summary": "Simplified locator geometry derived from the article reconstruction."
      }
    },
    {
      "type": "Feature",
      "id": "FIG4-CONTEXT-029",
      "geometry": {
        "type": "LineString",
        "coordinates": [
          [
            120.75320435,
            30.76746941
          ],
          [
            120.63081296,
            30.98402598
          ]
        ]
      },
      "properties": {
        "figure_id": "Figure 4",
        "feature_type": "route_segment",
        "id": "FIG4-CONTEXT-029",
        "route_name": "Fujian-Beijing corridor context",
        "source_name_zh": "西水驛",
        "target_name_zh": "平望驛",
        "geometry_basis": "Mun Ho-gyeom corridor sequence and Shandong eastern continuation",
        "source_summary": "Simplified locator geometry derived from the article reconstruction."
      }
    },
    {
      "type": "Feature",
      "id": "FIG4-CONTEXT-030",
      "geometry": {
        "type": "LineString",
        "coordinates": [
          [
            120.63081296,
            30.98402598
          ],
          [
            120.61862183,
            31.31270981
          ]
        ]
      },
      "properties": {
        "figure_id": "Figure 4",
        "feature_type": "route_segment",
        "id": "FIG4-CONTEXT-030",
        "route_name": "Fujian-Beijing corridor context",
        "source_name_zh": "平望驛",
        "target_name_zh": "姑蘇驛",
        "geometry_basis": "Mun Ho-gyeom corridor sequence and Shandong eastern continuation",
        "source_summary": "Simplified locator geometry derived from the article reconstruction."
      }
    },
    {
      "type": "Feature",
      "id": "FIG4-CONTEXT-031",
      "geometry": {
        "type": "LineString",
        "coordinates": [
          [
            120.61862183,
            31.31270981
          ],
          [
            120.29766846,
            31.57461357
          ]
        ]
      },
      "properties": {
        "figure_id": "Figure 4",
        "feature_type": "route_segment",
        "id": "FIG4-CONTEXT-031",
        "route_name": "Fujian-Beijing corridor context",
        "source_name_zh": "姑蘇驛",
        "target_name_zh": "錫山驛",
        "geometry_basis": "Mun Ho-gyeom corridor sequence and Shandong eastern continuation",
        "source_summary": "Simplified locator geometry derived from the article reconstruction."
      }
    },
    {
      "type": "Feature",
      "id": "FIG4-CONTEXT-032",
      "geometry": {
        "type": "LineString",
        "coordinates": [
          [
            120.29766846,
            31.57461357
          ],
          [
            119.95230103,
            31.78278351
          ]
        ]
      },
      "properties": {
        "figure_id": "Figure 4",
        "feature_type": "route_segment",
        "id": "FIG4-CONTEXT-032",
        "route_name": "Fujian-Beijing corridor context",
        "source_name_zh": "錫山驛",
        "target_name_zh": "毗陵驛",
        "geometry_basis": "Mun Ho-gyeom corridor sequence and Shandong eastern continuation",
        "source_summary": "Simplified locator geometry derived from the article reconstruction."
      }
    },
    {
      "type": "Feature",
      "id": "FIG4-CONTEXT-033",
      "geometry": {
        "type": "LineString",
        "coordinates": [
          [
            119.95230103,
            31.78278351
          ],
          [
            119.56985474,
            31.99580193
          ]
        ]
      },
      "properties": {
        "figure_id": "Figure 4",
        "feature_type": "route_segment",
        "id": "FIG4-CONTEXT-033",
        "route_name": "Fujian-Beijing corridor context",
        "source_name_zh": "毗陵驛",
        "target_name_zh": "雲陽驛",
        "geometry_basis": "Mun Ho-gyeom corridor sequence and Shandong eastern continuation",
        "source_summary": "Simplified locator geometry derived from the article reconstruction."
      }
    },
    {
      "type": "Feature",
      "id": "FIG4-CONTEXT-034",
      "geometry": {
        "type": "LineString",
        "coordinates": [
          [
            119.56985474,
            31.99580193
          ],
          [
            119.44429016,
            32.20648956
          ]
        ]
      },
      "properties": {
        "figure_id": "Figure 4",
        "feature_type": "route_segment",
        "id": "FIG4-CONTEXT-034",
        "route_name": "Fujian-Beijing corridor context",
        "source_name_zh": "雲陽驛",
        "target_name_zh": "京口驛",
        "geometry_basis": "Mun Ho-gyeom corridor sequence and Shandong eastern continuation",
        "source_summary": "Simplified locator geometry derived from the article reconstruction."
      }
    },
    {
      "type": "Feature",
      "id": "FIG4-CONTEXT-035",
      "geometry": {
        "type": "LineString",
        "coordinates": [
          [
            119.44429016,
            32.20648956
          ],
          [
            119.44,
            32.39
          ]
        ]
      },
      "properties": {
        "figure_id": "Figure 4",
        "feature_type": "route_segment",
        "id": "FIG4-CONTEXT-035",
        "route_name": "Fujian-Beijing corridor context",
        "source_name_zh": "京口驛",
        "target_name_zh": "廣陵驛",
        "geometry_basis": "Mun Ho-gyeom corridor sequence and Shandong eastern continuation",
        "source_summary": "Simplified locator geometry derived from the article reconstruction."
      }
    },
    {
      "type": "Feature",
      "id": "FIG4-CONTEXT-036",
      "geometry": {
        "type": "LineString",
        "coordinates": [
          [
            119.44,
            32.39
          ],
          [
            119.50705,
            32.53056
          ]
        ]
      },
      "properties": {
        "figure_id": "Figure 4",
        "feature_type": "route_segment",
        "id": "FIG4-CONTEXT-036",
        "route_name": "Fujian-Beijing corridor context",
        "source_name_zh": "廣陵驛",
        "target_name_zh": "邵伯驛",
        "geometry_basis": "Mun Ho-gyeom corridor sequence and Shandong eastern continuation",
        "source_summary": "Simplified locator geometry derived from the article reconstruction."
      }
    },
    {
      "type": "Feature",
      "id": "FIG4-CONTEXT-037",
      "geometry": {
        "type": "LineString",
        "coordinates": [
          [
            119.50705,
            32.53056
          ],
          [
            119.44,
            32.79
          ]
        ]
      },
      "properties": {
        "figure_id": "Figure 4",
        "feature_type": "route_segment",
        "id": "FIG4-CONTEXT-037",
        "route_name": "Fujian-Beijing corridor context",
        "source_name_zh": "邵伯驛",
        "target_name_zh": "盂城驛",
        "geometry_basis": "Mun Ho-gyeom corridor sequence and Shandong eastern continuation",
        "source_summary": "Simplified locator geometry derived from the article reconstruction."
      }
    },
    {
      "type": "Feature",
      "id": "FIG4-CONTEXT-038",
      "geometry": {
        "type": "LineString",
        "coordinates": [
          [
            119.44,
            32.79
          ],
          [
            119.421158,
            33.009068
          ]
        ]
      },
      "properties": {
        "figure_id": "Figure 4",
        "feature_type": "route_segment",
        "id": "FIG4-CONTEXT-038",
        "route_name": "Fujian-Beijing corridor context",
        "source_name_zh": "盂城驛",
        "target_name_zh": "界首驛",
        "geometry_basis": "Mun Ho-gyeom corridor sequence and Shandong eastern continuation",
        "source_summary": "Simplified locator geometry derived from the article reconstruction."
      }
    },
    {
      "type": "Feature",
      "id": "FIG4-CONTEXT-039",
      "geometry": {
        "type": "LineString",
        "coordinates": [
          [
            119.421158,
            33.009068
          ],
          [
            119.31,
            33.24
          ]
        ]
      },
      "properties": {
        "figure_id": "Figure 4",
        "feature_type": "route_segment",
        "id": "FIG4-CONTEXT-039",
        "route_name": "Fujian-Beijing corridor context",
        "source_name_zh": "界首驛",
        "target_name_zh": "安平驛",
        "geometry_basis": "Mun Ho-gyeom corridor sequence and Shandong eastern continuation",
        "source_summary": "Simplified locator geometry derived from the article reconstruction."
      }
    },
    {
      "type": "Feature",
      "id": "FIG4-CONTEXT-040",
      "geometry": {
        "type": "LineString",
        "coordinates": [
          [
            119.31,
            33.24
          ],
          [
            119.14,
            33.5
          ]
        ]
      },
      "properties": {
        "figure_id": "Figure 4",
        "feature_type": "route_segment",
        "id": "FIG4-CONTEXT-040",
        "route_name": "Fujian-Beijing corridor context",
        "source_name_zh": "安平驛",
        "target_name_zh": "淮陰驛",
        "geometry_basis": "Mun Ho-gyeom corridor sequence and Shandong eastern continuation",
        "source_summary": "Simplified locator geometry derived from the article reconstruction."
      }
    },
    {
      "type": "Feature",
      "id": "FIG4-CONTEXT-041",
      "geometry": {
        "type": "LineString",
        "coordinates": [
          [
            119.14,
            33.5
          ],
          [
            119.016685,
            33.588356
          ]
        ]
      },
      "properties": {
        "figure_id": "Figure 4",
        "feature_type": "route_segment",
        "id": "FIG4-CONTEXT-041",
        "route_name": "Fujian-Beijing corridor context",
        "source_name_zh": "淮陰驛",
        "target_name_zh": "清口驛",
        "geometry_basis": "Mun Ho-gyeom corridor sequence and Shandong eastern continuation",
        "source_summary": "Simplified locator geometry derived from the article reconstruction."
      }
    },
    {
      "type": "Feature",
      "id": "FIG4-CONTEXT-042",
      "geometry": {
        "type": "LineString",
        "coordinates": [
          [
            119.016685,
            33.588356
          ],
          [
            118.654595,
            33.68589
          ]
        ]
      },
      "properties": {
        "figure_id": "Figure 4",
        "feature_type": "route_segment",
        "id": "FIG4-CONTEXT-042",
        "route_name": "Fujian-Beijing corridor context",
        "source_name_zh": "清口驛",
        "target_name_zh": "桃源驛",
        "geometry_basis": "Mun Ho-gyeom corridor sequence and Shandong eastern continuation",
        "source_summary": "Simplified locator geometry derived from the article reconstruction."
      }
    },
    {
      "type": "Feature",
      "id": "FIG4-CONTEXT-043",
      "geometry": {
        "type": "LineString",
        "coordinates": [
          [
            118.654595,
            33.68589
          ],
          [
            118.491845,
            33.771551
          ]
        ]
      },
      "properties": {
        "figure_id": "Figure 4",
        "feature_type": "route_segment",
        "id": "FIG4-CONTEXT-043",
        "route_name": "Fujian-Beijing corridor context",
        "source_name_zh": "桃源驛",
        "target_name_zh": "古城驛",
        "geometry_basis": "Mun Ho-gyeom corridor sequence and Shandong eastern continuation",
        "source_summary": "Simplified locator geometry derived from the article reconstruction."
      }
    },
    {
      "type": "Feature",
      "id": "FIG4-CONTEXT-044",
      "geometry": {
        "type": "LineString",
        "coordinates": [
          [
            118.491845,
            33.771551
          ],
          [
            118.297058,
            33.958302
          ]
        ]
      },
      "properties": {
        "figure_id": "Figure 4",
        "feature_type": "route_segment",
        "id": "FIG4-CONTEXT-044",
        "route_name": "Fujian-Beijing corridor context",
        "source_name_zh": "古城驛",
        "target_name_zh": "鍾吾驛",
        "geometry_basis": "Mun Ho-gyeom corridor sequence and Shandong eastern continuation",
        "source_summary": "Simplified locator geometry derived from the article reconstruction."
      }
    },
    {
      "type": "Feature",
      "id": "FIG4-CONTEXT-045",
      "geometry": {
        "type": "LineString",
        "coordinates": [
          [
            118.297058,
            33.958302
          ],
          [
            118.297058,
            33.958302
          ]
        ]
      },
      "properties": {
        "figure_id": "Figure 4",
        "feature_type": "route_segment",
        "id": "FIG4-CONTEXT-045",
        "route_name": "Fujian-Beijing corridor context",
        "source_name_zh": "鍾吾驛",
        "target_name_zh": "㟃峿驛",
        "geometry_basis": "Mun Ho-gyeom corridor sequence and Shandong eastern continuation",
        "source_summary": "Simplified locator geometry derived from the article reconstruction."
      }
    },
    {
      "type": "Feature",
      "id": "FIG4-CONTEXT-046",
      "geometry": {
        "type": "LineString",
        "coordinates": [
          [
            118.297058,
            33.958302
          ],
          [
            118.343124,
            34.434876
          ]
        ]
      },
      "properties": {
        "figure_id": "Figure 4",
        "feature_type": "route_segment",
        "id": "FIG4-CONTEXT-046",
        "route_name": "Fujian-Beijing corridor context",
        "source_name_zh": "㟃峿驛",
        "target_name_zh": "紅花埠驛",
        "geometry_basis": "Mun Ho-gyeom corridor sequence and Shandong eastern continuation",
        "source_summary": "Simplified locator geometry derived from the article reconstruction."
      }
    },
    {
      "type": "Feature",
      "id": "FIG4-CONTEXT-047",
      "geometry": {
        "type": "LineString",
        "coordinates": [
          [
            118.343124,
            34.434876
          ],
          [
            118.33,
            34.62
          ]
        ]
      },
      "properties": {
        "figure_id": "Figure 4",
        "feature_type": "route_segment",
        "id": "FIG4-CONTEXT-047",
        "route_name": "Fujian-Beijing corridor context",
        "source_name_zh": "紅花埠驛",
        "target_name_zh": "在城驛",
        "geometry_basis": "Mun Ho-gyeom corridor sequence and Shandong eastern continuation",
        "source_summary": "Simplified locator geometry derived from the article reconstruction."
      }
    },
    {
      "type": "Feature",
      "id": "FIG4-CONTEXT-048",
      "geometry": {
        "type": "LineString",
        "coordinates": [
          [
            118.33,
            34.62
          ],
          [
            118.405029,
            34.891758
          ]
        ]
      },
      "properties": {
        "figure_id": "Figure 4",
        "feature_type": "route_segment",
        "id": "FIG4-CONTEXT-048",
        "route_name": "Fujian-Beijing corridor context",
        "source_name_zh": "在城驛",
        "target_name_zh": "李家莊驛",
        "geometry_basis": "Mun Ho-gyeom corridor sequence and Shandong eastern continuation",
        "source_summary": "Simplified locator geometry derived from the article reconstruction."
      }
    },
    {
      "type": "Feature",
      "id": "FIG4-CONTEXT-049",
      "geometry": {
        "type": "LineString",
        "coordinates": [
          [
            118.405029,
            34.891758
          ],
          [
            118.34,
            35.07
          ]
        ]
      },
      "properties": {
        "figure_id": "Figure 4",
        "feature_type": "route_segment",
        "id": "FIG4-CONTEXT-049",
        "route_name": "Fujian-Beijing corridor context",
        "source_name_zh": "李家莊驛",
        "target_name_zh": "在城驛",
        "geometry_basis": "Mun Ho-gyeom corridor sequence and Shandong eastern continuation",
        "source_summary": "Simplified locator geometry derived from the article reconstruction."
      }
    },
    {
      "type": "Feature",
      "id": "FIG4-CONTEXT-050",
      "geometry": {
        "type": "LineString",
        "coordinates": [
          [
            118.34,
            35.07
          ],
          [
            118.304915,
            35.348912
          ]
        ]
      },
      "properties": {
        "figure_id": "Figure 4",
        "feature_type": "route_segment",
        "id": "FIG4-CONTEXT-050",
        "route_name": "Fujian-Beijing corridor context",
        "source_name_zh": "在城驛",
        "target_name_zh": "徐公店驛",
        "geometry_basis": "Mun Ho-gyeom corridor sequence and Shandong eastern continuation",
        "source_summary": "Simplified locator geometry derived from the article reconstruction."
      }
    },
    {
      "type": "Feature",
      "id": "FIG4-CONTEXT-051",
      "geometry": {
        "type": "LineString",
        "coordinates": [
          [
            118.304915,
            35.348912
          ],
          [
            118.163063,
            35.549255
          ]
        ]
      },
      "properties": {
        "figure_id": "Figure 4",
        "feature_type": "route_segment",
        "id": "FIG4-CONTEXT-051",
        "route_name": "Fujian-Beijing corridor context",
        "source_name_zh": "徐公店驛",
        "target_name_zh": "垛莊驛",
        "geometry_basis": "Mun Ho-gyeom corridor sequence and Shandong eastern continuation",
        "source_summary": "Simplified locator geometry derived from the article reconstruction."
      }
    },
    {
      "type": "Feature",
      "id": "FIG4-CONTEXT-052",
      "geometry": {
        "type": "LineString",
        "coordinates": [
          [
            118.163063,
            35.549255
          ],
          [
            117.92838,
            35.71375
          ]
        ]
      },
      "properties": {
        "figure_id": "Figure 4",
        "feature_type": "route_segment",
        "id": "FIG4-CONTEXT-052",
        "route_name": "Fujian-Beijing corridor context",
        "source_name_zh": "垛莊驛",
        "target_name_zh": "在城驛",
        "geometry_basis": "Mun Ho-gyeom corridor sequence and Shandong eastern continuation",
        "source_summary": "Simplified locator geometry derived from the article reconstruction."
      }
    },
    {
      "type": "Feature",
      "id": "FIG4-CONTEXT-053",
      "geometry": {
        "type": "LineString",
        "coordinates": [
          [
            117.92838,
            35.71375
          ],
          [
            117.75588,
            35.90966
          ]
        ]
      },
      "properties": {
        "figure_id": "Figure 4",
        "feature_type": "route_segment",
        "id": "FIG4-CONTEXT-053",
        "route_name": "Fujian-Beijing corridor context",
        "source_name_zh": "在城驛",
        "target_name_zh": "在城驛",
        "geometry_basis": "Mun Ho-gyeom corridor sequence and Shandong eastern continuation",
        "source_summary": "Simplified locator geometry derived from the article reconstruction."
      }
    },
    {
      "type": "Feature",
      "id": "FIG4-CONTEXT-054",
      "geometry": {
        "type": "LineString",
        "coordinates": [
          [
            117.75588,
            35.90966
          ],
          [
            117.75588,
            35.90966
          ]
        ]
      },
      "properties": {
        "figure_id": "Figure 4",
        "feature_type": "route_segment",
        "id": "FIG4-CONTEXT-054",
        "route_name": "Fujian-Beijing corridor context",
        "source_name_zh": "在城驛",
        "target_name_zh": "楊柳店驛",
        "geometry_basis": "Mun Ho-gyeom corridor sequence and Shandong eastern continuation",
        "source_summary": "Simplified locator geometry derived from the article reconstruction."
      }
    },
    {
      "type": "Feature",
      "id": "FIG4-CONTEXT-055",
      "geometry": {
        "type": "LineString",
        "coordinates": [
          [
            117.75588,
            35.90966
          ],
          [
            117.12719,
            36.189
          ]
        ]
      },
      "properties": {
        "figure_id": "Figure 4",
        "feature_type": "route_segment",
        "id": "FIG4-CONTEXT-055",
        "route_name": "Fujian-Beijing corridor context",
        "source_name_zh": "楊柳店驛",
        "target_name_zh": "崔家莊驛",
        "geometry_basis": "Mun Ho-gyeom corridor sequence and Shandong eastern continuation",
        "source_summary": "Simplified locator geometry derived from the article reconstruction."
      }
    },
    {
      "type": "Feature",
      "id": "FIG4-CONTEXT-056",
      "geometry": {
        "type": "LineString",
        "coordinates": [
          [
            117.12719,
            36.189
          ],
          [
            116.94,
            36.3
          ]
        ]
      },
      "properties": {
        "figure_id": "Figure 4",
        "feature_type": "route_segment",
        "id": "FIG4-CONTEXT-056",
        "route_name": "Fujian-Beijing corridor context",
        "source_name_zh": "崔家莊驛",
        "target_name_zh": "長城驛",
        "geometry_basis": "Mun Ho-gyeom corridor sequence and Shandong eastern continuation",
        "source_summary": "Simplified locator geometry derived from the article reconstruction."
      }
    },
    {
      "type": "Feature",
      "id": "FIG4-CONTEXT-057",
      "geometry": {
        "type": "LineString",
        "coordinates": [
          [
            116.94,
            36.3
          ],
          [
            116.829399,
            36.523594
          ]
        ]
      },
      "properties": {
        "figure_id": "Figure 4",
        "feature_type": "route_segment",
        "id": "FIG4-CONTEXT-057",
        "route_name": "Fujian-Beijing corridor context",
        "source_name_zh": "長城驛",
        "target_name_zh": "崮山驛",
        "geometry_basis": "Mun Ho-gyeom corridor sequence and Shandong eastern continuation",
        "source_summary": "Simplified locator geometry derived from the article reconstruction."
      }
    },
    {
      "type": "Feature",
      "id": "FIG4-CONTEXT-058",
      "geometry": {
        "type": "LineString",
        "coordinates": [
          [
            116.829399,
            36.523594
          ],
          [
            116.77944,
            36.70007
          ]
        ]
      },
      "properties": {
        "figure_id": "Figure 4",
        "feature_type": "route_segment",
        "id": "FIG4-CONTEXT-058",
        "route_name": "Fujian-Beijing corridor context",
        "source_name_zh": "崮山驛",
        "target_name_zh": "晏城驛",
        "geometry_basis": "Mun Ho-gyeom corridor sequence and Shandong eastern continuation",
        "source_summary": "Simplified locator geometry derived from the article reconstruction."
      }
    },
    {
      "type": "Feature",
      "id": "FIG4-CONTEXT-059",
      "geometry": {
        "type": "LineString",
        "coordinates": [
          [
            116.77944,
            36.70007
          ],
          [
            116.65238953,
            36.94535828
          ]
        ]
      },
      "properties": {
        "figure_id": "Figure 4",
        "feature_type": "route_segment",
        "id": "FIG4-CONTEXT-059",
        "route_name": "Fujian-Beijing corridor context",
        "source_name_zh": "晏城驛",
        "target_name_zh": "劉普驛",
        "geometry_basis": "Mun Ho-gyeom corridor sequence and Shandong eastern continuation",
        "source_summary": "Simplified locator geometry derived from the article reconstruction."
      }
    },
    {
      "type": "Feature",
      "id": "FIG4-CONTEXT-060",
      "geometry": {
        "type": "LineString",
        "coordinates": [
          [
            116.65238953,
            36.94535828
          ],
          [
            116.42786,
            37.15674
          ]
        ]
      },
      "properties": {
        "figure_id": "Figure 4",
        "feature_type": "route_segment",
        "id": "FIG4-CONTEXT-060",
        "route_name": "Fujian-Beijing corridor context",
        "source_name_zh": "劉普驛",
        "target_name_zh": "桃園驛",
        "geometry_basis": "Mun Ho-gyeom corridor sequence and Shandong eastern continuation",
        "source_summary": "Simplified locator geometry derived from the article reconstruction."
      }
    },
    {
      "type": "Feature",
      "id": "FIG4-CONTEXT-061",
      "geometry": {
        "type": "LineString",
        "coordinates": [
          [
            116.42786,
            37.15674
          ],
          [
            116.28741455,
            37.4516449
          ]
        ]
      },
      "properties": {
        "figure_id": "Figure 4",
        "feature_type": "route_segment",
        "id": "FIG4-CONTEXT-061",
        "route_name": "Fujian-Beijing corridor context",
        "source_name_zh": "桃園驛",
        "target_name_zh": "安德驛",
        "geometry_basis": "Mun Ho-gyeom corridor sequence and Shandong eastern continuation",
        "source_summary": "Simplified locator geometry derived from the article reconstruction."
      }
    },
    {
      "type": "Feature",
      "id": "FIG4-CONTEXT-062",
      "geometry": {
        "type": "LineString",
        "coordinates": [
          [
            116.28741455,
            37.4516449
          ],
          [
            116.25810242,
            37.68800735
          ]
        ]
      },
      "properties": {
        "figure_id": "Figure 4",
        "feature_type": "route_segment",
        "id": "FIG4-CONTEXT-062",
        "route_name": "Fujian-Beijing corridor context",
        "source_name_zh": "安德驛",
        "target_name_zh": "東光驛",
        "geometry_basis": "Mun Ho-gyeom corridor sequence and Shandong eastern continuation",
        "source_summary": "Simplified locator geometry derived from the article reconstruction."
      }
    },
    {
      "type": "Feature",
      "id": "FIG4-CONTEXT-063",
      "geometry": {
        "type": "LineString",
        "coordinates": [
          [
            116.25810242,
            37.68800735
          ],
          [
            116.14470673,
            37.86817932
          ]
        ]
      },
      "properties": {
        "figure_id": "Figure 4",
        "feature_type": "route_segment",
        "id": "FIG4-CONTEXT-063",
        "route_name": "Fujian-Beijing corridor context",
        "source_name_zh": "東光驛",
        "target_name_zh": "阜城驛",
        "geometry_basis": "Mun Ho-gyeom corridor sequence and Shandong eastern continuation",
        "source_summary": "Simplified locator geometry derived from the article reconstruction."
      }
    },
    {
      "type": "Feature",
      "id": "FIG4-CONTEXT-064",
      "geometry": {
        "type": "LineString",
        "coordinates": [
          [
            116.14470673,
            37.86817932
          ],
          [
            116.2851181,
            38.01704407
          ]
        ]
      },
      "properties": {
        "figure_id": "Figure 4",
        "feature_type": "route_segment",
        "id": "FIG4-CONTEXT-064",
        "route_name": "Fujian-Beijing corridor context",
        "source_name_zh": "阜城驛",
        "target_name_zh": "富莊驛",
        "geometry_basis": "Mun Ho-gyeom corridor sequence and Shandong eastern continuation",
        "source_summary": "Simplified locator geometry derived from the article reconstruction."
      }
    },
    {
      "type": "Feature",
      "id": "FIG4-CONTEXT-065",
      "geometry": {
        "type": "LineString",
        "coordinates": [
          [
            116.2851181,
            38.01704407
          ],
          [
            116.11489868,
            38.19069672
          ]
        ]
      },
      "properties": {
        "figure_id": "Figure 4",
        "feature_type": "route_segment",
        "id": "FIG4-CONTEXT-065",
        "route_name": "Fujian-Beijing corridor context",
        "source_name_zh": "富莊驛",
        "target_name_zh": "樂城驛",
        "geometry_basis": "Mun Ho-gyeom corridor sequence and Shandong eastern continuation",
        "source_summary": "Simplified locator geometry derived from the article reconstruction."
      }
    },
    {
      "type": "Feature",
      "id": "FIG4-CONTEXT-066",
      "geometry": {
        "type": "LineString",
        "coordinates": [
          [
            116.11489868,
            38.19069672
          ],
          [
            116.08553314,
            38.43569946
          ]
        ]
      },
      "properties": {
        "figure_id": "Figure 4",
        "feature_type": "route_segment",
        "id": "FIG4-CONTEXT-066",
        "route_name": "Fujian-Beijing corridor context",
        "source_name_zh": "樂城驛",
        "target_name_zh": "瀛海驛",
        "geometry_basis": "Mun Ho-gyeom corridor sequence and Shandong eastern continuation",
        "source_summary": "Simplified locator geometry derived from the article reconstruction."
      }
    },
    {
      "type": "Feature",
      "id": "FIG4-CONTEXT-067",
      "geometry": {
        "type": "LineString",
        "coordinates": [
          [
            116.08553314,
            38.43569946
          ],
          [
            116.10706,
            38.86037
          ]
        ]
      },
      "properties": {
        "figure_id": "Figure 4",
        "feature_type": "route_segment",
        "id": "FIG4-CONTEXT-067",
        "route_name": "Fujian-Beijing corridor context",
        "source_name_zh": "瀛海驛",
        "target_name_zh": "鄚城驛",
        "geometry_basis": "Mun Ho-gyeom corridor sequence and Shandong eastern continuation",
        "source_summary": "Simplified locator geometry derived from the article reconstruction."
      }
    },
    {
      "type": "Feature",
      "id": "FIG4-CONTEXT-068",
      "geometry": {
        "type": "LineString",
        "coordinates": [
          [
            116.10706,
            38.86037
          ],
          [
            116.09270477,
            38.97587967
          ]
        ]
      },
      "properties": {
        "figure_id": "Figure 4",
        "feature_type": "route_segment",
        "id": "FIG4-CONTEXT-068",
        "route_name": "Fujian-Beijing corridor context",
        "source_name_zh": "鄚城驛",
        "target_name_zh": "歸義驛",
        "geometry_basis": "Mun Ho-gyeom corridor sequence and Shandong eastern continuation",
        "source_summary": "Simplified locator geometry derived from the article reconstruction."
      }
    },
    {
      "type": "Feature",
      "id": "FIG4-CONTEXT-069",
      "geometry": {
        "type": "LineString",
        "coordinates": [
          [
            116.09270477,
            38.97587967
          ],
          [
            115.98756409,
            39.24594879
          ]
        ]
      },
      "properties": {
        "figure_id": "Figure 4",
        "feature_type": "route_segment",
        "id": "FIG4-CONTEXT-069",
        "route_name": "Fujian-Beijing corridor context",
        "source_name_zh": "歸義驛",
        "target_name_zh": "汾水驛",
        "geometry_basis": "Mun Ho-gyeom corridor sequence and Shandong eastern continuation",
        "source_summary": "Simplified locator geometry derived from the article reconstruction."
      }
    },
    {
      "type": "Feature",
      "id": "FIG4-CONTEXT-070",
      "geometry": {
        "type": "LineString",
        "coordinates": [
          [
            115.98756409,
            39.24594879
          ],
          [
            115.97,
            39.49
          ]
        ]
      },
      "properties": {
        "figure_id": "Figure 4",
        "feature_type": "route_segment",
        "id": "FIG4-CONTEXT-070",
        "route_name": "Fujian-Beijing corridor context",
        "source_name_zh": "汾水驛",
        "target_name_zh": "涿鹿驛",
        "geometry_basis": "Mun Ho-gyeom corridor sequence and Shandong eastern continuation",
        "source_summary": "Simplified locator geometry derived from the article reconstruction."
      }
    },
    {
      "type": "Feature",
      "id": "FIG4-CONTEXT-071",
      "geometry": {
        "type": "LineString",
        "coordinates": [
          [
            115.97,
            39.49
          ],
          [
            116.13558197,
            39.7412529
          ]
        ]
      },
      "properties": {
        "figure_id": "Figure 4",
        "feature_type": "route_segment",
        "id": "FIG4-CONTEXT-071",
        "route_name": "Fujian-Beijing corridor context",
        "source_name_zh": "涿鹿驛",
        "target_name_zh": "固節驛",
        "geometry_basis": "Mun Ho-gyeom corridor sequence and Shandong eastern continuation",
        "source_summary": "Simplified locator geometry derived from the article reconstruction."
      }
    },
    {
      "type": "Feature",
      "id": "FIG4-CONTEXT-072",
      "geometry": {
        "type": "LineString",
        "coordinates": [
          [
            116.13558197,
            39.7412529
          ],
          [
            116.368004,
            39.931427
          ]
        ]
      },
      "properties": {
        "figure_id": "Figure 4",
        "feature_type": "route_segment",
        "id": "FIG4-CONTEXT-072",
        "route_name": "Fujian-Beijing corridor context",
        "source_name_zh": "固節驛",
        "target_name_zh": "北京",
        "geometry_basis": "Mun Ho-gyeom corridor sequence and Shandong eastern continuation",
        "source_summary": "Simplified locator geometry derived from the article reconstruction."
      }
    }
  ]
}
