{
  "type": "FeatureCollection",
  "features": [
    {
      "type": "Feature",
      "id": "FIG4-REF-29",
      "geometry": {
        "type": "Point",
        "coordinates": [
          120.75320435,
          30.76746941
        ]
      },
      "properties": {
        "figure_id": "Figure 4",
        "feature_type": "place",
        "historical_county": "嘉興縣",
        "coordinate_basis": "Ming courier station geometry",
        "coordinate_confidence": "provisional_supported",
        "id": "FJ:PL-QING-AUX-0033",
        "Chinese Name": "西水驛",
        "display_name": "Xishui Station 西水驛",
        "marker_role": "official_route_reference",
        "comparison_no": 29,
        "source_summary": "Huidian zeli and article appendix."
      }
    },
    {
      "type": "Feature",
      "id": "FIG4-REF-30",
      "geometry": {
        "type": "Point",
        "coordinates": [
          120.63081296,
          30.98402598
        ]
      },
      "properties": {
        "figure_id": "Figure 4",
        "feature_type": "place",
        "historical_county": "吳江縣",
        "coordinate_basis": "Ming courier station geometry",
        "coordinate_confidence": "provisional_supported",
        "id": "FJ:PL-QING-AUX-0032",
        "Chinese Name": "平望驛",
        "display_name": "Pingwang Station 平望驛",
        "marker_role": "official_route_reference",
        "comparison_no": 30,
        "source_summary": "Huidian zeli and article appendix."
      }
    },
    {
      "type": "Feature",
      "id": "FIG4-REF-32",
      "geometry": {
        "type": "Point",
        "coordinates": [
          120.29766846,
          31.57461357
        ]
      },
      "properties": {
        "figure_id": "Figure 4",
        "feature_type": "place",
        "historical_county": "無錫縣",
        "coordinate_basis": "Ming courier station geometry",
        "coordinate_confidence": "provisional_supported",
        "id": "FJ:PL-QING-AUX-0030",
        "Chinese Name": "錫山驛",
        "display_name": "Xishan Station 錫山驛",
        "marker_role": "official_route_reference",
        "comparison_no": 32,
        "source_summary": "Huidian zeli and article appendix."
      }
    },
    {
      "type": "Feature",
      "id": "FIG4-REF-33",
      "geometry": {
        "type": "Point",
        "coordinates": [
          119.952301,
          31.782784
        ]
      },
      "properties": {
        "figure_id": "Figure 4",
        "feature_type": "place",
        "coordinate_basis": "v6_time_cnty_pts_gbk.dbf",
        "coordinate_confidence": "review_required",
        "id": "county_points.geojson:40459",
        "Chinese Name": "毘陵驛",
        "display_name": "Piling Station 毘陵驛",
        "marker_role": "official_route_reference",
        "comparison_no": 33,
        "source_summary": "Huidian zeli and article appendix."
      }
    },
    {
      "type": "Feature",
      "id": "FIG4-REF-34",
      "geometry": {
        "type": "Point",
        "coordinates": [
          119.56985474,
          31.99580193
        ]
      },
      "properties": {
        "figure_id": "Figure 4",
        "feature_type": "place",
        "historical_county": "丹陽縣",
        "coordinate_basis": "Ming courier station geometry",
        "coordinate_confidence": "provisional_supported",
        "id": "FJ:PL-QING-AUX-0028",
        "Chinese Name": "雲陽驛",
        "display_name": "Yunyang Station 雲陽驛",
        "marker_role": "official_route_reference",
        "comparison_no": 34,
        "source_summary": "Huidian zeli and article appendix."
      }
    },
    {
      "type": "Feature",
      "id": "FIG4-REF-35",
      "geometry": {
        "type": "Point",
        "coordinates": [
          119.44429016,
          32.20648956
        ]
      },
      "properties": {
        "figure_id": "Figure 4",
        "feature_type": "place",
        "historical_county": "丹徒縣",
        "coordinate_basis": "Ming courier station geometry",
        "coordinate_confidence": "provisional_supported",
        "id": "FJ:PL-QING-AUX-0027",
        "Chinese Name": "京口驛",
        "display_name": "Jingkou Station 京口驛",
        "marker_role": "official_route_reference",
        "comparison_no": 35,
        "source_summary": "Huidian zeli and article appendix."
      }
    },
    {
      "type": "Feature",
      "id": "FIG4-REF-36",
      "geometry": {
        "type": "Point",
        "coordinates": [
          119.44,
          32.39
        ]
      },
      "properties": {
        "figure_id": "Figure 4",
        "feature_type": "place",
        "historical_county": "江都縣",
        "coordinate_basis": "existing Yi-Bangik research point",
        "coordinate_confidence": "provisional_supported",
        "id": "FJ:PL-QING-AUX-0026",
        "Chinese Name": "廣陵驛",
        "display_name": "Guangling Station 廣陵驛",
        "marker_role": "official_route_reference",
        "comparison_no": 36,
        "source_summary": "Huidian zeli and article appendix."
      }
    },
    {
      "type": "Feature",
      "id": "FIG4-REF-37",
      "geometry": {
        "type": "Point",
        "coordinates": [
          119.50705,
          32.53056
        ]
      },
      "properties": {
        "figure_id": "Figure 4",
        "feature_type": "place",
        "historical_county": "甘泉縣",
        "coordinate_basis": "CHGIS 1820 town/settlement point",
        "coordinate_confidence": "provisional_supported",
        "id": "FJ:PL-QING-AUX-0025",
        "Chinese Name": "邵伯驛",
        "display_name": "Shaobo Station 邵伯驛",
        "marker_role": "official_route_reference",
        "comparison_no": 37,
        "source_summary": "Huidian zeli and article appendix."
      }
    },
    {
      "type": "Feature",
      "id": "FIG4-REF-39",
      "geometry": {
        "type": "Point",
        "coordinates": [
          119.421158,
          33.009068
        ]
      },
      "properties": {
        "figure_id": "Figure 4",
        "feature_type": "place",
        "historical_zhou": "高郵州",
        "coordinate_basis": "CHGIS 1820 town/settlement point",
        "coordinate_confidence": "provisional_supported",
        "id": "FJ:PL-QING-AUX-0023",
        "Chinese Name": "界首驛",
        "display_name": "Jieshou Station 界首驛",
        "marker_role": "official_route_reference",
        "comparison_no": 39,
        "source_summary": "Huidian zeli and article appendix."
      }
    },
    {
      "type": "Feature",
      "id": "FIG4-REF-40",
      "geometry": {
        "type": "Point",
        "coordinates": [
          119.31,
          33.24
        ]
      },
      "properties": {
        "figure_id": "Figure 4",
        "feature_type": "place",
        "historical_county": "寶應縣",
        "coordinate_basis": "existing Yi-Bangik research point",
        "coordinate_confidence": "provisional_supported",
        "id": "FJ:PL-QING-AUX-0022",
        "Chinese Name": "安平驛",
        "display_name": "Anping Station 安平驛",
        "marker_role": "official_route_reference",
        "comparison_no": 40,
        "source_summary": "Huidian zeli and article appendix."
      }
    },
    {
      "type": "Feature",
      "id": "FIG4-REF-41",
      "geometry": {
        "type": "Point",
        "coordinates": [
          119.14,
          33.5
        ]
      },
      "properties": {
        "figure_id": "Figure 4",
        "feature_type": "place",
        "historical_county": "山陽縣",
        "coordinate_basis": "existing Yi-Bangik research point",
        "coordinate_confidence": "provisional_supported",
        "id": "FJ:PL-QING-AUX-0021",
        "Chinese Name": "淮陰驛",
        "display_name": "Huaiyin Station 淮陰驛",
        "marker_role": "official_route_reference",
        "comparison_no": 41,
        "source_summary": "Huidian zeli and article appendix."
      }
    },
    {
      "type": "Feature",
      "id": "FIG4-REF-43",
      "geometry": {
        "type": "Point",
        "coordinates": [
          118.654595,
          33.68589
        ]
      },
      "properties": {
        "figure_id": "Figure 4",
        "feature_type": "place",
        "historical_county": "桃源縣",
        "coordinate_basis": "county-seat/administrative point candidate",
        "coordinate_confidence": "provisional_supported",
        "id": "FJ:PL-QING-AUX-0019",
        "Chinese Name": "桃源驛",
        "display_name": "Taoyuan Station 桃源驛",
        "marker_role": "official_route_reference",
        "comparison_no": 43,
        "source_summary": "Huidian zeli and article appendix."
      }
    },
    {
      "type": "Feature",
      "id": "FIG4-REF-44",
      "geometry": {
        "type": "Point",
        "coordinates": [
          118.491845,
          33.771551
        ]
      },
      "properties": {
        "figure_id": "Figure 4",
        "feature_type": "place",
        "historical_county": "桃源縣",
        "coordinate_basis": "CHGIS 1820 town/settlement point",
        "coordinate_confidence": "provisional_supported",
        "id": "FJ:PL-QING-AUX-0018",
        "Chinese Name": "古城驛",
        "display_name": "Gucheng Station 古城驛",
        "marker_role": "official_route_reference",
        "comparison_no": 44,
        "source_summary": "Huidian zeli and article appendix."
      }
    }
  ]
}
